{
"type": "FeatureCollection",
"name": "tokyo-metro-hanzomon_stations",
"crs": { "type": "name", "properties": { "name": "urn:ogc:def:crs:OGC:1.3:CRS84" } },
"features": [
{ "type": "Feature", "properties": { "aliases": "半蔵門", "color": "#8F76D6", "line_code": "Z", "line_slug": "tokyo-metro-hanzomon", "name_en": "Hanzomon Line", "official_name": "半蔵門線", "operator": "東京メトロ", "operator_slug": "tokyo-metro", "railway": "subway", "route_id": "406", "source": "OSM Overpass", "source_url": "https://geodo.earth/lines/tokyo-metro-hanzomon/", "station_name_ja": "渋谷", "id": "node/266083652", "@id": "node/266083652", "alt_name": null, "alt_name:en": null, "alt_name:ja": null, "alt_name:ko": null, "colour": "violet", "name": "渋谷", "name:en": "Shibuya", "name:es": "Shibuya", "name:fr": "Shibuya", "name:it": null, "name:ja": "渋谷", "name:ja-Hira": "しぶや", "name:ja-Latn": null, "name:ja_rm": "Shibuya", "name:ko": "시부야", "name:ru": "Сибуя", "name:zh": null, "name:zh-Hans": null, "name:zh-Hant": null, "network": null, "note": null, "public_transport": "stop_position", "ref": "Z", "station": null, "subway": "yes", "train": "yes", "website": null, "wheelchair": null, "wikidata": "Q428811", "wikipedia": "ja:渋谷駅", "station_order": 1, "station_id": "tokyo-metro-hanzomon_st_01" }, "geometry": { "type": "Point", "coordinates": [ 139.70208305, 35.659506450015485 ] } },
{ "type": "Feature", "properties": { "aliases": "半蔵門", "color": "#8F76D6", "line_code": "Z", "line_slug": "tokyo-metro-hanzomon", "name_en": "Hanzomon Line", "official_name": "半蔵門線", "operator": "東京メトロ", "operator_slug": "tokyo-metro", "railway": "subway", "route_id": "406", "source": "OSM Overpass", "source_url": "https://geodo.earth/lines/tokyo-metro-hanzomon/", "station_name_ja": "表参道", "id": "node/6219132766", "@id": "node/6219132766", "alt_name": null, "alt_name:en": null, "alt_name:ja": null, "alt_name:ko": null, "colour": "#937CB9", "name": "表参道", "name:en": "Omote-sando", "name:es": "Omote-sando", "name:fr": null, "name:it": null, "name:ja": "表参道", "name:ja-Hira": "おもてさんどう", "name:ja-Latn": null, "name:ja_rm": "Omote Sandō", "name:ko": null, "name:ru": "Омотэсандо", "name:zh": "表参道", "name:zh-Hans": null, "name:zh-Hant": null, "network": "半蔵門線", "note": null, "public_transport": "stop_position", "ref": "Z", "station": null, "subway": "yes", "train": null, "website": null, "wheelchair": null, "wikidata": "Q1326733", "wikipedia": "ja:表参道駅", "station_order": 2, "station_id": "tokyo-metro-hanzomon_st_02" }, "geometry": { "type": "Point", "coordinates": [ 139.712425599999989, 35.665061600036644 ] } },
{ "type": "Feature", "properties": { "aliases": "半蔵門", "color": "#8F76D6", "line_code": "Z", "line_slug": "tokyo-metro-hanzomon", "name_en": "Hanzomon Line", "official_name": "半蔵門線", "operator": "東京メトロ", "operator_slug": "tokyo-metro", "railway": "subway", "route_id": "406", "source": "OSM Overpass", "source_url": "https://geodo.earth/lines/tokyo-metro-hanzomon/", "station_name_ja": "青山一丁目", "id": "node/265554028", "@id": "node/265554028", "alt_name": null, "alt_name:en": null, "alt_name:ja": null, "alt_name:ko": null, "colour": "violet", "name": "青山一丁目", "name:en": "Aoyama-itchome", "name:es": "Aoyama-itchome", "name:fr": null, "name:it": null, "name:ja": "青山一丁目", "name:ja-Hira": "あおやまいっちょうめ", "name:ja-Latn": null, "name:ja_rm": "Aoyama itchōme", "name:ko": "아오야마1초메", "name:ru": "Аояма Иттёмэ", "name:zh": "青山一丁目", "name:zh-Hans": null, "name:zh-Hant": null, "network": "都営地下鉄", "note": null, "public_transport": "stop_position", "ref": "Z", "station": "subway", "subway": "yes", "train": null, "website": null, "wheelchair": null, "wikidata": "Q602410", "wikipedia": "ja:青山一丁目駅", "station_order": 3, "station_id": "tokyo-metro-hanzomon_st_03" }, "geometry": { "type": "Point", "coordinates": [ 139.7239012, 35.672812550017433 ] } },
{ "type": "Feature", "properties": { "aliases": "半蔵門", "color": "#8F76D6", "line_code": "Z", "line_slug": "tokyo-metro-hanzomon", "name_en": "Hanzomon Line", "official_name": "半蔵門線", "operator": "東京メトロ", "operator_slug": "tokyo-metro", "railway": "subway", "route_id": "406", "source": "OSM Overpass", "source_url": "https://geodo.earth/lines/tokyo-metro-hanzomon/", "station_name_ja": "永田町", "id": "node/6179529805", "@id": "node/6179529805", "alt_name": null, "alt_name:en": null, "alt_name:ja": null, "alt_name:ko": null, "colour": null, "name": "永田町", "name:en": "Nagatacho", "name:es": "Nagatacho", "name:fr": null, "name:it": null, "name:ja": "永田町", "name:ja-Hira": null, "name:ja-Latn": null, "name:ja_rm": null, "name:ko": null, "name:ru": null, "name:zh": null, "name:zh-Hans": null, "name:zh-Hant": null, "network": null, "note": null, "public_transport": "stop_position", "ref": "Z", "station": null, "subway": "yes", "train": null, "website": null, "wheelchair": null, "wikidata": null, "wikipedia": null, "station_order": 4, "station_id": "tokyo-metro-hanzomon_st_04" }, "geometry": { "type": "Point", "coordinates": [ 139.738640199999963, 35.678341300027625 ] } },
{ "type": "Feature", "properties": { "aliases": "半蔵門", "color": "#8F76D6", "line_code": "Z", "line_slug": "tokyo-metro-hanzomon", "name_en": "Hanzomon Line", "official_name": "半蔵門線", "operator": "東京メトロ", "operator_slug": "tokyo-metro", "railway": "subway", "route_id": "406", "source": "OSM Overpass", "source_url": "https://geodo.earth/lines/tokyo-metro-hanzomon/", "station_name_ja": "半蔵門", "id": "node/1926703933", "@id": "node/1926703933", "alt_name": null, "alt_name:en": null, "alt_name:ja": null, "alt_name:ko": null, "colour": null, "name": "半蔵門", "name:en": "Hanzomon", "name:es": "Hanzomon", "name:fr": null, "name:it": null, "name:ja": "半蔵門", "name:ja-Hira": "はんぞうもん", "name:ja-Latn": null, "name:ja_rm": "Hanzōmon", "name:ko": "한조몬", "name:ru": "Хандзомон", "name:zh": null, "name:zh-Hans": null, "name:zh-Hant": null, "network": null, "note": null, "public_transport": "stop_position", "ref": "Z", "station": null, "subway": "yes", "train": "yes", "website": null, "wheelchair": null, "wikidata": "Q80551", "wikipedia": "ja:半蔵門駅", "station_order": 5, "station_id": "tokyo-metro-hanzomon_st_05" }, "geometry": { "type": "Point", "coordinates": [ 139.74157885, 35.685228750000427 ] } },
{ "type": "Feature", "properties": { "aliases": "半蔵門", "color": "#8F76D6", "line_code": "Z", "line_slug": "tokyo-metro-hanzomon", "name_en": "Hanzomon Line", "official_name": "半蔵門線", "operator": "東京メトロ", "operator_slug": "tokyo-metro", "railway": "subway", "route_id": "406", "source": "OSM Overpass", "source_url": "https://geodo.earth/lines/tokyo-metro-hanzomon/", "station_name_ja": "九段下", "id": "node/6189843873", "@id": "node/6189843873", "alt_name": null, "alt_name:en": null, "alt_name:ja": null, "alt_name:ko": null, "colour": null, "name": "九段下", "name:en": "Kudanshita", "name:es": "Kudanshita", "name:fr": null, "name:it": null, "name:ja": "九段下", "name:ja-Hira": "くだんした", "name:ja-Latn": null, "name:ja_rm": "Kudanshita", "name:ko": null, "name:ru": "Кудансита", "name:zh": null, "name:zh-Hans": null, "name:zh-Hant": null, "network": null, "note": null, "public_transport": "stop_position", "ref": "Z", "station": null, "subway": "yes", "train": null, "website": null, "wheelchair": null, "wikidata": "Q76899", "wikipedia": "ja:九段下駅", "station_order": 6, "station_id": "tokyo-metro-hanzomon_st_06" }, "geometry": { "type": "Point", "coordinates": [ 139.750546700000029, 35.695240750002569 ] } },
{ "type": "Feature", "properties": { "aliases": "半蔵門", "color": "#8F76D6", "line_code": "Z", "line_slug": "tokyo-metro-hanzomon", "name_en": "Hanzomon Line", "official_name": "半蔵門線", "operator": "東京メトロ", "operator_slug": "tokyo-metro", "railway": "subway", "route_id": "406", "source": "OSM Overpass", "source_url": "https://geodo.earth/lines/tokyo-metro-hanzomon/", "station_name_ja": "神保町", "id": "node/4855419881", "@id": "node/4855419881", "alt_name": null, "alt_name:en": null, "alt_name:ja": null, "alt_name:ko": null, "colour": null, "name": "神保町", "name:en": "Jimbocho", "name:es": "Jimbocho", "name:fr": null, "name:it": null, "name:ja": "神保町", "name:ja-Hira": "じんぼうちょう", "name:ja-Latn": null, "name:ja_rm": "Jimbōchō", "name:ko": "짐보초", "name:ru": "Дзимботё", "name:zh": "神保町站", "name:zh-Hans": null, "name:zh-Hant": null, "network": "東京メトロ半蔵門線", "note": null, "public_transport": "stop_position", "ref": "Z", "station": null, "subway": "yes", "train": null, "website": "https://www.tokyometro.jp/lang_en/station/jimbocho/", "wheelchair": null, "wikidata": "Q76805", "wikipedia": "ja:神保町駅", "station_order": 7, "station_id": "tokyo-metro-hanzomon_st_07" }, "geometry": { "type": "Point", "coordinates": [ 139.756924499999968, 35.695926300021092 ] } },
{ "type": "Feature", "properties": { "aliases": "半蔵門", "color": "#8F76D6", "line_code": "Z", "line_slug": "tokyo-metro-hanzomon", "name_en": "Hanzomon Line", "official_name": "半蔵門線", "operator": "東京メトロ", "operator_slug": "tokyo-metro", "railway": "subway", "route_id": "406", "source": "OSM Overpass", "source_url": "https://geodo.earth/lines/tokyo-metro-hanzomon/", "station_name_ja": "大手町", "id": "node/6284826964", "@id": "node/6284826964", "alt_name": null, "alt_name:en": null, "alt_name:ja": null, "alt_name:ko": null, "colour": null, "name": "大手町", "name:en": "Otemachi", "name:es": "Otemachi", "name:fr": "Ōtemachi", "name:it": null, "name:ja": "大手町", "name:ja-Hira": "おおてまち", "name:ja-Latn": null, "name:ja_rm": "Ōtemachi", "name:ko": null, "name:ru": "Отэмати", "name:zh": null, "name:zh-Hans": null, "name:zh-Hant": null, "network": null, "note": null, "public_transport": "stop_position", "ref": "Z", "station": null, "subway": "yes", "train": null, "website": null, "wheelchair": null, "wikidata": "Q1326767", "wikipedia": "ja:大手町駅 (東京都)", "station_order": 8, "station_id": "tokyo-metro-hanzomon_st_08" }, "geometry": { "type": "Point", "coordinates": [ 139.765029099999964, 35.68669730002123 ] } },
{ "type": "Feature", "properties": { "aliases": "半蔵門", "color": "#8F76D6", "line_code": "Z", "line_slug": "tokyo-metro-hanzomon", "name_en": "Hanzomon Line", "official_name": "半蔵門線", "operator": "東京メトロ", "operator_slug": "tokyo-metro", "railway": "subway", "route_id": "406", "source": "OSM Overpass", "source_url": "https://geodo.earth/lines/tokyo-metro-hanzomon/", "station_name_ja": "三越前", "id": "node/6242251383", "@id": "node/6242251383", "alt_name": null, "alt_name:en": null, "alt_name:ja": null, "alt_name:ko": null, "colour": null, "name": "三越前", "name:en": "Mitsukoshimae", "name:es": "Mitsukoshimae", "name:fr": null, "name:it": null, "name:ja": null, "name:ja-Hira": null, "name:ja-Latn": null, "name:ja_rm": null, "name:ko": null, "name:ru": null, "name:zh": null, "name:zh-Hans": null, "name:zh-Hant": null, "network": "東京メトロ半蔵門線", "note": "Hanzomon Line station, ginza line has a station of the same name.", "public_transport": "stop_position", "ref": "Z", "station": null, "subway": "yes", "train": null, "website": null, "wheelchair": null, "wikidata": null, "wikipedia": null, "station_order": 9, "station_id": "tokyo-metro-hanzomon_st_09" }, "geometry": { "type": "Point", "coordinates": [ 139.77310105, 35.684944550020248 ] } },
{ "type": "Feature", "properties": { "aliases": "半蔵門", "color": "#8F76D6", "line_code": "Z", "line_slug": "tokyo-metro-hanzomon", "name_en": "Hanzomon Line", "official_name": "半蔵門線", "operator": "東京メトロ", "operator_slug": "tokyo-metro", "railway": "subway", "route_id": "406", "source": "OSM Overpass", "source_url": "https://geodo.earth/lines/tokyo-metro-hanzomon/", "station_name_ja": "水天宮前", "id": "node/1947633322", "@id": "node/1947633322", "alt_name": null, "alt_name:en": null, "alt_name:ja": null, "alt_name:ko": "스이텐구마에", "colour": null, "name": "水天宮前", "name:en": "Suitengumae", "name:es": "Suitengumae", "name:fr": null, "name:it": null, "name:ja": "水天宮前", "name:ja-Hira": "すいてんぐうまえ", "name:ja-Latn": null, "name:ja_rm": "Suitengū Mae", "name:ko": "스이텐구앞", "name:ru": "Суйтенгумаэ", "name:zh": null, "name:zh-Hans": null, "name:zh-Hant": null, "network": null, "note": null, "public_transport": "stop_position", "ref": "Z", "station": null, "subway": "yes", "train": null, "website": null, "wheelchair": null, "wikidata": "Q80546", "wikipedia": "ja:水天宮前駅", "station_order": 10, "station_id": "tokyo-metro-hanzomon_st_10" }, "geometry": { "type": "Point", "coordinates": [ 139.78562169999995, 35.682535000006752 ] } },
{ "type": "Feature", "properties": { "aliases": "半蔵門", "color": "#8F76D6", "line_code": "Z", "line_slug": "tokyo-metro-hanzomon", "name_en": "Hanzomon Line", "official_name": "半蔵門線", "operator": "東京メトロ", "operator_slug": "tokyo-metro", "railway": "subway", "route_id": "406", "source": "OSM Overpass", "source_url": "https://geodo.earth/lines/tokyo-metro-hanzomon/", "station_name_ja": "清澄白河", "id": "node/5594511145", "@id": "node/5594511145", "alt_name": null, "alt_name:en": null, "alt_name:ja": null, "alt_name:ko": null, "colour": null, "name": "清澄白河", "name:en": "Kiyosumi-shirakawa", "name:es": "Kiyosumi-shirakawa", "name:fr": null, "name:it": null, "name:ja": "清澄白河", "name:ja-Hira": "きよすみしらかわ", "name:ja-Latn": null, "name:ja_rm": "Kiyosumi Shirakawa", "name:ko": null, "name:ru": "Киёсуми-Сиракава", "name:zh": null, "name:zh-Hans": null, "name:zh-Hant": null, "network": null, "note": null, "public_transport": "stop_position", "ref": "Z", "station": null, "subway": "yes", "train": null, "website": null, "wheelchair": null, "wikidata": null, "wikipedia": null, "station_order": 11, "station_id": "tokyo-metro-hanzomon_st_11" }, "geometry": { "type": "Point", "coordinates": [ 139.799239299999982, 35.682074050013689 ] } },
{ "type": "Feature", "properties": { "aliases": "半蔵門", "color": "#8F76D6", "line_code": "Z", "line_slug": "tokyo-metro-hanzomon", "name_en": "Hanzomon Line", "official_name": "半蔵門線", "operator": "東京メトロ", "operator_slug": "tokyo-metro", "railway": "subway", "route_id": "406", "source": "OSM Overpass", "source_url": "https://geodo.earth/lines/tokyo-metro-hanzomon/", "station_name_ja": "住吉", "id": "node/3680226249", "@id": "node/3680226249", "alt_name": null, "alt_name:en": null, "alt_name:ja": null, "alt_name:ko": null, "colour": null, "name": "住吉", "name:en": "Sumiyoshi", "name:es": "Sumiyoshi", "name:fr": null, "name:it": null, "name:ja": "住吉", "name:ja-Hira": "すみよし", "name:ja-Latn": null, "name:ja_rm": "Sumiyoshi", "name:ko": null, "name:ru": "Сумиёси", "name:zh": null, "name:zh-Hans": null, "name:zh-Hant": null, "network": null, "note": null, "public_transport": "stop_position", "ref": "Z", "station": null, "subway": "yes", "train": null, "website": null, "wheelchair": null, "wikidata": null, "wikipedia": null, "station_order": 12, "station_id": "tokyo-metro-hanzomon_st_12" }, "geometry": { "type": "Point", "coordinates": [ 139.815675949999985, 35.68873435 ] } },
{ "type": "Feature", "properties": { "aliases": "半蔵門", "color": "#8F76D6", "line_code": "Z", "line_slug": "tokyo-metro-hanzomon", "name_en": "Hanzomon Line", "official_name": "半蔵門線", "operator": "東京メトロ", "operator_slug": "tokyo-metro", "railway": "subway", "route_id": "406", "source": "OSM Overpass", "source_url": "https://geodo.earth/lines/tokyo-metro-hanzomon/", "station_name_ja": "錦糸町", "id": "node/1947633325", "@id": "node/1947633325", "alt_name": null, "alt_name:en": null, "alt_name:ja": null, "alt_name:ko": null, "colour": null, "name": "錦糸町", "name:en": "Kinshicho", "name:es": "Kinshicho", "name:fr": null, "name:it": null, "name:ja": "錦糸町", "name:ja-Hira": "きんしちょう", "name:ja-Latn": null, "name:ja_rm": "Kinshichō", "name:ko": "긴시초", "name:ru": "Кинситё", "name:zh": "锦丝町", "name:zh-Hans": "锦丝町", "name:zh-Hant": "錦絲町", "network": null, "note": null, "public_transport": "stop_position", "ref": "Z", "station": null, "subway": "yes", "train": null, "website": null, "wheelchair": null, "wikidata": null, "wikipedia": null, "station_order": 13, "station_id": "tokyo-metro-hanzomon_st_13" }, "geometry": { "type": "Point", "coordinates": [ 139.815026, 35.696345200000046 ] } },
{ "type": "Feature", "properties": { "aliases": "半蔵門", "color": "#8F76D6", "line_code": "Z", "line_slug": "tokyo-metro-hanzomon", "name_en": "Hanzomon Line", "official_name": "半蔵門線", "operator": "東京メトロ", "operator_slug": "tokyo-metro", "railway": "subway", "route_id": "406", "source": "OSM Overpass", "source_url": "https://geodo.earth/lines/tokyo-metro-hanzomon/", "station_name_ja": "押上〈スカイツリー前〉", "id": "node/6417196736", "@id": "node/6417196736", "alt_name": "押上〈スカイツリー前〉", "alt_name:en": "Oshiage ‘SKYTREE’", "alt_name:ja": "押上〈スカイツリー前〉", "alt_name:ko": null, "colour": null, "name": "押上〈スカイツリー前〉", "name:en": "Oshiage 'SKYTREE'", "name:es": "Oshiage 'SKYTREE'", "name:fr": null, "name:it": "Oshiage 'SKYTREE'", "name:ja": null, "name:ja-Hira": "おしあげ〈スカイツリーまえ〉", "name:ja-Latn": "Oshiage", "name:ja_rm": "Oshiage", "name:ko": "오시아게(스카이트리)", "name:ru": "Осиагэ (Скай-три)", "name:zh": null, "name:zh-Hans": null, "name:zh-Hant": null, "network": "東京メトロ半蔵門線", "note": null, "public_transport": "stop_position", "ref": "Z", "station": null, "subway": "yes", "train": null, "website": null, "wheelchair": "yes", "wikidata": "Q80545", "wikipedia": "ja:押上駅", "station_order": 14, "station_id": "tokyo-metro-hanzomon_st_14" }, "geometry": { "type": "Point", "coordinates": [ 139.8133516, 35.709945050000023 ] } }
]
}
