{
"type": "FeatureCollection",
"name": "tokyo-metro-yurakucho_stations",
"crs": { "type": "name", "properties": { "name": "urn:ogc:def:crs:OGC:1.3:CRS84" } },
"features": [
{ "type": "Feature", "properties": { "aliases": "有楽町", "color": "#C1A470", "line_code": "Y", "line_slug": "tokyo-metro-yurakucho", "name_en": "Yurakucho Line", "official_name": "有楽町線", "operator": "東京メトロ", "operator_slug": "tokyo-metro", "railway": "subway", "route_id": "405", "source": "OSM Overpass (ways merged)", "source_url": "https://geodo.earth/lines/tokyo-metro-yurakucho/", "name_ja": "千川01", "id": "node/7775808131", "@id": "node/7775808131", "alt_name": null, "alt_name:ja": null, "colour": "#C1A470", "loc_ref": "1", "name": "千川", "name:en": "Senkawa", "name:es": "Senkawa", "name:fr": null, "name:ja": "千川01", "name:ja-Hira": "せんかわ", "name:ja-Latn": null, "name:ja_rm": "Senkawa", "name:ko": "센카와", "name:ru": "Сэнкава", "network": null, "operator:ja": null, "public_transport": "stop_position", "ref": "Y", "station": null, "subway": "yes", "train": null, "transport": null, "wheelchair": null, "wikidata": "Q128304", "wikipedia": "ja:千川駅", "line": "yurakucho", "station_id": "tokyo-metro-yurakucho_st_11", "station_order": "11" }, "geometry": { "type": "Point", "coordinates": [ 139.689497100000011, 35.7382902 ] } },
{ "type": "Feature", "properties": { "aliases": "有楽町", "color": "#C1A470", "line_code": "Y", "line_slug": "tokyo-metro-yurakucho", "name_en": "Yurakucho Line", "official_name": "有楽町線", "operator": "東京メトロ", "operator_slug": "tokyo-metro", "railway": "subway", "route_id": "405", "source": "OSM Overpass (ways merged)", "source_url": "https://geodo.earth/lines/tokyo-metro-yurakucho/", "name_ja": "千川02", "id": "node/7775818944", "@id": "node/7775818944", "alt_name": null, "alt_name:ja": null, "colour": "#C1A470", "loc_ref": "2", "name": "千川", "name:en": "Senkawa", "name:es": "Senkawa", "name:fr": null, "name:ja": "千川02", "name:ja-Hira": "せんかわ", "name:ja-Latn": null, "name:ja_rm": "Senkawa", "name:ko": "센카와", "name:ru": "Сэнкава", "network": null, "operator:ja": null, "public_transport": "stop_position", "ref": "Y", "station": null, "subway": "yes", "train": null, "transport": null, "wheelchair": null, "wikidata": "Q128304", "wikipedia": "ja:千川駅", "line": "yurakucho", "station_id": "tokyo-metro-yurakucho_st_12", "station_order": "12" }, "geometry": { "type": "Point", "coordinates": [ 139.689419500000014, 35.738206 ] } },
{ "type": "Feature", "properties": { "aliases": "有楽町", "color": "#C1A470", "line_code": "Y", "line_slug": "tokyo-metro-yurakucho", "name_en": "Yurakucho Line", "official_name": "有楽町線", "operator": "東京メトロ", "operator_slug": "tokyo-metro", "railway": "subway", "route_id": "405", "source": "OSM Overpass (ways merged)", "source_url": "https://geodo.earth/lines/tokyo-metro-yurakucho/", "name_ja": "和光市", "id": "node/3645998146", "@id": "node/3645998146", "alt_name": null, "alt_name:ja": null, "colour": "#C1A470", "loc_ref": "2", "name": "和光市", "name:en": "Wakoshi", "name:es": null, "name:fr": null, "name:ja": "和光市", "name:ja-Hira": null, "name:ja-Latn": null, "name:ja_rm": null, "name:ko": null, "name:ru": null, "network": "東京メトロ副都心線", "operator:ja": null, "public_transport": "stop_position", "ref": "Y", "station": null, "subway": "yes", "train": null, "transport": "subway", "wheelchair": null, "wikidata": null, "wikipedia": null, "line": "yurakucho", "station_id": "tokyo-metro-yurakucho_st_01", "station_order": "1" }, "geometry": { "type": "Point", "coordinates": [ 139.61254875, 35.78845775000125 ] } },
{ "type": "Feature", "properties": { "aliases": "有楽町", "color": "#C1A470", "line_code": "Y", "line_slug": "tokyo-metro-yurakucho", "name_en": "Yurakucho Line", "official_name": "有楽町線", "operator": "東京メトロ", "operator_slug": "tokyo-metro", "railway": "subway", "route_id": "405", "source": "OSM Overpass (ways merged)", "source_url": "https://geodo.earth/lines/tokyo-metro-yurakucho/", "name_ja": "地下鉄成増01", "id": "node/7775821589", "@id": "node/7775821589", "alt_name": null, "alt_name:ja": null, "colour": "#C1A470", "loc_ref": "1", "name": "地下鉄成増", "name:en": "Chikatetsu-narimasu", "name:es": null, "name:fr": null, "name:ja": "地下鉄成増01", "name:ja-Hira": "ちかてつなります", "name:ja-Latn": null, "name:ja_rm": "Chikatetsu Narimasu", "name:ko": null, "name:ru": "Тикатэцу Наримасу", "network": null, "operator:ja": null, "public_transport": "stop_position", "ref": "Y", "station": null, "subway": "yes", "train": null, "transport": "subway", "wheelchair": null, "wikidata": "Q80506", "wikipedia": "ja:地下鉄成増駅", "line": "yurakucho", "station_id": "tokyo-metro-yurakucho_st_02", "station_order": "2" }, "geometry": { "type": "Point", "coordinates": [ 139.631333899999987, 35.776704 ] } },
{ "type": "Feature", "properties": { "aliases": "有楽町", "color": "#C1A470", "line_code": "Y", "line_slug": "tokyo-metro-yurakucho", "name_en": "Yurakucho Line", "official_name": "有楽町線", "operator": "東京メトロ", "operator_slug": "tokyo-metro", "railway": "subway", "route_id": "405", "source": "OSM Overpass (ways merged)", "source_url": "https://geodo.earth/lines/tokyo-metro-yurakucho/", "name_ja": "地下鉄成増02", "id": "node/7775796371", "@id": "node/7775796371", "alt_name": null, "alt_name:ja": null, "colour": "#C1A470", "loc_ref": "2", "name": "地下鉄成増", "name:en": "Chikatetsu-narimasu", "name:es": null, "name:fr": null, "name:ja": "地下鉄成増02", "name:ja-Hira": "ちかてつなります", "name:ja-Latn": null, "name:ja_rm": "Chikatetsu Narimasu", "name:ko": null, "name:ru": "Тикатэцу Наримасу", "network": null, "operator:ja": null, "public_transport": "stop_position", "ref": "Y", "station": null, "subway": "yes", "train": null, "transport": "subway", "wheelchair": null, "wikidata": "Q80506", "wikipedia": "ja:地下鉄成増駅", "line": "yurakucho", "station_id": "tokyo-metro-yurakucho_st_03", "station_order": "3" }, "geometry": { "type": "Point", "coordinates": [ 139.631268799999987, 35.7766151 ] } },
{ "type": "Feature", "properties": { "aliases": "有楽町", "color": "#C1A470", "line_code": "Y", "line_slug": "tokyo-metro-yurakucho", "name_en": "Yurakucho Line", "official_name": "有楽町線", "operator": "東京メトロ", "operator_slug": "tokyo-metro", "railway": "subway", "route_id": "405", "source": "OSM Overpass (ways merged)", "source_url": "https://geodo.earth/lines/tokyo-metro-yurakucho/", "name_ja": "地下鉄赤塚01", "id": "node/7775801427", "@id": "node/7775801427", "alt_name": null, "alt_name:ja": null, "colour": "#C1A470", "loc_ref": "1", "name": "地下鉄赤塚", "name:en": "Chikatetsu-akatsuka", "name:es": "Chikatetsu-akatsuka", "name:fr": null, "name:ja": "地下鉄赤塚01", "name:ja-Hira": "ちかてつあかつか", "name:ja-Latn": null, "name:ja_rm": "Chikatetsu Akatsuka", "name:ko": null, "name:ru": "Тикатэцу Акацука", "network": null, "operator:ja": null, "public_transport": "stop_position", "ref": "Y", "station": "subway", "subway": "yes", "train": null, "transport": null, "wheelchair": null, "wikidata": "Q80412", "wikipedia": "ja:地下鉄赤塚駅", "line": "yurakucho", "station_id": "tokyo-metro-yurakucho_st_05", "station_order": "5" }, "geometry": { "type": "Point", "coordinates": [ 139.644167699999969, 35.769971 ] } },
{ "type": "Feature", "properties": { "aliases": "有楽町", "color": "#C1A470", "line_code": "Y", "line_slug": "tokyo-metro-yurakucho", "name_en": "Yurakucho Line", "official_name": "有楽町線", "operator": "東京メトロ", "operator_slug": "tokyo-metro", "railway": "subway", "route_id": "405", "source": "OSM Overpass (ways merged)", "source_url": "https://geodo.earth/lines/tokyo-metro-yurakucho/", "name_ja": "地下鉄赤塚02", "id": "node/7775802447", "@id": "node/7775802447", "alt_name": null, "alt_name:ja": null, "colour": "#C1A470", "loc_ref": "2", "name": "地下鉄赤塚", "name:en": "Chikatetsu-akatsuka", "name:es": "Chikatetsu-akatsuka", "name:fr": null, "name:ja": "地下鉄赤塚02", "name:ja-Hira": "ちかてつあかつか", "name:ja-Latn": null, "name:ja_rm": "Chikatetsu Akatsuka", "name:ko": null, "name:ru": "Тикатэцу Акацука", "network": null, "operator:ja": null, "public_transport": "stop_position", "ref": "Y", "station": "subway", "subway": "yes", "train": null, "transport": null, "wheelchair": null, "wikidata": "Q80412", "wikipedia": "ja:地下鉄赤塚駅", "line": "yurakucho", "station_id": "tokyo-metro-yurakucho_st_04", "station_order": "4" }, "geometry": { "type": "Point", "coordinates": [ 139.6440815, 35.7698772 ] } },
{ "type": "Feature", "properties": { "aliases": "有楽町", "color": "#C1A470", "line_code": "Y", "line_slug": "tokyo-metro-yurakucho", "name_en": "Yurakucho Line", "official_name": "有楽町線", "operator": "東京メトロ", "operator_slug": "tokyo-metro", "railway": "subway", "route_id": "405", "source": "OSM Overpass (ways merged)", "source_url": "https://geodo.earth/lines/tokyo-metro-yurakucho/", "name_ja": "小竹向原01", "id": "node/7369566822", "@id": "node/7369566822", "alt_name": null, "alt_name:ja": null, "colour": "#C1A470", "loc_ref": "1", "name": "小竹向原", "name:en": "Kotake-mukaihara", "name:es": "Kotake-mukaihara", "name:fr": null, "name:ja": "小竹向原01", "name:ja-Hira": "こたけむかいはら", "name:ja-Latn": null, "name:ja_rm": null, "name:ko": null, "name:ru": null, "network": null, "operator:ja": null, "public_transport": "stop_position", "ref": "Y", "station": null, "subway": "yes", "train": null, "transport": null, "wheelchair": null, "wikidata": null, "wikipedia": null, "line": "yurakucho", "station_id": "tokyo-metro-yurakucho_st_10", "station_order": "10" }, "geometry": { "type": "Point", "coordinates": [ 139.6807045, 35.7429781 ] } },
{ "type": "Feature", "properties": { "aliases": "有楽町", "color": "#C1A470", "line_code": "Y", "line_slug": "tokyo-metro-yurakucho", "name_en": "Yurakucho Line", "official_name": "有楽町線", "operator": "東京メトロ", "operator_slug": "tokyo-metro", "railway": "subway", "route_id": "405", "source": "OSM Overpass (ways merged)", "source_url": "https://geodo.earth/lines/tokyo-metro-yurakucho/", "name_ja": "小竹向原04", "id": "node/7369435827", "@id": "node/7369435827", "alt_name": null, "alt_name:ja": null, "colour": "#C1A470", "loc_ref": "4", "name": "小竹向原", "name:en": "Kotake-mukaihara", "name:es": "Kotake-mukaihara", "name:fr": null, "name:ja": "小竹向原04", "name:ja-Hira": "こたけむかいはら", "name:ja-Latn": null, "name:ja_rm": null, "name:ko": null, "name:ru": null, "network": null, "operator:ja": null, "public_transport": "stop_position", "ref": "Y", "station": null, "subway": "yes", "train": null, "transport": null, "wheelchair": null, "wikidata": null, "wikipedia": null, "line": "yurakucho", "station_id": "tokyo-metro-yurakucho_st_09", "station_order": "9" }, "geometry": { "type": "Point", "coordinates": [ 139.678925, 35.7435243 ] } },
{ "type": "Feature", "properties": { "aliases": "有楽町", "color": "#C1A470", "line_code": "Y", "line_slug": "tokyo-metro-yurakucho", "name_en": "Yurakucho Line", "official_name": "有楽町線", "operator": "東京メトロ", "operator_slug": "tokyo-metro", "railway": "subway", "route_id": "405", "source": "OSM Overpass (ways merged)", "source_url": "https://geodo.earth/lines/tokyo-metro-yurakucho/", "name_ja": "市ケ谷", "id": "node/1926376077", "@id": "node/1926376077", "alt_name": null, "alt_name:ja": null, "colour": "#C1A470", "loc_ref": null, "name": "市ケ谷", "name:en": "Ichigaya", "name:es": "Ichigaya", "name:fr": null, "name:ja": "市ケ谷", "name:ja-Hira": null, "name:ja-Latn": null, "name:ja_rm": "Ichigaya", "name:ko": null, "name:ru": "Итигая", "network": "東京メトロ有楽町線", "operator:ja": null, "public_transport": "stop_position", "ref": "Y", "station": null, "subway": "yes", "train": "yes", "transport": null, "wheelchair": null, "wikidata": "Q800947", "wikipedia": "ja:市ケ谷駅", "line": "yurakucho", "station_id": "tokyo-metro-yurakucho_st_20", "station_order": "20" }, "geometry": { "type": "Point", "coordinates": [ 139.736697599999985, 35.692393050005506 ] } },
{ "type": "Feature", "properties": { "aliases": "有楽町", "color": "#C1A470", "line_code": "Y", "line_slug": "tokyo-metro-yurakucho", "name_en": "Yurakucho Line", "official_name": "有楽町線", "operator": "東京メトロ", "operator_slug": "tokyo-metro", "railway": "subway", "route_id": "405", "source": "OSM Overpass (ways merged)", "source_url": "https://geodo.earth/lines/tokyo-metro-yurakucho/", "name_ja": "平和台", "id": "node/7775791257", "@id": "node/7775791257", "alt_name": null, "alt_name:ja": null, "colour": "#C1A470", "loc_ref": "1", "name": "平和台", "name:en": "Heiwadai", "name:es": "Heiwadai", "name:fr": null, "name:ja": "平和台", "name:ja-Hira": "へいわだい", "name:ja-Latn": null, "name:ja_rm": "Heiwadai", "name:ko": null, "name:ru": "Хэйвадай", "network": null, "operator:ja": null, "public_transport": "stop_position", "ref": "Y", "station": null, "subway": "yes", "train": null, "transport": null, "wheelchair": null, "wikidata": null, "wikipedia": null, "line": "yurakucho", "station_id": "tokyo-metro-yurakucho_st_06", "station_order": "6" }, "geometry": { "type": "Point", "coordinates": [ 139.6542043, 35.757651950011216 ] } },
{ "type": "Feature", "properties": { "aliases": "有楽町", "color": "#C1A470", "line_code": "Y", "line_slug": "tokyo-metro-yurakucho", "name_en": "Yurakucho Line", "official_name": "有楽町線", "operator": "東京メトロ", "operator_slug": "tokyo-metro", "railway": "subway", "route_id": "405", "source": "OSM Overpass (ways merged)", "source_url": "https://geodo.earth/lines/tokyo-metro-yurakucho/", "name_ja": "新富町", "id": "node/6274908262", "@id": "node/6274908262", "alt_name": null, "alt_name:ja": null, "colour": "#C1A470", "loc_ref": null, "name": "新富町", "name:en": "Shintomicho", "name:es": "Shintomicho", "name:fr": null, "name:ja": "新富町", "name:ja-Hira": "しんとみちょう", "name:ja-Latn": null, "name:ja_rm": "Shintomichō", "name:ko": null, "name:ru": "Синтомитё", "network": null, "operator:ja": "東京地下鉄", "public_transport": "stop_position", "ref": "Y", "station": null, "subway": "yes", "train": null, "transport": null, "wheelchair": "yes", "wikidata": "Q332002", "wikipedia": "ja:新富町駅 (東京都)", "line": "yurakucho", "station_id": "tokyo-metro-yurakucho_st_25", "station_order": "25" }, "geometry": { "type": "Point", "coordinates": [ 139.7734197, 35.670634400001603 ] } },
{ "type": "Feature", "properties": { "aliases": "有楽町", "color": "#C1A470", "line_code": "Y", "line_slug": "tokyo-metro-yurakucho", "name_en": "Yurakucho Line", "official_name": "有楽町線", "operator": "東京メトロ", "operator_slug": "tokyo-metro", "railway": "subway", "route_id": "405", "source": "OSM Overpass (ways merged)", "source_url": "https://geodo.earth/lines/tokyo-metro-yurakucho/", "name_ja": "新木場", "id": "node/31330041", "@id": "node/31330041", "alt_name": null, "alt_name:ja": null, "colour": "#C1A470", "loc_ref": null, "name": "新木場", "name:en": "Shin-kiba", "name:es": "Shin-Kiba", "name:fr": null, "name:ja": "新木場", "name:ja-Hira": "しんきば", "name:ja-Latn": null, "name:ja_rm": "Shin-kiba", "name:ko": null, "name:ru": "Синкиба", "network": null, "operator:ja": null, "public_transport": "stop_position", "ref": "Y", "station": null, "subway": "yes", "train": null, "transport": null, "wheelchair": "yes", "wikidata": "Q1376066", "wikipedia": "ja:新木場駅", "line": "yurakucho", "station_id": "tokyo-metro-yurakucho_st_29", "station_order": "29" }, "geometry": { "type": "Point", "coordinates": [ 139.826649899999978, 35.64590050003418 ] } },
{ "type": "Feature", "properties": { "aliases": "有楽町", "color": "#C1A470", "line_code": "Y", "line_slug": "tokyo-metro-yurakucho", "name_en": "Yurakucho Line", "official_name": "有楽町線", "operator": "東京メトロ", "operator_slug": "tokyo-metro", "railway": "subway", "route_id": "405", "source": "OSM Overpass (ways merged)", "source_url": "https://geodo.earth/lines/tokyo-metro-yurakucho/", "name_ja": "月島", "id": "node/6278523324", "@id": "node/6278523324", "alt_name": null, "alt_name:ja": null, "colour": "#C1A470", "loc_ref": null, "name": "月島", "name:en": "Tsukishima", "name:es": "Tsukishima", "name:fr": "Tsukishima", "name:ja": "月島", "name:ja-Hira": "つきしま", "name:ja-Latn": "Tsukishima", "name:ja_rm": null, "name:ko": null, "name:ru": "Цукисима", "network": null, "operator:ja": null, "public_transport": "stop_position", "ref": "Y", "station": null, "subway": "yes", "train": null, "transport": null, "wheelchair": null, "wikidata": "Q112337", "wikipedia": "ja:月島駅", "line": "yurakucho", "station_id": "tokyo-metro-yurakucho_st_26", "station_order": "26" }, "geometry": { "type": "Point", "coordinates": [ 139.78471215, 35.664535500007318 ] } },
{ "type": "Feature", "properties": { "aliases": "有楽町", "color": "#C1A470", "line_code": "Y", "line_slug": "tokyo-metro-yurakucho", "name_en": "Yurakucho Line", "official_name": "有楽町線", "operator": "東京メトロ", "operator_slug": "tokyo-metro", "railway": "subway", "route_id": "405", "source": "OSM Overpass (ways merged)", "source_url": "https://geodo.earth/lines/tokyo-metro-yurakucho/", "name_ja": "東池袋", "id": "node/6277315766", "@id": "node/6277315766", "alt_name": null, "alt_name:ja": null, "colour": "#C1A470", "loc_ref": null, "name": "東池袋", "name:en": "Higashi-ikebukuro", "name:es": "Higashi-ikebukuro", "name:fr": null, "name:ja": "東池袋", "name:ja-Hira": null, "name:ja-Latn": null, "name:ja_rm": "Higashi Ikebukuro", "name:ko": null, "name:ru": "Хигаси Икэбукуро", "network": null, "operator:ja": null, "public_transport": "stop_position", "ref": "Y", "station": null, "subway": "yes", "train": null, "transport": null, "wheelchair": null, "wikidata": "Q331193", "wikipedia": "ja:東池袋駅", "line": "yurakucho", "station_id": "tokyo-metro-yurakucho_st_16", "station_order": "16" }, "geometry": { "type": "Point", "coordinates": [ 139.71955405, 35.725660700009996 ] } },
{ "type": "Feature", "properties": { "aliases": "有楽町", "color": "#C1A470", "line_code": "Y", "line_slug": "tokyo-metro-yurakucho", "name_en": "Yurakucho Line", "official_name": "有楽町線", "operator": "東京メトロ", "operator_slug": "tokyo-metro", "railway": "subway", "route_id": "405", "source": "OSM Overpass (ways merged)", "source_url": "https://geodo.earth/lines/tokyo-metro-yurakucho/", "name_ja": "桜田門", "id": "node/1926376080", "@id": "node/1926376080", "alt_name": null, "alt_name:ja": null, "colour": "#C1A470", "loc_ref": null, "name": "桜田門", "name:en": "Sakuradamon", "name:es": "Sakuradamon", "name:fr": null, "name:ja": "桜田門", "name:ja-Hira": "さくらだもん", "name:ja-Latn": null, "name:ja_rm": "Sakudaramon", "name:ko": null, "name:ru": "Сакурадамон", "network": "東京メトロ有楽町線", "operator:ja": null, "public_transport": "stop_position", "ref": "Y", "station": null, "subway": "yes", "train": null, "transport": null, "wheelchair": null, "wikidata": "Q277196", "wikipedia": "ja:桜田門駅", "line": "yurakucho", "station_id": "tokyo-metro-yurakucho_st_23", "station_order": "23" }, "geometry": { "type": "Point", "coordinates": [ 139.7516904, 35.677402650019332 ] } },
{ "type": "Feature", "properties": { "aliases": "有楽町", "color": "#C1A470", "line_code": "Y", "line_slug": "tokyo-metro-yurakucho", "name_en": "Yurakucho Line", "official_name": "有楽町線", "operator": "東京メトロ", "operator_slug": "tokyo-metro", "railway": "subway", "route_id": "405", "source": "OSM Overpass (ways merged)", "source_url": "https://geodo.earth/lines/tokyo-metro-yurakucho/", "name_ja": "氷川台01", "id": "node/7775824110", "@id": "node/7775824110", "alt_name": null, "alt_name:ja": null, "colour": "#C1A470", "loc_ref": "1", "name": "氷川台", "name:en": "Hikawadai", "name:es": "Hikawadai", "name:fr": null, "name:ja": "氷川台01", "name:ja-Hira": "ひかわだい", "name:ja-Latn": null, "name:ja_rm": "Hikawadai", "name:ko": null, "name:ru": "Хикавадай", "network": null, "operator:ja": null, "public_transport": "stop_position", "ref": "Y", "station": "subway", "subway": "yes", "train": null, "transport": null, "wheelchair": null, "wikidata": "Q93680", "wikipedia": "ja:氷川台駅", "line": "yurakucho", "station_id": "tokyo-metro-yurakucho_st_07", "station_order": "7" }, "geometry": { "type": "Point", "coordinates": [ 139.6650785, 35.7498601 ] } },
{ "type": "Feature", "properties": { "aliases": "有楽町", "color": "#C1A470", "line_code": "Y", "line_slug": "tokyo-metro-yurakucho", "name_en": "Yurakucho Line", "official_name": "有楽町線", "operator": "東京メトロ", "operator_slug": "tokyo-metro", "railway": "subway", "route_id": "405", "source": "OSM Overpass (ways merged)", "source_url": "https://geodo.earth/lines/tokyo-metro-yurakucho/", "name_ja": "氷川台02", "id": "node/7775809567", "@id": "node/7775809567", "alt_name": null, "alt_name:ja": null, "colour": "#C1A470", "loc_ref": "2", "name": "氷川台", "name:en": "Hikawadai", "name:es": "Hikawadai", "name:fr": null, "name:ja": "氷川台02", "name:ja-Hira": "ひかわだい", "name:ja-Latn": null, "name:ja_rm": "Hikawadai", "name:ko": null, "name:ru": "Хикавадай", "network": null, "operator:ja": null, "public_transport": "stop_position", "ref": "Y", "station": "subway", "subway": "yes", "train": null, "transport": null, "wheelchair": null, "wikidata": "Q93680", "wikipedia": "ja:氷川台駅", "line": "yurakucho", "station_id": "tokyo-metro-yurakucho_st_08", "station_order": "8" }, "geometry": { "type": "Point", "coordinates": [ 139.6650562, 35.7498203 ] } },
{ "type": "Feature", "properties": { "aliases": "有楽町", "color": "#C1A470", "line_code": "Y", "line_slug": "tokyo-metro-yurakucho", "name_en": "Yurakucho Line", "official_name": "有楽町線", "operator": "東京メトロ", "operator_slug": "tokyo-metro", "railway": "subway", "route_id": "405", "source": "OSM Overpass (ways merged)", "source_url": "https://geodo.earth/lines/tokyo-metro-yurakucho/", "name_ja": "永田町", "id": "node/6179529804", "@id": "node/6179529804", "alt_name": null, "alt_name:ja": null, "colour": "#C1A470", "loc_ref": null, "name": "永田町", "name:en": "Nagatacho", "name:es": "Nagatacho", "name:fr": null, "name:ja": "永田町", "name:ja-Hira": null, "name:ja-Latn": null, "name:ja_rm": null, "name:ko": null, "name:ru": null, "network": null, "operator:ja": null, "public_transport": "stop_position", "ref": "Y", "station": null, "subway": "yes", "train": null, "transport": null, "wheelchair": null, "wikidata": null, "wikipedia": null, "line": "yurakucho", "station_id": "tokyo-metro-yurakucho_st_22", "station_order": "22" }, "geometry": { "type": "Point", "coordinates": [ 139.741581, 35.677934550018513 ] } },
{ "type": "Feature", "properties": { "aliases": "有楽町", "color": "#C1A470", "line_code": "Y", "line_slug": "tokyo-metro-yurakucho", "name_en": "Yurakucho Line", "official_name": "有楽町線", "operator": "東京メトロ", "operator_slug": "tokyo-metro", "railway": "subway", "route_id": "405", "source": "OSM Overpass (ways merged)", "source_url": "https://geodo.earth/lines/tokyo-metro-yurakucho/", "name_ja": "江戸川橋", "id": "node/1926376082", "@id": "node/1926376082", "alt_name": null, "alt_name:ja": null, "colour": "#C1A470", "loc_ref": null, "name": "江戸川橋", "name:en": "Edogawabashi", "name:es": "Edogawabashi", "name:fr": null, "name:ja": "江戸川橋", "name:ja-Hira": "えどがわばし", "name:ja-Latn": null, "name:ja_rm": "Edogawabashi", "name:ko": "에도가와바시", "name:ru": "Эдогавабаси", "network": "東京メトロ", "operator:ja": null, "public_transport": "stop_position", "ref": "Y", "station": null, "subway": "yes", "train": null, "transport": null, "wheelchair": null, "wikidata": null, "wikipedia": null, "line": "yurakucho", "station_id": "tokyo-metro-yurakucho_st_18", "station_order": "18" }, "geometry": { "type": "Point", "coordinates": [ 139.733567299999976, 35.709522500013918 ] } },
{ "type": "Feature", "properties": { "aliases": "有楽町", "color": "#C1A470", "line_code": "Y", "line_slug": "tokyo-metro-yurakucho", "name_en": "Yurakucho Line", "official_name": "有楽町線", "operator": "東京メトロ", "operator_slug": "tokyo-metro", "railway": "subway", "route_id": "405", "source": "OSM Overpass (ways merged)", "source_url": "https://geodo.earth/lines/tokyo-metro-yurakucho/", "name_ja": "池袋", "id": "node/6224948698", "@id": "node/6224948698", "alt_name": null, "alt_name:ja": null, "colour": "#C1A470", "loc_ref": null, "name": "池袋", "name:en": "Ikebukuro", "name:es": "Ikebukuro", "name:fr": "Le sac de l'étang", "name:ja": "池袋", "name:ja-Hira": "いけぶくろ", "name:ja-Latn": "Ikebukuro", "name:ja_rm": null, "name:ko": null, "name:ru": "Икебукуро", "network": null, "operator:ja": null, "public_transport": "stop_position", "ref": "Y", "station": null, "subway": "yes", "train": null, "transport": null, "wheelchair": "yes", "wikidata": null, "wikipedia": null, "line": "yurakucho", "station_id": "tokyo-metro-yurakucho_st_15", "station_order": "15" }, "geometry": { "type": "Point", "coordinates": [ 139.70968874999997, 35.72965140002141 ] } },
{ "type": "Feature", "properties": { "aliases": "有楽町", "color": "#C1A470", "line_code": "Y", "line_slug": "tokyo-metro-yurakucho", "name_en": "Yurakucho Line", "official_name": "有楽町線", "operator": "東京メトロ", "operator_slug": "tokyo-metro", "railway": "subway", "route_id": "405", "source": "OSM Overpass (ways merged)", "source_url": "https://geodo.earth/lines/tokyo-metro-yurakucho/", "name_ja": "要町01", "id": "node/6213383386", "@id": "node/6213383386", "alt_name": null, "alt_name:ja": null, "colour": "#C1A470", "loc_ref": "1", "name": "要町", "name:en": "Kanamecho", "name:es": "Kanamecho", "name:fr": null, "name:ja": "要町01", "name:ja-Hira": "かなめちょう", "name:ja-Latn": null, "name:ja_rm": "Kanamechō", "name:ko": null, "name:ru": "Канамэтё", "network": null, "operator:ja": null, "public_transport": "stop_position", "ref": "Y", "station": null, "subway": "yes", "train": null, "transport": null, "wheelchair": null, "wikidata": null, "wikipedia": null, "line": "yurakucho", "station_id": "tokyo-metro-yurakucho_st_14", "station_order": "14" }, "geometry": { "type": "Point", "coordinates": [ 139.698716, 35.73328 ] } },
{ "type": "Feature", "properties": { "aliases": "有楽町", "color": "#C1A470", "line_code": "Y", "line_slug": "tokyo-metro-yurakucho", "name_en": "Yurakucho Line", "official_name": "有楽町線", "operator": "東京メトロ", "operator_slug": "tokyo-metro", "railway": "subway", "route_id": "405", "source": "OSM Overpass (ways merged)", "source_url": "https://geodo.earth/lines/tokyo-metro-yurakucho/", "name_ja": "要町02", "id": "node/6213383389", "@id": "node/6213383389", "alt_name": null, "alt_name:ja": null, "colour": "#C1A470", "loc_ref": "2", "name": "要町", "name:en": "Kanamecho", "name:es": "Kanamecho", "name:fr": null, "name:ja": "要町02", "name:ja-Hira": "かなめちょう", "name:ja-Latn": null, "name:ja_rm": "Kanamechō", "name:ko": null, "name:ru": "Канамэтё", "network": null, "operator:ja": null, "public_transport": "stop_position", "ref": "Y", "station": null, "subway": "yes", "train": null, "transport": null, "wheelchair": null, "wikidata": null, "wikipedia": null, "line": "yurakucho", "station_id": "tokyo-metro-yurakucho_st_13", "station_order": "13" }, "geometry": { "type": "Point", "coordinates": [ 139.6986892, 35.7332269 ] } },
{ "type": "Feature", "properties": { "aliases": "有楽町", "color": "#C1A470", "line_code": "Y", "line_slug": "tokyo-metro-yurakucho", "name_en": "Yurakucho Line", "official_name": "有楽町線", "operator": "東京メトロ", "operator_slug": "tokyo-metro", "railway": "subway", "route_id": "405", "source": "OSM Overpass (ways merged)", "source_url": "https://geodo.earth/lines/tokyo-metro-yurakucho/", "name_ja": "護国寺", "id": "node/1926376085", "@id": "node/1926376085", "alt_name": null, "alt_name:ja": null, "colour": "#C1A470", "loc_ref": null, "name": "護国寺", "name:en": "Gokokuji", "name:es": "Gokokuji", "name:fr": null, "name:ja": "護国寺", "name:ja-Hira": "ごこくじ", "name:ja-Latn": null, "name:ja_rm": "Gokokuji", "name:ko": "고코쿠지", "name:ru": "Гококудзи", "network": null, "operator:ja": null, "public_transport": "stop_position", "ref": "Y", "station": null, "subway": "yes", "train": null, "transport": null, "wheelchair": null, "wikidata": null, "wikipedia": null, "line": "yurakucho", "station_id": "tokyo-metro-yurakucho_st_17", "station_order": "17" }, "geometry": { "type": "Point", "coordinates": [ 139.727454349999988, 35.719076350004585 ] } },
{ "type": "Feature", "properties": { "aliases": "有楽町", "color": "#C1A470", "line_code": "Y", "line_slug": "tokyo-metro-yurakucho", "name_en": "Yurakucho Line", "official_name": "有楽町線", "operator": "東京メトロ", "operator_slug": "tokyo-metro", "railway": "subway", "route_id": "405", "source": "OSM Overpass (ways merged)", "source_url": "https://geodo.earth/lines/tokyo-metro-yurakucho/", "name_ja": "豊洲", "id": "node/6274211196", "@id": "node/6274211196", "alt_name": null, "alt_name:ja": null, "colour": "#C1A470", "loc_ref": null, "name": "豊洲", "name:en": "Toyosu", "name:es": "Toyosu", "name:fr": null, "name:ja": "豊洲", "name:ja-Hira": "とよす", "name:ja-Latn": null, "name:ja_rm": "Toyosu", "name:ko": null, "name:ru": "Тоёсу", "network": null, "operator:ja": null, "public_transport": "stop_position", "ref": "Y", "station": null, "subway": "yes", "train": null, "transport": null, "wheelchair": "yes", "wikidata": "Q1141968", "wikipedia": "ja:豊洲駅", "line": "yurakucho", "station_id": "tokyo-metro-yurakucho_st_27", "station_order": "27" }, "geometry": { "type": "Point", "coordinates": [ 139.796105049999966, 35.655002500038378 ] } },
{ "type": "Feature", "properties": { "aliases": "有楽町", "color": "#C1A470", "line_code": "Y", "line_slug": "tokyo-metro-yurakucho", "name_en": "Yurakucho Line", "official_name": "有楽町線", "operator": "東京メトロ", "operator_slug": "tokyo-metro", "railway": "subway", "route_id": "405", "source": "OSM Overpass (ways merged)", "source_url": "https://geodo.earth/lines/tokyo-metro-yurakucho/", "name_ja": "辰巳", "id": "node/31330037", "@id": "node/31330037", "alt_name": null, "alt_name:ja": null, "colour": "#C1A470", "loc_ref": null, "name": "辰巳", "name:en": "Tatsumi", "name:es": "Tatsumi", "name:fr": null, "name:ja": "辰巳", "name:ja-Hira": "たつみ", "name:ja-Latn": null, "name:ja_rm": "Tatsumi", "name:ko": "다쓰미", "name:ru": "Тацуми", "network": null, "operator:ja": null, "public_transport": "stop_position", "ref": "Y", "station": null, "subway": "yes", "train": null, "transport": null, "wheelchair": null, "wikidata": "Q331177", "wikipedia": "ja:辰巳駅", "line": "yurakucho", "station_id": "tokyo-metro-yurakucho_st_28", "station_order": "28" }, "geometry": { "type": "Point", "coordinates": [ 139.810666949999984, 35.6455126000007 ] } },
{ "type": "Feature", "properties": { "aliases": "有楽町", "color": "#C1A470", "line_code": "Y", "line_slug": "tokyo-metro-yurakucho", "name_en": "Yurakucho Line", "official_name": "有楽町線", "operator": "東京メトロ", "operator_slug": "tokyo-metro", "railway": "subway", "route_id": "405", "source": "OSM Overpass (ways merged)", "source_url": "https://geodo.earth/lines/tokyo-metro-yurakucho/", "name_ja": "銀座一丁目", "id": "node/1926376086", "@id": "node/1926376086", "alt_name": null, "alt_name:ja": null, "colour": "#C1A470", "loc_ref": null, "name": "銀座一丁目", "name:en": "Ginza-itchome", "name:es": "Ginza-itchome", "name:fr": null, "name:ja": "銀座一丁目", "name:ja-Hira": "ぎんざいっちょうめ", "name:ja-Latn": null, "name:ja_rm": "Ginza Itchōme", "name:ko": "긴자1초메", "name:ru": "Гиндза Иттёмэ", "network": null, "operator:ja": null, "public_transport": "stop_position", "ref": "Y", "station": null, "subway": "yes", "train": null, "transport": null, "wheelchair": "no", "wikidata": "Q331185", "wikipedia": "ja:銀座一丁目駅", "line": "yurakucho", "station_id": "tokyo-metro-yurakucho_st_24", "station_order": "24" }, "geometry": { "type": "Point", "coordinates": [ 139.767040349999974, 35.674355000003487 ] } },
{ "type": "Feature", "properties": { "aliases": "有楽町", "color": "#C1A470", "line_code": "Y", "line_slug": "tokyo-metro-yurakucho", "name_en": "Yurakucho Line", "official_name": "有楽町線", "operator": "東京メトロ", "operator_slug": "tokyo-metro", "railway": "subway", "route_id": "405", "source": "OSM Overpass (ways merged)", "source_url": "https://geodo.earth/lines/tokyo-metro-yurakucho/", "name_ja": "飯田橋", "id": "node/1894258041", "@id": "node/1894258041", "alt_name": null, "alt_name:ja": null, "colour": "#C1A470", "loc_ref": null, "name": "飯田橋", "name:en": "Iidabashi", "name:es": "Iidabashi", "name:fr": null, "name:ja": "飯田橋", "name:ja-Hira": "いいだばし", "name:ja-Latn": null, "name:ja_rm": "Iidabashi", "name:ko": null, "name:ru": "Иидабаси", "network": null, "operator:ja": null, "public_transport": "stop_position", "ref": "Y", "station": null, "subway": "yes", "train": "yes", "transport": null, "wheelchair": null, "wikidata": "Q800953", "wikipedia": "ja:飯田橋駅", "line": "yurakucho", "station_id": "tokyo-metro-yurakucho_st_19", "station_order": "19" }, "geometry": { "type": "Point", "coordinates": [ 139.743549649999977, 35.701597800008159 ] } },
{ "type": "Feature", "properties": { "aliases": "有楽町", "color": "#C1A470", "line_code": "Y", "line_slug": "tokyo-metro-yurakucho", "name_en": "Yurakucho Line", "official_name": "有楽町線", "operator": "東京メトロ", "operator_slug": "tokyo-metro", "railway": "subway", "route_id": "405", "source": "OSM Overpass (ways merged)", "source_url": "https://geodo.earth/lines/tokyo-metro-yurakucho/", "name_ja": "麴町", "id": "node/1926376088", "@id": "node/1926376088", "alt_name": "麴町", "alt_name:ja": "麹町", "colour": "#C1A470", "loc_ref": null, "name": "麹町", "name:en": "Kojimachi", "name:es": "Kojimachi", "name:fr": null, "name:ja": "麴町", "name:ja-Hira": "こうじまち", "name:ja-Latn": null, "name:ja_rm": "Kōjimachi", "name:ko": "고지마치", "name:ru": "Кодзимати", "network": null, "operator:ja": null, "public_transport": "stop_position", "ref": "Y", "station": null, "subway": "yes", "train": null, "transport": null, "wheelchair": null, "wikidata": "Q331948", "wikipedia": "ja:麹町駅", "line": "yurakucho", "station_id": "tokyo-metro-yurakucho_st_21", "station_order": "21" }, "geometry": { "type": "Point", "coordinates": [ 139.737651449999987, 35.684024400000212 ] } }
]
}
