{
"type": "FeatureCollection",
"name": "tokyo-metro-marunouchi_stations",
"crs": { "type": "name", "properties": { "name": "urn:ogc:def:crs:OGC:1.3:CRS84" } },
"features": [
{ "type": "Feature", "properties": { "name:pap": null, "public_transport": "station", "addr:neighbourhood": null, "name:ja-Latn": "Ikebukuro", "ref": "M25", "alt_name:ko": null, "name": "池袋", "addr:city": null, "addr:quarter": null, "name:nan": null, "name:de": null, "name:th": "อิเคะบุคุโระ", "name:ja-Hira": "いけぶくろ", "internet_access:fee": null, "name:lb": null, "name:pl": null, "name:sl": null, "name:sr": null, "name:szl": null, "name:yue": null, "name:ku": null, "name:is": null, "note": null, "@id": "node/1926700040", "name:io": null, "source": "OSM Overpass", "train": null, "website": null, "name:ckb": null, "phone": null, "name:ca": null, "name:cy": null, "wheelchair": "yes", "subway": "yes", "name:ta": null, "station": "subway", "addr:province": null, "name:ja": "池袋", "internet_access:ssid": null, "name:oc": null, "name:ru": "Икебукуро", "name:ko": "이케부쿠로", "name:ja_rm": null, "name:jbo": null, "name:he": null, "name:vi": null, "name:fi": null, "operator": "東京メトロ", "addr:postcode": null, "name:el": null, "name:kn": null, "name:ia": null, "toilets": null, "toilets:wheelchair": null, "wikipedia": "ja:池袋駅", "name:en": "Ikebukuro", "name:lv": null, "wikidata": "Q173919", "name:zh": null, "name:tg": null, "name:da": null, "platforms": null, "network": null, "name:nl": null, "railway": "subway", "colour": null, "internet_access": null, "name:lt": null, "name:ar": null, "name:eo": null, "name:hu": null, "name:fa": null, "name:cs": null, "name:pt": null, "name:hr": null, "name:tr": null, "name:ast": null, "name:sk": null, "name:it": null, "name:fr": "Ikebukuro", "name:zh-Hans": null, "name:es": "Ikebukuro", "name:wuu": null, "name:uk": null, "name:sv": null, "name:et": null, "name:zh-Hant": null, "station_order": 1, "route_id": "401", "line_slug": "tokyo-metro-marunouchi", "operator_slug": "tokyo-metro", "station_id": "tokyo-metro-marunouchi_01", "transport": null, "wheelchair:description": null, "aliases": "丸ノ内", "color": "#F62E36", "line_code": "M", "name_en": "Marunouchi Line", "official_name": "丸ノ内線", "source_url": "https://geodo.earth/lines/tokyo-metro-marunouchi/" }, "geometry": { "type": "Point", "coordinates": [ 139.7114846, 35.7302282 ] } },
{ "type": "Feature", "properties": { "name:pap": null, "public_transport": "station", "addr:neighbourhood": null, "name:ja-Latn": null, "ref": "M24", "alt_name:ko": null, "name": "新大塚", "addr:city": null, "addr:quarter": null, "name:nan": null, "name:de": null, "name:th": null, "name:ja-Hira": null, "internet_access:fee": null, "name:lb": null, "name:pl": null, "name:sl": null, "name:sr": null, "name:szl": null, "name:yue": null, "name:ku": null, "name:is": null, "note": null, "@id": "node/7786715960", "name:io": null, "source": "OSM Overpass", "train": null, "website": null, "name:ckb": null, "phone": null, "name:ca": null, "name:cy": null, "wheelchair": "yes", "subway": "yes", "name:ta": null, "station": "subway", "addr:province": null, "name:ja": "新大塚", "internet_access:ssid": null, "name:oc": null, "name:ru": "Син-Оцука", "name:ko": "신오쓰카", "name:ja_rm": "Shin-ōtsuka", "name:jbo": null, "name:he": null, "name:vi": null, "name:fi": null, "operator": "東京メトロ", "addr:postcode": null, "name:el": null, "name:kn": null, "name:ia": null, "toilets": null, "toilets:wheelchair": null, "wikipedia": "ja:新大塚駅", "name:en": "Shin-otsuka", "name:lv": null, "wikidata": "Q1078382", "name:zh": null, "name:tg": null, "name:da": null, "platforms": null, "network": null, "name:nl": null, "railway": "subway", "colour": null, "internet_access": null, "name:lt": null, "name:ar": null, "name:eo": null, "name:hu": null, "name:fa": null, "name:cs": null, "name:pt": null, "name:hr": null, "name:tr": null, "name:ast": null, "name:sk": null, "name:it": null, "name:fr": null, "name:zh-Hans": null, "name:es": "Shin-otsuka", "name:wuu": null, "name:uk": null, "name:sv": null, "name:et": null, "name:zh-Hant": null, "station_order": 2, "route_id": "401", "line_slug": "tokyo-metro-marunouchi", "operator_slug": "tokyo-metro", "station_id": "tokyo-metro-marunouchi_02", "transport": null, "wheelchair:description": null, "aliases": "丸ノ内", "color": "#F62E36", "line_code": "M", "name_en": "Marunouchi Line", "official_name": "丸ノ内線", "source_url": "https://geodo.earth/lines/tokyo-metro-marunouchi/" }, "geometry": { "type": "Point", "coordinates": [ 139.7299234, 35.7257823 ] } },
{ "type": "Feature", "properties": { "name:pap": null, "public_transport": "station", "addr:neighbourhood": null, "name:ja-Latn": "Myōgatani", "ref": "M23", "alt_name:ko": null, "name": "茗荷谷", "addr:city": null, "addr:quarter": null, "name:nan": null, "name:de": null, "name:th": null, "name:ja-Hira": "みょうがだに", "internet_access:fee": null, "name:lb": null, "name:pl": null, "name:sl": null, "name:sr": null, "name:szl": null, "name:yue": null, "name:ku": null, "name:is": null, "note": null, "@id": "node/1926700041", "name:io": null, "source": "OSM Overpass", "train": null, "website": null, "name:ckb": null, "phone": null, "name:ca": null, "name:cy": null, "wheelchair": "yes", "subway": "yes", "name:ta": null, "station": "subway", "addr:province": null, "name:ja": "茗荷谷", "internet_access:ssid": null, "name:oc": null, "name:ru": "Мёгадани", "name:ko": "묘가다니", "name:ja_rm": null, "name:jbo": null, "name:he": null, "name:vi": null, "name:fi": null, "operator": "東京メトロ", "addr:postcode": null, "name:el": null, "name:kn": null, "name:ia": null, "toilets": null, "toilets:wheelchair": null, "wikipedia": "ja:茗荷谷駅", "name:en": "Myogadani", "name:lv": null, "wikidata": "Q1078367", "name:zh": null, "name:tg": null, "name:da": null, "platforms": "2", "network": null, "name:nl": null, "railway": "subway", "colour": null, "internet_access": null, "name:lt": null, "name:ar": null, "name:eo": null, "name:hu": null, "name:fa": null, "name:cs": null, "name:pt": null, "name:hr": null, "name:tr": null, "name:ast": null, "name:sk": null, "name:it": null, "name:fr": null, "name:zh-Hans": null, "name:es": "Myogadani", "name:wuu": null, "name:uk": null, "name:sv": null, "name:et": null, "name:zh-Hant": null, "station_order": 3, "route_id": "401", "line_slug": "tokyo-metro-marunouchi", "operator_slug": "tokyo-metro", "station_id": "tokyo-metro-marunouchi_03", "transport": null, "wheelchair:description": null, "aliases": "丸ノ内", "color": "#F62E36", "line_code": "M", "name_en": "Marunouchi Line", "official_name": "丸ノ内線", "source_url": "https://geodo.earth/lines/tokyo-metro-marunouchi/" }, "geometry": { "type": "Point", "coordinates": [ 139.7369396, 35.7171896 ] } },
{ "type": "Feature", "properties": { "name:pap": null, "public_transport": "station", "addr:neighbourhood": null, "name:ja-Latn": null, "ref": "M22", "alt_name:ko": null, "name": "後楽園", "addr:city": null, "addr:quarter": null, "name:nan": null, "name:de": null, "name:th": null, "name:ja-Hira": "こうらくえん", "internet_access:fee": null, "name:lb": null, "name:pl": null, "name:sl": null, "name:sr": null, "name:szl": null, "name:yue": null, "name:ku": null, "name:is": null, "note": null, "@id": "node/4406993248", "name:io": null, "source": "OSM Overpass", "train": null, "website": null, "name:ckb": null, "phone": null, "name:ca": null, "name:cy": null, "wheelchair": "yes", "subway": "yes", "name:ta": null, "station": "subway", "addr:province": null, "name:ja": "後楽園", "internet_access:ssid": null, "name:oc": null, "name:ru": "Коракуэн", "name:ko": "고라쿠엔", "name:ja_rm": "Kōrakuen", "name:jbo": null, "name:he": null, "name:vi": null, "name:fi": null, "operator": "東京メトロ", "addr:postcode": null, "name:el": null, "name:kn": null, "name:ia": null, "toilets": null, "toilets:wheelchair": null, "wikipedia": "ja:後楽園駅", "name:en": "Korakuen", "name:lv": null, "wikidata": "Q1156432", "name:zh": null, "name:tg": null, "name:da": null, "platforms": "2", "network": "東京メトロ丸ノ内線", "name:nl": null, "railway": "subway", "colour": null, "internet_access": null, "name:lt": null, "name:ar": null, "name:eo": null, "name:hu": null, "name:fa": null, "name:cs": null, "name:pt": null, "name:hr": null, "name:tr": null, "name:ast": null, "name:sk": null, "name:it": null, "name:fr": null, "name:zh-Hans": null, "name:es": "Korakuen", "name:wuu": null, "name:uk": null, "name:sv": null, "name:et": null, "name:zh-Hant": null, "station_order": 4, "route_id": "401", "line_slug": "tokyo-metro-marunouchi", "operator_slug": "tokyo-metro", "station_id": "tokyo-metro-marunouchi_04", "transport": null, "wheelchair:description": null, "aliases": "丸ノ内", "color": "#F62E36", "line_code": "M", "name_en": "Marunouchi Line", "official_name": "丸ノ内線", "source_url": "https://geodo.earth/lines/tokyo-metro-marunouchi/" }, "geometry": { "type": "Point", "coordinates": [ 139.7512155, 35.7073372 ] } },
{ "type": "Feature", "properties": { "name:pap": null, "public_transport": "station", "addr:neighbourhood": null, "name:ja-Latn": null, "ref": "M21", "alt_name:ko": null, "name": "本郷三丁目", "addr:city": null, "addr:quarter": null, "name:nan": null, "name:de": null, "name:th": null, "name:ja-Hira": "ほんごうさんちょうめ", "internet_access:fee": null, "name:lb": null, "name:pl": null, "name:sl": null, "name:sr": null, "name:szl": null, "name:yue": null, "name:ku": null, "name:is": null, "note": null, "@id": "node/789405355", "name:io": null, "source": "OSM Overpass", "train": null, "website": null, "name:ckb": null, "phone": null, "name:ca": null, "name:cy": null, "wheelchair": "yes", "subway": "yes", "name:ta": null, "station": "subway", "addr:province": null, "name:ja": "本郷三丁目", "internet_access:ssid": null, "name:oc": null, "name:ru": "Хонго Сантёмэ", "name:ko": "혼고3초메", "name:ja_rm": "Hongō Sanchōme", "name:jbo": null, "name:he": null, "name:vi": null, "name:fi": null, "operator": "東京メトロ", "addr:postcode": null, "name:el": null, "name:kn": null, "name:ia": null, "toilets": null, "toilets:wheelchair": null, "wikipedia": "ja:本郷三丁目駅", "name:en": "Hongo-sanchome", "name:lv": null, "wikidata": "Q80774", "name:zh": "本乡三町目", "name:tg": null, "name:da": null, "platforms": "2", "network": null, "name:nl": null, "railway": "subway", "colour": "red", "internet_access": null, "name:lt": null, "name:ar": null, "name:eo": null, "name:hu": null, "name:fa": null, "name:cs": null, "name:pt": null, "name:hr": null, "name:tr": null, "name:ast": null, "name:sk": null, "name:it": null, "name:fr": null, "name:zh-Hans": "本乡三町目", "name:es": "Hongo-sanchome", "name:wuu": null, "name:uk": null, "name:sv": null, "name:et": null, "name:zh-Hant": null, "station_order": 5, "route_id": "401", "line_slug": "tokyo-metro-marunouchi", "operator_slug": "tokyo-metro", "station_id": "tokyo-metro-marunouchi_05", "transport": null, "wheelchair:description": null, "aliases": "丸ノ内", "color": "#F62E36", "line_code": "M", "name_en": "Marunouchi Line", "official_name": "丸ノ内線", "source_url": "https://geodo.earth/lines/tokyo-metro-marunouchi/" }, "geometry": { "type": "Point", "coordinates": [ 139.759962699999988, 35.7066386 ] } },
{ "type": "Feature", "properties": { "name:pap": null, "public_transport": "station", "addr:neighbourhood": null, "name:ja-Latn": null, "ref": "M20", "alt_name:ko": null, "name": "御茶ノ水", "addr:city": null, "addr:quarter": null, "name:nan": null, "name:de": null, "name:th": null, "name:ja-Hira": "おちゃのみず", "internet_access:fee": null, "name:lb": null, "name:pl": null, "name:sl": null, "name:sr": null, "name:szl": null, "name:yue": null, "name:ku": null, "name:is": null, "note": null, "@id": "node/7786715961", "name:io": null, "source": "OSM Overpass", "train": null, "website": null, "name:ckb": null, "phone": null, "name:ca": null, "name:cy": null, "wheelchair": "yes", "subway": "yes", "name:ta": null, "station": "subway", "addr:province": null, "name:ja": "御茶ノ水", "internet_access:ssid": null, "name:oc": null, "name:ru": "Отяномидзу", "name:ko": "오차노미즈", "name:ja_rm": "Ochanomizu", "name:jbo": null, "name:he": null, "name:vi": null, "name:fi": null, "operator": "東京メトロ", "addr:postcode": null, "name:el": null, "name:kn": null, "name:ia": null, "toilets": null, "toilets:wheelchair": "yes", "wikipedia": "ja:御茶ノ水駅", "name:en": "Ochanomizu", "name:lv": null, "wikidata": "Q801289", "name:zh": "御茶之水", "name:tg": null, "name:da": null, "platforms": "2", "network": null, "name:nl": null, "railway": "subway", "colour": "red", "internet_access": null, "name:lt": null, "name:ar": null, "name:eo": null, "name:hu": null, "name:fa": null, "name:cs": null, "name:pt": null, "name:hr": null, "name:tr": null, "name:ast": null, "name:sk": null, "name:it": null, "name:fr": "Ochanomizu", "name:zh-Hans": "御茶之水", "name:es": "Ochanomizu", "name:wuu": null, "name:uk": null, "name:sv": null, "name:et": null, "name:zh-Hant": null, "station_order": 6, "route_id": "401", "line_slug": "tokyo-metro-marunouchi", "operator_slug": "tokyo-metro", "station_id": "tokyo-metro-marunouchi_06", "transport": null, "wheelchair:description": null, "aliases": "丸ノ内", "color": "#F62E36", "line_code": "M", "name_en": "Marunouchi Line", "official_name": "丸ノ内線", "source_url": "https://geodo.earth/lines/tokyo-metro-marunouchi/" }, "geometry": { "type": "Point", "coordinates": [ 139.764082, 35.7005755 ] } },
{ "type": "Feature", "properties": { "name:pap": null, "public_transport": "station", "addr:neighbourhood": null, "name:ja-Latn": null, "ref": "M19", "alt_name:ko": null, "name": "淡路町", "addr:city": null, "addr:quarter": null, "name:nan": null, "name:de": null, "name:th": null, "name:ja-Hira": "あわじちょう", "internet_access:fee": null, "name:lb": null, "name:pl": null, "name:sl": null, "name:sr": null, "name:szl": null, "name:yue": null, "name:ku": null, "name:is": null, "note": null, "@id": "node/7786715965", "name:io": null, "source": "OSM Overpass", "train": null, "website": null, "name:ckb": null, "phone": null, "name:ca": null, "name:cy": null, "wheelchair": null, "subway": "yes", "name:ta": null, "station": "subway", "addr:province": null, "name:ja": "淡路町", "internet_access:ssid": null, "name:oc": null, "name:ru": "Авадзитё", "name:ko": "아와지초", "name:ja_rm": "Awajichō", "name:jbo": null, "name:he": null, "name:vi": null, "name:fi": null, "operator": "東京メトロ", "addr:postcode": null, "name:el": null, "name:kn": null, "name:ia": null, "toilets": null, "toilets:wheelchair": null, "wikipedia": "ja:淡路町駅", "name:en": "Awajicho", "name:lv": null, "wikidata": "Q1078432", "name:zh": "淡路町", "name:tg": null, "name:da": null, "platforms": null, "network": null, "name:nl": null, "railway": "subway", "colour": null, "internet_access": null, "name:lt": null, "name:ar": null, "name:eo": null, "name:hu": null, "name:fa": null, "name:cs": null, "name:pt": null, "name:hr": null, "name:tr": null, "name:ast": null, "name:sk": null, "name:it": null, "name:fr": null, "name:zh-Hans": "淡路町", "name:es": "Awajicho", "name:wuu": null, "name:uk": null, "name:sv": null, "name:et": null, "name:zh-Hant": null, "station_order": 7, "route_id": "401", "line_slug": "tokyo-metro-marunouchi", "operator_slug": "tokyo-metro", "station_id": "tokyo-metro-marunouchi_07", "transport": null, "wheelchair:description": null, "aliases": "丸ノ内", "color": "#F62E36", "line_code": "M", "name_en": "Marunouchi Line", "official_name": "丸ノ内線", "source_url": "https://geodo.earth/lines/tokyo-metro-marunouchi/" }, "geometry": { "type": "Point", "coordinates": [ 139.767473, 35.6950614 ] } },
{ "type": "Feature", "properties": { "name:pap": null, "public_transport": "station", "addr:neighbourhood": null, "name:ja-Latn": null, "ref": "M18", "alt_name:ko": null, "name": "大手町", "addr:city": null, "addr:quarter": null, "name:nan": null, "name:de": null, "name:th": null, "name:ja-Hira": "おおてまち", "internet_access:fee": null, "name:lb": null, "name:pl": null, "name:sl": null, "name:sr": null, "name:szl": null, "name:yue": null, "name:ku": null, "name:is": null, "note": null, "@id": "node/7786715966", "name:io": null, "source": "OSM Overpass", "train": null, "website": null, "name:ckb": null, "phone": null, "name:ca": null, "name:cy": null, "wheelchair": "yes", "subway": "yes", "name:ta": null, "station": "subway", "addr:province": null, "name:ja": "大手町", "internet_access:ssid": null, "name:oc": null, "name:ru": "Отэмати", "name:ko": "오테마치", "name:ja_rm": "Ōtemachi", "name:jbo": null, "name:he": null, "name:vi": null, "name:fi": null, "operator": "東京メトロ", "addr:postcode": null, "name:el": null, "name:kn": null, "name:ia": null, "toilets": null, "toilets:wheelchair": null, "wikipedia": "ja:大手町駅 (東京都)", "name:en": "Otemachi", "name:lv": null, "wikidata": "Q1326767", "name:zh": "大手町", "name:tg": null, "name:da": null, "platforms": null, "network": null, "name:nl": null, "railway": "subway", "colour": null, "internet_access": null, "name:lt": null, "name:ar": null, "name:eo": null, "name:hu": null, "name:fa": null, "name:cs": null, "name:pt": null, "name:hr": null, "name:tr": null, "name:ast": null, "name:sk": null, "name:it": null, "name:fr": "Ōtemachi", "name:zh-Hans": "大手町", "name:es": "Otemachi", "name:wuu": null, "name:uk": null, "name:sv": null, "name:et": null, "name:zh-Hant": null, "station_order": 8, "route_id": "401", "line_slug": "tokyo-metro-marunouchi", "operator_slug": "tokyo-metro", "station_id": "tokyo-metro-marunouchi_08", "transport": null, "wheelchair:description": null, "aliases": "丸ノ内", "color": "#F62E36", "line_code": "M", "name_en": "Marunouchi Line", "official_name": "丸ノ内線", "source_url": "https://geodo.earth/lines/tokyo-metro-marunouchi/" }, "geometry": { "type": "Point", "coordinates": [ 139.7662244, 35.6867882 ] } },
{ "type": "Feature", "properties": { "name:pap": "Tokyo", "public_transport": "station", "addr:neighbourhood": null, "name:ja-Latn": null, "ref": "M17", "alt_name:ko": null, "name": "東京", "addr:city": null, "addr:quarter": null, "name:nan": "Tang-kiaⁿ", "name:de": "Tokio", "name:th": "โตเกียว", "name:ja-Hira": "とうきょう", "internet_access:fee": null, "name:lb": "Tokio", "name:pl": "Tokio", "name:sl": "Tokio", "name:sr": "Токио", "name:szl": "Tokjo", "name:yue": "東京", "name:ku": "Tokyo", "name:is": "Tókýó", "note": null, "@id": "node/6193732167", "name:io": "Tokyo", "source": "OSM Overpass", "train": null, "website": "https://www.tokyometro.jp/lang_en/station/tokyo/", "name:ckb": "تۆکیۆ", "phone": "+81 3 32515652", "name:ca": "Tòquio", "name:cy": "Tokyo", "wheelchair": "yes", "subway": "yes", "name:ta": "டோக்கியோ", "station": "subway", "addr:province": null, "name:ja": "東京", "internet_access:ssid": null, "name:oc": "Tòquio", "name:ru": "Токио", "name:ko": "도쿄도", "name:ja_rm": "Tōkyō", "name:jbo": ".tokios.", "name:he": "טוקיו", "name:vi": "Tokyo", "name:fi": "Tokio", "operator": "東京メトロ", "addr:postcode": null, "name:el": "Τόκιο", "name:kn": "ಟೋಕ್ಯೊ", "name:ia": "Tokyo", "toilets": null, "toilets:wheelchair": null, "wikipedia": null, "name:en": "Tokyo", "name:lv": "Tokija", "wikidata": null, "name:zh": "东京", "name:tg": "Токио", "name:da": "Tokyo", "platforms": null, "network": "東京メトロ丸ノ内線", "name:nl": "Tokio", "railway": "subway", "colour": null, "internet_access": "wlan", "name:lt": "Tokijas", "name:ar": "طوكيو", "name:eo": "Tokio", "name:hu": "Tokió", "name:fa": "توکیو", "name:cs": "Tokio", "name:pt": "Tóquio", "name:hr": "Tokio", "name:tr": "Tokyo", "name:ast": "Tokio", "name:sk": "Tokio", "name:it": "Tokyo", "name:fr": "Tokyo", "name:zh-Hans": "东京", "name:es": "Tokio", "name:wuu": "东京", "name:uk": "Токіо", "name:sv": "Tokyo", "name:et": "Tōkyō", "name:zh-Hant": "東京", "station_order": 9, "route_id": "401", "line_slug": "tokyo-metro-marunouchi", "operator_slug": "tokyo-metro", "station_id": "tokyo-metro-marunouchi_09", "transport": null, "wheelchair:description": null, "aliases": "丸ノ内", "color": "#F62E36", "line_code": "M", "name_en": "Marunouchi Line", "official_name": "丸ノ内線", "source_url": "https://geodo.earth/lines/tokyo-metro-marunouchi/" }, "geometry": { "type": "Point", "coordinates": [ 139.764958400000012, 35.6820173 ] } },
{ "type": "Feature", "properties": { "name:pap": null, "public_transport": "station", "addr:neighbourhood": null, "name:ja-Latn": null, "ref": "M16", "alt_name:ko": null, "name": "銀座", "addr:city": null, "addr:quarter": null, "name:nan": null, "name:de": null, "name:th": null, "name:ja-Hira": "ぎんざ", "internet_access:fee": null, "name:lb": null, "name:pl": null, "name:sl": null, "name:sr": null, "name:szl": null, "name:yue": null, "name:ku": null, "name:is": null, "note": null, "@id": "node/6271990033", "name:io": null, "source": "OSM Overpass", "train": null, "website": null, "name:ckb": null, "phone": null, "name:ca": null, "name:cy": null, "wheelchair": "yes", "subway": "yes", "name:ta": null, "station": "subway", "addr:province": null, "name:ja": "銀座", "internet_access:ssid": null, "name:oc": null, "name:ru": "Гиндза", "name:ko": "긴자", "name:ja_rm": "Ginza", "name:jbo": null, "name:he": null, "name:vi": null, "name:fi": null, "operator": "東京メトロ", "addr:postcode": null, "name:el": null, "name:kn": null, "name:ia": null, "toilets": null, "toilets:wheelchair": null, "wikipedia": "ja:銀座駅", "name:en": "Ginza", "name:lv": null, "wikidata": "Q602372", "name:zh": null, "name:tg": null, "name:da": null, "platforms": null, "network": null, "name:nl": null, "railway": "subway", "colour": null, "internet_access": null, "name:lt": null, "name:ar": null, "name:eo": null, "name:hu": null, "name:fa": null, "name:cs": null, "name:pt": null, "name:hr": null, "name:tr": null, "name:ast": null, "name:sk": null, "name:it": null, "name:fr": "Ginza", "name:zh-Hans": null, "name:es": "Ginza", "name:wuu": null, "name:uk": null, "name:sv": null, "name:et": null, "name:zh-Hant": null, "station_order": 10, "route_id": "401", "line_slug": "tokyo-metro-marunouchi", "operator_slug": "tokyo-metro", "station_id": "tokyo-metro-marunouchi_10", "transport": null, "wheelchair:description": null, "aliases": "丸ノ内", "color": "#F62E36", "line_code": "M", "name_en": "Marunouchi Line", "official_name": "丸ノ内線", "source_url": "https://geodo.earth/lines/tokyo-metro-marunouchi/" }, "geometry": { "type": "Point", "coordinates": [ 139.7631029, 35.6728411 ] } },
{ "type": "Feature", "properties": { "name:pap": null, "public_transport": "station", "addr:neighbourhood": null, "name:ja-Latn": null, "ref": "M15", "alt_name:ko": null, "name": "霞ケ関", "addr:city": null, "addr:quarter": null, "name:nan": null, "name:de": null, "name:th": null, "name:ja-Hira": "かすみがせき", "internet_access:fee": null, "name:lb": null, "name:pl": null, "name:sl": null, "name:sr": null, "name:szl": null, "name:yue": null, "name:ku": null, "name:is": null, "note": "丸ノ内線", "@id": "node/6198306276", "name:io": null, "source": "OSM Overpass", "train": null, "website": null, "name:ckb": null, "phone": null, "name:ca": null, "name:cy": null, "wheelchair": "yes", "subway": "yes", "name:ta": null, "station": "subway", "addr:province": null, "name:ja": "霞ケ関", "internet_access:ssid": null, "name:oc": null, "name:ru": "Касумигасэки", "name:ko": "가스미가세키", "name:ja_rm": "Kasumigaseki", "name:jbo": null, "name:he": null, "name:vi": null, "name:fi": null, "operator": "東京メトロ", "addr:postcode": null, "name:el": null, "name:kn": null, "name:ia": null, "toilets": null, "toilets:wheelchair": null, "wikipedia": "ja:霞ケ関駅 (東京都)", "name:en": "Kasumigaseki", "name:lv": null, "wikidata": "Q741614", "name:zh": null, "name:tg": null, "name:da": null, "platforms": null, "network": null, "name:nl": null, "railway": "subway", "colour": "red", "internet_access": null, "name:lt": null, "name:ar": null, "name:eo": null, "name:hu": null, "name:fa": null, "name:cs": null, "name:pt": null, "name:hr": null, "name:tr": null, "name:ast": null, "name:sk": null, "name:it": null, "name:fr": null, "name:zh-Hans": null, "name:es": "Kasumigaseki", "name:wuu": null, "name:uk": null, "name:sv": null, "name:et": null, "name:zh-Hant": null, "station_order": 11, "route_id": "401", "line_slug": "tokyo-metro-marunouchi", "operator_slug": "tokyo-metro", "station_id": "tokyo-metro-marunouchi_11", "transport": null, "wheelchair:description": null, "aliases": "丸ノ内", "color": "#F62E36", "line_code": "M", "name_en": "Marunouchi Line", "official_name": "丸ノ内線", "source_url": "https://geodo.earth/lines/tokyo-metro-marunouchi/" }, "geometry": { "type": "Point", "coordinates": [ 139.7527174, 35.674217 ] } },
{ "type": "Feature", "properties": { "name:pap": null, "public_transport": "station", "addr:neighbourhood": null, "name:ja-Latn": null, "ref": "M14", "alt_name:ko": null, "name": "国会議事堂前", "addr:city": null, "addr:quarter": null, "name:nan": null, "name:de": null, "name:th": null, "name:ja-Hira": "こっかいぎじどうまえ", "internet_access:fee": null, "name:lb": null, "name:pl": null, "name:sl": null, "name:sr": null, "name:szl": null, "name:yue": null, "name:ku": null, "name:is": null, "note": "丸ノ内線", "@id": "node/7786715964", "name:io": null, "source": "OSM Overpass", "train": null, "website": null, "name:ckb": null, "phone": null, "name:ca": null, "name:cy": null, "wheelchair": "yes", "subway": "yes", "name:ta": null, "station": "subway", "addr:province": null, "name:ja": "国会議事堂前", "internet_access:ssid": null, "name:oc": null, "name:ru": "Коккай Гидзидомаэ", "name:ko": "곳카이기지도마에", "name:ja_rm": "Kokkai gijidō mae", "name:jbo": null, "name:he": null, "name:vi": null, "name:fi": null, "operator": "東京メトロ", "addr:postcode": null, "name:el": null, "name:kn": null, "name:ia": null, "toilets": null, "toilets:wheelchair": null, "wikipedia": "ja:国会議事堂前駅", "name:en": "Kokkai-gijidomae", "name:lv": null, "wikidata": "Q1192508", "name:zh": "國會議事堂前站", "name:tg": null, "name:da": null, "platforms": "2", "network": null, "name:nl": null, "railway": "subway", "colour": "red", "internet_access": null, "name:lt": null, "name:ar": null, "name:eo": null, "name:hu": null, "name:fa": null, "name:cs": null, "name:pt": null, "name:hr": null, "name:tr": null, "name:ast": null, "name:sk": null, "name:it": null, "name:fr": null, "name:zh-Hans": null, "name:es": "Kokkai-gijidomae", "name:wuu": null, "name:uk": null, "name:sv": null, "name:et": null, "name:zh-Hant": null, "station_order": 12, "route_id": "401", "line_slug": "tokyo-metro-marunouchi", "operator_slug": "tokyo-metro", "station_id": "tokyo-metro-marunouchi_12", "transport": null, "wheelchair:description": null, "aliases": "丸ノ内", "color": "#F62E36", "line_code": "M", "name_en": "Marunouchi Line", "official_name": "丸ノ内線", "source_url": "https://geodo.earth/lines/tokyo-metro-marunouchi/" }, "geometry": { "type": "Point", "coordinates": [ 139.7455534, 35.6745485 ] } },
{ "type": "Feature", "properties": { "name:pap": null, "public_transport": "station", "addr:neighbourhood": null, "name:ja-Latn": null, "ref": "M13;G05", "alt_name:ko": null, "name": "赤坂見附", "addr:city": null, "addr:quarter": null, "name:nan": null, "name:de": null, "name:th": null, "name:ja-Hira": "あかさかみつけ", "internet_access:fee": "no", "name:lb": null, "name:pl": null, "name:sl": null, "name:sr": null, "name:szl": null, "name:yue": null, "name:ku": null, "name:is": null, "note": "See diagram: https://commons.wikimedia.org/wiki/File:Rail_Tracks_map_Tokyo_Metro_Akasaka-mitsuke_Station.svg", "@id": "node/6179550652", "name:io": null, "source": "OSM Overpass", "train": null, "website": null, "name:ckb": null, "phone": null, "name:ca": null, "name:cy": null, "wheelchair": "yes", "subway": "yes", "name:ta": null, "station": "subway", "addr:province": null, "name:ja": "赤坂見附", "internet_access:ssid": "Metro_Free_Wi-Fi", "name:oc": null, "name:ru": "Акасака Мицукэ", "name:ko": "아카사카미츠케", "name:ja_rm": "Akasaka Mitsuke", "name:jbo": null, "name:he": null, "name:vi": null, "name:fi": null, "operator": "東京メトロ", "addr:postcode": null, "name:el": null, "name:kn": null, "name:ia": null, "toilets": "yes", "toilets:wheelchair": null, "wikipedia": "ja:赤坂見附駅", "name:en": "Akasaka-mitsuke", "name:lv": null, "wikidata": "Q602384", "name:zh": null, "name:tg": null, "name:da": null, "platforms": "4", "network": "東京メトロ丸ノ内線;銀座線", "name:nl": null, "railway": "subway", "colour": null, "internet_access": "wlan", "name:lt": null, "name:ar": null, "name:eo": null, "name:hu": null, "name:fa": null, "name:cs": null, "name:pt": null, "name:hr": null, "name:tr": null, "name:ast": null, "name:sk": null, "name:it": null, "name:fr": null, "name:zh-Hans": null, "name:es": "Akasaka-mitsuke", "name:wuu": null, "name:uk": null, "name:sv": null, "name:et": null, "name:zh-Hant": null, "station_order": 13, "route_id": "401", "line_slug": "tokyo-metro-marunouchi", "operator_slug": "tokyo-metro", "station_id": "tokyo-metro-marunouchi_13", "transport": "subway", "wheelchair:description": null, "aliases": "丸ノ内", "color": "#F62E36", "line_code": "M", "name_en": "Marunouchi Line", "official_name": "丸ノ内線", "source_url": "https://geodo.earth/lines/tokyo-metro-marunouchi/" }, "geometry": { "type": "Point", "coordinates": [ 139.737525299999987, 35.6763213 ] } },
{ "type": "Feature", "properties": { "name:pap": null, "public_transport": "station", "addr:neighbourhood": null, "name:ja-Latn": null, "ref": "M12", "alt_name:ko": null, "name": "四ツ谷", "addr:city": null, "addr:quarter": null, "name:nan": null, "name:de": null, "name:th": null, "name:ja-Hira": null, "internet_access:fee": null, "name:lb": null, "name:pl": null, "name:sl": null, "name:sr": null, "name:szl": null, "name:yue": null, "name:ku": null, "name:is": null, "note": null, "@id": "node/2822191201", "name:io": null, "source": "OSM Overpass", "train": null, "website": null, "name:ckb": null, "phone": null, "name:ca": null, "name:cy": null, "wheelchair": null, "subway": "yes", "name:ta": null, "station": "subway", "addr:province": null, "name:ja": "四ツ谷", "internet_access:ssid": null, "name:oc": null, "name:ru": "Ёцуя", "name:ko": "요츠야", "name:ja_rm": "Yotsuya", "name:jbo": null, "name:he": null, "name:vi": null, "name:fi": null, "operator": "東京メトロ", "addr:postcode": null, "name:el": null, "name:kn": null, "name:ia": null, "toilets": null, "toilets:wheelchair": null, "wikipedia": null, "name:en": "Yotsuya", "name:lv": null, "wikidata": null, "name:zh": null, "name:tg": null, "name:da": null, "platforms": "2", "network": "ロ丸ノ内線", "name:nl": null, "railway": "subway", "colour": null, "internet_access": null, "name:lt": null, "name:ar": null, "name:eo": null, "name:hu": null, "name:fa": null, "name:cs": null, "name:pt": null, "name:hr": null, "name:tr": null, "name:ast": null, "name:sk": null, "name:it": null, "name:fr": null, "name:zh-Hans": null, "name:es": "Yotsuya", "name:wuu": null, "name:uk": null, "name:sv": null, "name:et": null, "name:zh-Hant": null, "station_order": 14, "route_id": "401", "line_slug": "tokyo-metro-marunouchi", "operator_slug": "tokyo-metro", "station_id": "tokyo-metro-marunouchi_14", "transport": null, "wheelchair:description": null, "aliases": "丸ノ内", "color": "#F62E36", "line_code": "M", "name_en": "Marunouchi Line", "official_name": "丸ノ内線", "source_url": "https://geodo.earth/lines/tokyo-metro-marunouchi/" }, "geometry": { "type": "Point", "coordinates": [ 139.7299237, 35.6849915 ] } },
{ "type": "Feature", "properties": { "name:pap": null, "public_transport": "station", "addr:neighbourhood": null, "name:ja-Latn": null, "ref": "M11", "alt_name:ko": null, "name": "四谷三丁目", "addr:city": null, "addr:quarter": null, "name:nan": null, "name:de": null, "name:th": null, "name:ja-Hira": "よつやさんちょうめ", "internet_access:fee": null, "name:lb": null, "name:pl": null, "name:sl": null, "name:sr": null, "name:szl": null, "name:yue": null, "name:ku": null, "name:is": null, "note": null, "@id": "node/7786715967", "name:io": null, "source": "OSM Overpass", "train": null, "website": null, "name:ckb": null, "phone": null, "name:ca": null, "name:cy": null, "wheelchair": null, "subway": "yes", "name:ta": null, "station": "subway", "addr:province": null, "name:ja": "四谷三丁目", "internet_access:ssid": null, "name:oc": null, "name:ru": "Ёцуя Сантёмэ", "name:ko": "요츠야 3초메", "name:ja_rm": "Yotsuya sanchōme", "name:jbo": null, "name:he": null, "name:vi": null, "name:fi": null, "operator": "東京メトロ", "addr:postcode": null, "name:el": null, "name:kn": null, "name:ia": null, "toilets": null, "toilets:wheelchair": null, "wikipedia": "ja:四谷三丁目駅", "name:en": "Yotsuya-sanchome", "name:lv": null, "wikidata": "Q1073207", "name:zh": null, "name:tg": null, "name:da": null, "platforms": "2", "network": null, "name:nl": null, "railway": "subway", "colour": null, "internet_access": null, "name:lt": null, "name:ar": null, "name:eo": null, "name:hu": null, "name:fa": null, "name:cs": null, "name:pt": null, "name:hr": null, "name:tr": null, "name:ast": null, "name:sk": null, "name:it": null, "name:fr": null, "name:zh-Hans": null, "name:es": "Yotsuya-sanchome", "name:wuu": null, "name:uk": null, "name:sv": null, "name:et": null, "name:zh-Hant": null, "station_order": 15, "route_id": "401", "line_slug": "tokyo-metro-marunouchi", "operator_slug": "tokyo-metro", "station_id": "tokyo-metro-marunouchi_15", "transport": null, "wheelchair:description": null, "aliases": "丸ノ内", "color": "#F62E36", "line_code": "M", "name_en": "Marunouchi Line", "official_name": "丸ノ内線", "source_url": "https://geodo.earth/lines/tokyo-metro-marunouchi/" }, "geometry": { "type": "Point", "coordinates": [ 139.720575200000013, 35.687988 ] } },
{ "type": "Feature", "properties": { "name:pap": null, "public_transport": "station", "addr:neighbourhood": null, "name:ja-Latn": null, "ref": "M10", "alt_name:ko": "신주쿠교엔마에", "name": "新宿御苑前", "addr:city": null, "addr:quarter": null, "name:nan": null, "name:de": null, "name:th": null, "name:ja-Hira": "しんじゅくぎょえんまえ", "internet_access:fee": null, "name:lb": null, "name:pl": null, "name:sl": null, "name:sr": null, "name:szl": null, "name:yue": null, "name:ku": null, "name:is": null, "note": null, "@id": "node/7786715962", "name:io": null, "source": "OSM Overpass", "train": null, "website": null, "name:ckb": null, "phone": null, "name:ca": null, "name:cy": null, "wheelchair": null, "subway": "yes", "name:ta": null, "station": "subway", "addr:province": null, "name:ja": "新宿御苑前", "internet_access:ssid": null, "name:oc": null, "name:ru": "Синдзюку Гёэнмаэ", "name:ko": "신주쿠교엔앞", "name:ja_rm": "Shinjuku gyoen mae", "name:jbo": null, "name:he": null, "name:vi": null, "name:fi": null, "operator": "東京メトロ", "addr:postcode": null, "name:el": null, "name:kn": null, "name:ia": null, "toilets": null, "toilets:wheelchair": null, "wikipedia": "ja:新宿御苑前駅", "name:en": "Shinjuku-gyoemmae", "name:lv": null, "wikidata": "Q1132610", "name:zh": null, "name:tg": null, "name:da": null, "platforms": "2", "network": null, "name:nl": null, "railway": "subway", "colour": null, "internet_access": null, "name:lt": null, "name:ar": null, "name:eo": null, "name:hu": null, "name:fa": null, "name:cs": null, "name:pt": null, "name:hr": null, "name:tr": null, "name:ast": null, "name:sk": null, "name:it": null, "name:fr": null, "name:zh-Hans": null, "name:es": "Shinjuku-gyoemmae", "name:wuu": null, "name:uk": null, "name:sv": null, "name:et": null, "name:zh-Hant": null, "station_order": 16, "route_id": "401", "line_slug": "tokyo-metro-marunouchi", "operator_slug": "tokyo-metro", "station_id": "tokyo-metro-marunouchi_16", "transport": null, "wheelchair:description": null, "aliases": "丸ノ内", "color": "#F62E36", "line_code": "M", "name_en": "Marunouchi Line", "official_name": "丸ノ内線", "source_url": "https://geodo.earth/lines/tokyo-metro-marunouchi/" }, "geometry": { "type": "Point", "coordinates": [ 139.710739600000011, 35.6885735 ] } },
{ "type": "Feature", "properties": { "name:pap": null, "public_transport": "station", "addr:neighbourhood": null, "name:ja-Latn": null, "ref": "M09", "alt_name:ko": null, "name": "新宿三丁目", "addr:city": null, "addr:quarter": null, "name:nan": null, "name:de": null, "name:th": null, "name:ja-Hira": "しんじゅくさんちょうめ", "internet_access:fee": null, "name:lb": null, "name:pl": null, "name:sl": null, "name:sr": null, "name:szl": null, "name:yue": null, "name:ku": null, "name:is": null, "note": null, "@id": "node/6280924992", "name:io": null, "source": "OSM Overpass", "train": null, "website": null, "name:ckb": null, "phone": null, "name:ca": null, "name:cy": null, "wheelchair": "limited", "subway": "yes", "name:ta": null, "station": "subway", "addr:province": null, "name:ja": "新宿三丁目", "internet_access:ssid": null, "name:oc": null, "name:ru": "Синдзюку Сантёмэ", "name:ko": "신주쿠산초메", "name:ja_rm": "Shinjuku sanchōme", "name:jbo": null, "name:he": null, "name:vi": null, "name:fi": null, "operator": "東京メトロ", "addr:postcode": null, "name:el": null, "name:kn": null, "name:ia": null, "toilets": null, "toilets:wheelchair": null, "wikipedia": "ja:新宿三丁目駅", "name:en": "Shinjuku-sanchome", "name:lv": null, "wikidata": "Q1147009", "name:zh": null, "name:tg": null, "name:da": null, "platforms": "2", "network": "丸ノ内線", "name:nl": null, "railway": "subway", "colour": null, "internet_access": null, "name:lt": null, "name:ar": null, "name:eo": null, "name:hu": null, "name:fa": null, "name:cs": null, "name:pt": null, "name:hr": null, "name:tr": null, "name:ast": null, "name:sk": null, "name:it": null, "name:fr": null, "name:zh-Hans": null, "name:es": "Shinjuku-sanchome", "name:wuu": null, "name:uk": null, "name:sv": null, "name:et": null, "name:zh-Hant": null, "station_order": 17, "route_id": "401", "line_slug": "tokyo-metro-marunouchi", "operator_slug": "tokyo-metro", "station_id": "tokyo-metro-marunouchi_17", "transport": null, "wheelchair:description": "A1出口情報です。向かいの伊勢丹出口か大塚家具側にエレベーターがあります。", "aliases": "丸ノ内", "color": "#F62E36", "line_code": "M", "name_en": "Marunouchi Line", "official_name": "丸ノ内線", "source_url": "https://geodo.earth/lines/tokyo-metro-marunouchi/" }, "geometry": { "type": "Point", "coordinates": [ 139.7040936, 35.6911965 ] } },
{ "type": "Feature", "properties": { "name:pap": null, "public_transport": "station", "addr:neighbourhood": null, "name:ja-Latn": null, "ref": "M08", "alt_name:ko": null, "name": "新宿", "addr:city": null, "addr:quarter": null, "name:nan": null, "name:de": null, "name:th": null, "name:ja-Hira": "しんじゅく", "internet_access:fee": null, "name:lb": null, "name:pl": null, "name:sl": null, "name:sr": null, "name:szl": null, "name:yue": null, "name:ku": null, "name:is": null, "note": null, "@id": "node/1926277346", "name:io": null, "source": "OSM Overpass", "train": null, "website": null, "name:ckb": null, "phone": null, "name:ca": null, "name:cy": null, "wheelchair": "yes", "subway": "yes", "name:ta": null, "station": "subway", "addr:province": null, "name:ja": "新宿", "internet_access:ssid": null, "name:oc": null, "name:ru": "Синдзюку", "name:ko": "신주쿠", "name:ja_rm": "Shinjuku", "name:jbo": null, "name:he": null, "name:vi": null, "name:fi": null, "operator": "東京メトロ", "addr:postcode": null, "name:el": null, "name:kn": null, "name:ia": null, "toilets": null, "toilets:wheelchair": null, "wikipedia": "ja:新宿駅", "name:en": "Shinjuku", "name:lv": null, "wikidata": "Q801447", "name:zh": null, "name:tg": null, "name:da": null, "platforms": "2", "network": "東京メトロ", "name:nl": null, "railway": "subway", "colour": "red", "internet_access": null, "name:lt": null, "name:ar": null, "name:eo": null, "name:hu": null, "name:fa": null, "name:cs": null, "name:pt": null, "name:hr": null, "name:tr": null, "name:ast": null, "name:sk": null, "name:it": null, "name:fr": "Shinjuku", "name:zh-Hans": null, "name:es": "Shinjuku", "name:wuu": null, "name:uk": null, "name:sv": null, "name:et": null, "name:zh-Hant": null, "station_order": 18, "route_id": "401", "line_slug": "tokyo-metro-marunouchi", "operator_slug": "tokyo-metro", "station_id": "tokyo-metro-marunouchi_18", "transport": null, "wheelchair:description": null, "aliases": "丸ノ内", "color": "#F62E36", "line_code": "M", "name_en": "Marunouchi Line", "official_name": "丸ノ内線", "source_url": "https://geodo.earth/lines/tokyo-metro-marunouchi/" }, "geometry": { "type": "Point", "coordinates": [ 139.700600900000012, 35.6922273 ] } },
{ "type": "Feature", "properties": { "name:pap": null, "public_transport": "station", "addr:neighbourhood": "7丁目", "name:ja-Latn": null, "ref": "M07", "alt_name:ko": null, "name": "西新宿", "addr:city": "新宿区", "addr:quarter": "西新宿", "name:nan": null, "name:de": null, "name:th": null, "name:ja-Hira": "にししんじゅく", "internet_access:fee": null, "name:lb": null, "name:pl": null, "name:sl": null, "name:sr": null, "name:szl": null, "name:yue": null, "name:ku": null, "name:is": null, "note": null, "@id": "node/7786715968", "name:io": null, "source": "OSM Overpass", "train": null, "website": null, "name:ckb": null, "phone": null, "name:ca": null, "name:cy": null, "wheelchair": "yes", "subway": "yes", "name:ta": null, "station": "subway", "addr:province": "東京都", "name:ja": "西新宿", "internet_access:ssid": null, "name:oc": null, "name:ru": "Ниси Синдзюку", "name:ko": "니시신주쿠", "name:ja_rm": "Nishi Shinjuku", "name:jbo": null, "name:he": null, "name:vi": null, "name:fi": null, "operator": "東京メトロ", "addr:postcode": "160-0023", "name:el": null, "name:kn": null, "name:ia": null, "toilets": null, "toilets:wheelchair": null, "wikipedia": "ja:西新宿駅", "name:en": "Nishi-shinjuku", "name:lv": null, "wikidata": "Q138555", "name:zh": null, "name:tg": null, "name:da": null, "platforms": "2", "network": null, "name:nl": null, "railway": "subway", "colour": null, "internet_access": "wlan", "name:lt": null, "name:ar": null, "name:eo": null, "name:hu": null, "name:fa": null, "name:cs": null, "name:pt": null, "name:hr": null, "name:tr": null, "name:ast": null, "name:sk": null, "name:it": null, "name:fr": null, "name:zh-Hans": null, "name:es": "Nishi-shinjuku", "name:wuu": null, "name:uk": null, "name:sv": null, "name:et": null, "name:zh-Hant": null, "station_order": 19, "route_id": "401", "line_slug": "tokyo-metro-marunouchi", "operator_slug": "tokyo-metro", "station_id": "tokyo-metro-marunouchi_19", "transport": null, "wheelchair:description": null, "aliases": "丸ノ内", "color": "#F62E36", "line_code": "M", "name_en": "Marunouchi Line", "official_name": "丸ノ内線", "source_url": "https://geodo.earth/lines/tokyo-metro-marunouchi/" }, "geometry": { "type": "Point", "coordinates": [ 139.6927667, 35.6944315 ] } },
{ "type": "Feature", "properties": { "name:pap": null, "public_transport": "station", "addr:neighbourhood": null, "name:ja-Latn": null, "ref": "M06", "alt_name:ko": null, "name": "中野坂上", "addr:city": null, "addr:quarter": null, "name:nan": null, "name:de": null, "name:th": null, "name:ja-Hira": "なかのさかうえ", "internet_access:fee": null, "name:lb": null, "name:pl": null, "name:sl": null, "name:sr": null, "name:szl": null, "name:yue": null, "name:ku": null, "name:is": null, "note": null, "@id": "node/6217547168", "name:io": null, "source": "OSM Overpass", "train": null, "website": null, "name:ckb": null, "phone": null, "name:ca": null, "name:cy": null, "wheelchair": "yes", "subway": "yes", "name:ta": null, "station": "subway", "addr:province": null, "name:ja": "中野坂上", "internet_access:ssid": null, "name:oc": null, "name:ru": "Накано Сакауэ", "name:ko": "나카노사카우에", "name:ja_rm": "Nakano sakaue", "name:jbo": null, "name:he": null, "name:vi": null, "name:fi": null, "operator": "東京メトロ", "addr:postcode": null, "name:el": null, "name:kn": null, "name:ia": null, "toilets": null, "toilets:wheelchair": null, "wikipedia": "ja:中野坂上駅", "name:en": "Nakano-sakaue", "name:lv": null, "wikidata": "Q275436", "name:zh": null, "name:tg": null, "name:da": null, "platforms": "4", "network": null, "name:nl": null, "railway": "subway", "colour": null, "internet_access": null, "name:lt": null, "name:ar": null, "name:eo": null, "name:hu": null, "name:fa": null, "name:cs": null, "name:pt": null, "name:hr": null, "name:tr": null, "name:ast": null, "name:sk": null, "name:it": null, "name:fr": null, "name:zh-Hans": null, "name:es": "Nakano-sakaue", "name:wuu": null, "name:uk": null, "name:sv": null, "name:et": null, "name:zh-Hant": null, "station_order": 20, "route_id": "401", "line_slug": "tokyo-metro-marunouchi", "operator_slug": "tokyo-metro", "station_id": "tokyo-metro-marunouchi_20", "transport": null, "wheelchair:description": null, "aliases": "丸ノ内", "color": "#F62E36", "line_code": "M", "name_en": "Marunouchi Line", "official_name": "丸ノ内線", "source_url": "https://geodo.earth/lines/tokyo-metro-marunouchi/" }, "geometry": { "type": "Point", "coordinates": [ 139.6817498, 35.6971173 ] } },
{ "type": "Feature", "properties": { "name:pap": null, "public_transport": "station", "addr:neighbourhood": null, "name:ja-Latn": null, "ref": "M05", "alt_name:ko": null, "name": "新中野", "addr:city": null, "addr:quarter": null, "name:nan": null, "name:de": null, "name:th": null, "name:ja-Hira": "しんなかの", "internet_access:fee": null, "name:lb": null, "name:pl": null, "name:sl": null, "name:sr": null, "name:szl": null, "name:yue": null, "name:ku": null, "name:is": null, "note": null, "@id": "node/7786715963", "name:io": null, "source": "OSM Overpass", "train": null, "website": null, "name:ckb": null, "phone": null, "name:ca": null, "name:cy": null, "wheelchair": "yes", "subway": "yes", "name:ta": null, "station": "subway", "addr:province": null, "name:ja": "新中野", "internet_access:ssid": null, "name:oc": null, "name:ru": "Син-Накано", "name:ko": "신나카노", "name:ja_rm": "Shin Nakano", "name:jbo": null, "name:he": null, "name:vi": null, "name:fi": null, "operator": "東京メトロ", "addr:postcode": null, "name:el": null, "name:kn": null, "name:ia": null, "toilets": null, "toilets:wheelchair": null, "wikipedia": "ja:新中野駅", "name:en": "Shin-nakano", "name:lv": null, "wikidata": "Q1073232", "name:zh": null, "name:tg": null, "name:da": null, "platforms": "2", "network": null, "name:nl": null, "railway": "subway", "colour": null, "internet_access": null, "name:lt": null, "name:ar": null, "name:eo": null, "name:hu": null, "name:fa": null, "name:cs": null, "name:pt": null, "name:hr": null, "name:tr": null, "name:ast": null, "name:sk": null, "name:it": null, "name:fr": null, "name:zh-Hans": null, "name:es": "Shin-nakano", "name:wuu": null, "name:uk": null, "name:sv": null, "name:et": null, "name:zh-Hant": null, "station_order": 21, "route_id": "401", "line_slug": "tokyo-metro-marunouchi", "operator_slug": "tokyo-metro", "station_id": "tokyo-metro-marunouchi_21", "transport": null, "wheelchair:description": null, "aliases": "丸ノ内", "color": "#F62E36", "line_code": "M", "name_en": "Marunouchi Line", "official_name": "丸ノ内線", "source_url": "https://geodo.earth/lines/tokyo-metro-marunouchi/" }, "geometry": { "type": "Point", "coordinates": [ 139.668642799999986, 35.6974599 ] } },
{ "type": "Feature", "properties": { "name:pap": null, "public_transport": "station", "addr:neighbourhood": null, "name:ja-Latn": null, "ref": "M04", "alt_name:ko": null, "name": "東高円寺", "addr:city": null, "addr:quarter": null, "name:nan": null, "name:de": null, "name:th": null, "name:ja-Hira": "ひがしこうえんじ", "internet_access:fee": null, "name:lb": null, "name:pl": null, "name:sl": null, "name:sr": null, "name:szl": null, "name:yue": null, "name:ku": null, "name:is": null, "note": null, "@id": "node/7786715970", "name:io": null, "source": "OSM Overpass", "train": "yes", "website": null, "name:ckb": null, "phone": null, "name:ca": null, "name:cy": null, "wheelchair": "yes", "subway": "yes", "name:ta": null, "station": "subway", "addr:province": null, "name:ja": "東高円寺", "internet_access:ssid": null, "name:oc": null, "name:ru": "Хигаси Коэндзи", "name:ko": "히가시코엔지", "name:ja_rm": "Higashi Kōenji", "name:jbo": null, "name:he": null, "name:vi": null, "name:fi": null, "operator": "東京メトロ", "addr:postcode": null, "name:el": null, "name:kn": null, "name:ia": null, "toilets": null, "toilets:wheelchair": null, "wikipedia": "ja:東高円寺駅", "name:en": "Higashi-koenji", "name:lv": null, "wikidata": "Q1078443", "name:zh": null, "name:tg": null, "name:da": null, "platforms": "2", "network": null, "name:nl": null, "railway": "subway", "colour": null, "internet_access": null, "name:lt": null, "name:ar": null, "name:eo": null, "name:hu": null, "name:fa": null, "name:cs": null, "name:pt": null, "name:hr": null, "name:tr": null, "name:ast": null, "name:sk": null, "name:it": null, "name:fr": null, "name:zh-Hans": null, "name:es": "Higashi-koenji", "name:wuu": null, "name:uk": null, "name:sv": null, "name:et": null, "name:zh-Hant": null, "station_order": 22, "route_id": "401", "line_slug": "tokyo-metro-marunouchi", "operator_slug": "tokyo-metro", "station_id": "tokyo-metro-marunouchi_22", "transport": null, "wheelchair:description": null, "aliases": "丸ノ内", "color": "#F62E36", "line_code": "M", "name_en": "Marunouchi Line", "official_name": "丸ノ内線", "source_url": "https://geodo.earth/lines/tokyo-metro-marunouchi/" }, "geometry": { "type": "Point", "coordinates": [ 139.6581601, 35.6979717 ] } },
{ "type": "Feature", "properties": { "name:pap": null, "public_transport": "station", "addr:neighbourhood": null, "name:ja-Latn": null, "ref": "M03", "alt_name:ko": null, "name": "新高円寺", "addr:city": null, "addr:quarter": null, "name:nan": null, "name:de": null, "name:th": null, "name:ja-Hira": "しんこうえんじ", "internet_access:fee": null, "name:lb": null, "name:pl": null, "name:sl": null, "name:sr": null, "name:szl": null, "name:yue": null, "name:ku": null, "name:is": null, "note": null, "@id": "node/7786715971", "name:io": null, "source": "OSM Overpass", "train": null, "website": null, "name:ckb": null, "phone": null, "name:ca": null, "name:cy": null, "wheelchair": "yes", "subway": "yes", "name:ta": null, "station": "subway", "addr:province": null, "name:ja": "新高円寺", "internet_access:ssid": null, "name:oc": null, "name:ru": "Син-Коэндзи", "name:ko": "신코엔지", "name:ja_rm": "Shin Kōenji", "name:jbo": null, "name:he": null, "name:vi": null, "name:fi": null, "operator": "東京メトロ", "addr:postcode": null, "name:el": null, "name:kn": null, "name:ia": null, "toilets": null, "toilets:wheelchair": null, "wikipedia": "ja:新高円寺駅", "name:en": "Shin-koenji", "name:lv": null, "wikidata": "Q1078400", "name:zh": null, "name:tg": null, "name:da": null, "platforms": "2", "network": null, "name:nl": null, "railway": "subway", "colour": null, "internet_access": null, "name:lt": null, "name:ar": null, "name:eo": null, "name:hu": null, "name:fa": null, "name:cs": null, "name:pt": null, "name:hr": null, "name:tr": null, "name:ast": null, "name:sk": null, "name:it": null, "name:fr": null, "name:zh-Hans": null, "name:es": "Shin-koenji", "name:wuu": null, "name:uk": null, "name:sv": null, "name:et": null, "name:zh-Hant": null, "station_order": 23, "route_id": "401", "line_slug": "tokyo-metro-marunouchi", "operator_slug": "tokyo-metro", "station_id": "tokyo-metro-marunouchi_23", "transport": null, "wheelchair:description": null, "aliases": "丸ノ内", "color": "#F62E36", "line_code": "M", "name_en": "Marunouchi Line", "official_name": "丸ノ内線", "source_url": "https://geodo.earth/lines/tokyo-metro-marunouchi/" }, "geometry": { "type": "Point", "coordinates": [ 139.648688, 35.6978735 ] } },
{ "type": "Feature", "properties": { "name:pap": null, "public_transport": "station", "addr:neighbourhood": null, "name:ja-Latn": null, "ref": "M02", "alt_name:ko": null, "name": "南阿佐ケ谷", "addr:city": null, "addr:quarter": null, "name:nan": null, "name:de": null, "name:th": null, "name:ja-Hira": "みなみあさがや", "internet_access:fee": null, "name:lb": null, "name:pl": null, "name:sl": null, "name:sr": null, "name:szl": null, "name:yue": null, "name:ku": null, "name:is": null, "note": null, "@id": "node/7786715972", "name:io": null, "source": "OSM Overpass", "train": null, "website": null, "name:ckb": null, "phone": null, "name:ca": null, "name:cy": null, "wheelchair": "yes", "subway": "yes", "name:ta": null, "station": "subway", "addr:province": null, "name:ja": "南阿佐ケ谷", "internet_access:ssid": null, "name:oc": null, "name:ru": "Минами Асагая", "name:ko": "미나미아사가야", "name:ja_rm": "Minami Asagaya", "name:jbo": null, "name:he": null, "name:vi": null, "name:fi": null, "operator": "東京メトロ", "addr:postcode": null, "name:el": null, "name:kn": null, "name:ia": null, "toilets": null, "toilets:wheelchair": null, "wikipedia": "ja:南阿佐ケ谷駅", "name:en": "Minami-asagaya", "name:lv": null, "wikidata": "Q1073001", "name:zh": null, "name:tg": null, "name:da": null, "platforms": "2", "network": null, "name:nl": null, "railway": "subway", "colour": null, "internet_access": null, "name:lt": null, "name:ar": null, "name:eo": null, "name:hu": null, "name:fa": null, "name:cs": null, "name:pt": null, "name:hr": null, "name:tr": null, "name:ast": null, "name:sk": null, "name:it": null, "name:fr": null, "name:zh-Hans": null, "name:es": "Minami-asagaya", "name:wuu": null, "name:uk": null, "name:sv": null, "name:et": null, "name:zh-Hant": null, "station_order": 24, "route_id": "401", "line_slug": "tokyo-metro-marunouchi", "operator_slug": "tokyo-metro", "station_id": "tokyo-metro-marunouchi_24", "transport": null, "wheelchair:description": null, "aliases": "丸ノ内", "color": "#F62E36", "line_code": "M", "name_en": "Marunouchi Line", "official_name": "丸ノ内線", "source_url": "https://geodo.earth/lines/tokyo-metro-marunouchi/" }, "geometry": { "type": "Point", "coordinates": [ 139.6357088, 35.6993987 ] } },
{ "type": "Feature", "properties": { "name:pap": null, "public_transport": "station", "addr:neighbourhood": null, "name:ja-Latn": null, "ref": "M01", "alt_name:ko": null, "name": "荻窪", "addr:city": null, "addr:quarter": null, "name:nan": null, "name:de": null, "name:th": null, "name:ja-Hira": "おぎくぼ", "internet_access:fee": null, "name:lb": null, "name:pl": null, "name:sl": null, "name:sr": null, "name:szl": null, "name:yue": null, "name:ku": null, "name:is": null, "note": null, "@id": "node/6423969022", "name:io": null, "source": "OSM Overpass", "train": null, "website": null, "name:ckb": null, "phone": null, "name:ca": null, "name:cy": null, "wheelchair": "yes", "subway": "yes", "name:ta": null, "station": "subway", "addr:province": null, "name:ja": "荻窪", "internet_access:ssid": null, "name:oc": null, "name:ru": "Огикубо", "name:ko": "오기쿠보", "name:ja_rm": "Ogikubo", "name:jbo": null, "name:he": null, "name:vi": null, "name:fi": null, "operator": "東京メトロ", "addr:postcode": null, "name:el": null, "name:kn": null, "name:ia": null, "toilets": null, "toilets:wheelchair": null, "wikipedia": "ja:荻窪駅", "name:en": "Ogikubo", "name:lv": null, "wikidata": "Q801294", "name:zh": null, "name:tg": null, "name:da": null, "platforms": "2", "network": null, "name:nl": null, "railway": "subway", "colour": null, "internet_access": null, "name:lt": null, "name:ar": null, "name:eo": null, "name:hu": null, "name:fa": null, "name:cs": null, "name:pt": null, "name:hr": null, "name:tr": null, "name:ast": null, "name:sk": null, "name:it": null, "name:fr": null, "name:zh-Hans": null, "name:es": "Ogikubo", "name:wuu": null, "name:uk": null, "name:sv": null, "name:et": null, "name:zh-Hant": null, "station_order": 25, "route_id": "401", "line_slug": "tokyo-metro-marunouchi", "operator_slug": "tokyo-metro", "station_id": "tokyo-metro-marunouchi_25", "transport": null, "wheelchair:description": null, "aliases": "丸ノ内", "color": "#F62E36", "line_code": "M", "name_en": "Marunouchi Line", "official_name": "丸ノ内線", "source_url": "https://geodo.earth/lines/tokyo-metro-marunouchi/" }, "geometry": { "type": "Point", "coordinates": [ 139.620026700000011, 35.7042744 ] } }
]
}
