{
"type": "FeatureCollection",
"name": "tokyo-metro-namboku_stations",
"crs": { "type": "name", "properties": { "name": "urn:ogc:def:crs:OGC:1.3:CRS84" } },
"features": [
{ "type": "Feature", "properties": { "aliases": "南北", "color": "#00AC9A", "line_code": "N", "line_slug": "tokyo-metro-namboku", "name_en": "Namboku Line", "official_name": "南北線", "operator": "東京メトロ", "operator_slug": "tokyo-metro", "railway": "subway", "route_id": "407", "source": "OSM Overpass (ways merged)", "source_url": "https://geodo.earth/lines/tokyo-metro-namboku/", "name_ja": "六本木一丁目", "id": "node/4407018830", "@id": "node/4407018830", "local_ref": null, "name": "六本木一丁目", "name:en": "Roppongi-itchome", "name:es": "Roppongi-itchome", "name:ja": "六本木一丁目", "name:ja-Hira": null, "name:ja-Latn": null, "name:ja_rm": null, "name:ko": null, "name:ru": null, "name:th": null, "name:zh": null, "network": null, "note": null, "operator:en": null, "platforms": null, "public_transport": "stop_position", "ref": "N", "subway": "yes", "train": null, "wheelchair": null, "wikidata": "Q1073717", "wikipedia": null, "line": "nanboku", "colour": "#00AC9B", "station_id": "nanboku_st_01" }, "geometry": { "type": "Point", "coordinates": [ 139.73901315, 35.664940550002086 ] } },
{ "type": "Feature", "properties": { "aliases": "南北", "color": "#00AC9A", "line_code": "N", "line_slug": "tokyo-metro-namboku", "name_en": "Namboku Line", "official_name": "南北線", "operator": "東京メトロ", "operator_slug": "tokyo-metro", "railway": "subway", "route_id": "407", "source": "OSM Overpass (ways merged)", "source_url": "https://geodo.earth/lines/tokyo-metro-namboku/", "name_ja": "四ツ谷", "id": "node/5392079472", "@id": "node/5392079472", "local_ref": null, "name": "四ツ谷", "name:en": "Yotsuya", "name:es": "Yotsuya", "name:ja": "四ツ谷", "name:ja-Hira": null, "name:ja-Latn": null, "name:ja_rm": null, "name:ko": null, "name:ru": null, "name:th": null, "name:zh": null, "network": null, "note": null, "operator:en": null, "platforms": "2", "public_transport": "stop_position", "ref": "N", "subway": "yes", "train": null, "wheelchair": null, "wikidata": null, "wikipedia": null, "line": "nanboku", "colour": "#00AC9B", "station_id": "nanboku_st_02" }, "geometry": { "type": "Point", "coordinates": [ 139.72948695, 35.685565100001511 ] } },
{ "type": "Feature", "properties": { "aliases": "南北", "color": "#00AC9A", "line_code": "N", "line_slug": "tokyo-metro-namboku", "name_en": "Namboku Line", "official_name": "南北線", "operator": "東京メトロ", "operator_slug": "tokyo-metro", "railway": "subway", "route_id": "407", "source": "OSM Overpass (ways merged)", "source_url": "https://geodo.earth/lines/tokyo-metro-namboku/", "name_ja": "市ヶ谷駅", "id": "node/2329712819", "@id": "node/2329712819", "local_ref": null, "name": "市ヶ谷駅", "name:en": "Ichigaya", "name:es": "Ichigaya", "name:ja": "市ヶ谷駅", "name:ja-Hira": null, "name:ja-Latn": null, "name:ja_rm": null, "name:ko": null, "name:ru": null, "name:th": null, "name:zh": null, "network": "東京メトロ南北線", "note": null, "operator:en": null, "platforms": null, "public_transport": "stop_position", "ref": "N", "subway": "yes", "train": null, "wheelchair": null, "wikidata": null, "wikipedia": null, "line": "nanboku", "colour": "#00AC9B", "station_id": "nanboku_st_03" }, "geometry": { "type": "Point", "coordinates": [ 139.7367542, 35.693280600008215 ] } },
{ "type": "Feature", "properties": { "aliases": "南北", "color": "#00AC9A", "line_code": "N", "line_slug": "tokyo-metro-namboku", "name_en": "Namboku Line", "official_name": "南北線", "operator": "東京メトロ", "operator_slug": "tokyo-metro", "railway": "subway", "route_id": "407", "source": "OSM Overpass (ways merged)", "source_url": "https://geodo.earth/lines/tokyo-metro-namboku/", "name_ja": "後楽園", "id": "node/2730655229", "@id": "node/2730655229", "local_ref": null, "name": "後楽園", "name:en": "Korakuen", "name:es": "Korakuen", "name:ja": "後楽園", "name:ja-Hira": "こうらくえん", "name:ja-Latn": null, "name:ja_rm": "Kōrakuen", "name:ko": null, "name:ru": "Коракуэн", "name:th": null, "name:zh": null, "network": "東京メトロ南北線", "note": null, "operator:en": null, "platforms": null, "public_transport": "stop_position", "ref": "N", "subway": "yes", "train": null, "wheelchair": null, "wikidata": "Q1156432", "wikipedia": "ja:後楽園駅", "line": "nanboku", "colour": "#00AC9B", "station_id": "nanboku_st_04" }, "geometry": { "type": "Point", "coordinates": [ 139.7518134, 35.708215100000018 ] } },
{ "type": "Feature", "properties": { "aliases": "南北", "color": "#00AC9A", "line_code": "N", "line_slug": "tokyo-metro-namboku", "name_en": "Namboku Line", "official_name": "南北線", "operator": "東京メトロ", "operator_slug": "tokyo-metro", "railway": "subway", "route_id": "407", "source": "OSM Overpass (ways merged)", "source_url": "https://geodo.earth/lines/tokyo-metro-namboku/", "name_ja": "志茂", "id": "node/5406717733", "@id": "node/5406717733", "local_ref": null, "name": "志茂", "name:en": "Shimo", "name:es": "Shimo", "name:ja": "志茂", "name:ja-Hira": null, "name:ja-Latn": null, "name:ja_rm": null, "name:ko": null, "name:ru": null, "name:th": null, "name:zh": null, "network": null, "note": null, "operator:en": null, "platforms": null, "public_transport": "stop_position", "ref": "N", "subway": "yes", "train": null, "wheelchair": null, "wikidata": null, "wikipedia": null, "line": "nanboku", "colour": "#00AC9B", "station_id": "nanboku_st_05" }, "geometry": { "type": "Point", "coordinates": [ 139.732525599999974, 35.777904500004119 ] } },
{ "type": "Feature", "properties": { "aliases": "南北", "color": "#00AC9A", "line_code": "N", "line_slug": "tokyo-metro-namboku", "name_en": "Namboku Line", "official_name": "南北線", "operator": "東京メトロ", "operator_slug": "tokyo-metro", "railway": "subway", "route_id": "407", "source": "OSM Overpass (ways merged)", "source_url": "https://geodo.earth/lines/tokyo-metro-namboku/", "name_ja": "本駒込", "id": "node/2730655233", "@id": "node/2730655233", "local_ref": null, "name": "本駒込", "name:en": "Hon-komagome", "name:es": null, "name:ja": "本駒込", "name:ja-Hira": "ほんこまごめ", "name:ja-Latn": null, "name:ja_rm": "Hon Komagome", "name:ko": null, "name:ru": null, "name:th": null, "name:zh": null, "network": null, "note": null, "operator:en": null, "platforms": null, "public_transport": "stop_position", "ref": "N", "subway": "yes", "train": null, "wheelchair": null, "wikidata": "Q151419", "wikipedia": "ja:本駒込駅", "line": "nanboku", "colour": "#00AC9B", "station_id": "nanboku_st_06" }, "geometry": { "type": "Point", "coordinates": [ 139.7537008, 35.724763050000441 ] } },
{ "type": "Feature", "properties": { "aliases": "南北", "color": "#00AC9A", "line_code": "N", "line_slug": "tokyo-metro-namboku", "name_en": "Namboku Line", "official_name": "南北線", "operator": "東京メトロ", "operator_slug": "tokyo-metro", "railway": "subway", "route_id": "407", "source": "OSM Overpass (ways merged)", "source_url": "https://geodo.earth/lines/tokyo-metro-namboku/", "name_ja": "東大前", "id": "node/5406699405", "@id": "node/5406699405", "local_ref": null, "name": "東大前", "name:en": "Todaimae", "name:es": "Todaimae", "name:ja": "東大前", "name:ja-Hira": null, "name:ja-Latn": null, "name:ja_rm": null, "name:ko": null, "name:ru": null, "name:th": null, "name:zh": null, "network": null, "note": null, "operator:en": null, "platforms": null, "public_transport": "stop_position", "ref": "N", "subway": "yes", "train": null, "wheelchair": null, "wikidata": null, "wikipedia": null, "line": "nanboku", "colour": "#00AC9B", "station_id": "nanboku_st_07" }, "geometry": { "type": "Point", "coordinates": [ 139.758184099999966, 35.717320100000869 ] } },
{ "type": "Feature", "properties": { "aliases": "南北", "color": "#00AC9A", "line_code": "N", "line_slug": "tokyo-metro-namboku", "name_en": "Namboku Line", "official_name": "南北線", "operator": "東京メトロ", "operator_slug": "tokyo-metro", "railway": "subway", "route_id": "407", "source": "OSM Overpass (ways merged)", "source_url": "https://geodo.earth/lines/tokyo-metro-namboku/", "name_ja": "永田町", "id": "node/2329712694", "@id": "node/2329712694", "local_ref": null, "name": "永田町", "name:en": "Nagatacho", "name:es": "Nagatacho", "name:ja": "永田町", "name:ja-Hira": null, "name:ja-Latn": null, "name:ja_rm": null, "name:ko": null, "name:ru": null, "name:th": null, "name:zh": null, "network": null, "note": null, "operator:en": null, "platforms": null, "public_transport": "stop_position", "ref": "N", "subway": "yes", "train": null, "wheelchair": null, "wikidata": null, "wikipedia": null, "line": "nanboku", "colour": "#00AC9B", "station_id": "nanboku_st_08" }, "geometry": { "type": "Point", "coordinates": [ 139.739183299999979, 35.678548950016392 ] } },
{ "type": "Feature", "properties": { "aliases": "南北", "color": "#00AC9A", "line_code": "N", "line_slug": "tokyo-metro-namboku", "name_en": "Namboku Line", "official_name": "南北線", "operator": "東京メトロ", "operator_slug": "tokyo-metro", "railway": "subway", "route_id": "407", "source": "OSM Overpass (ways merged)", "source_url": "https://geodo.earth/lines/tokyo-metro-namboku/", "name_ja": "溜池山王", "id": "node/1926189623", "@id": "node/1926189623", "local_ref": null, "name": "溜池山王", "name:en": "Tameike-sanno", "name:es": "Tameike-sanno", "name:ja": "溜池山王", "name:ja-Hira": "ためいけさんのう", "name:ja-Latn": null, "name:ja_rm": "Tameike San-nō", "name:ko": null, "name:ru": "Тамэикэ Санно", "name:th": null, "name:zh": null, "network": null, "note": null, "operator:en": null, "platforms": null, "public_transport": "stop_position", "ref": "N", "subway": "yes", "train": null, "wheelchair": null, "wikidata": null, "wikipedia": null, "line": "nanboku", "colour": "#00AC9B", "station_id": "nanboku_st_09" }, "geometry": { "type": "Point", "coordinates": [ 139.74141935, 35.673003750000021 ] } },
{ "type": "Feature", "properties": { "aliases": "南北", "color": "#00AC9A", "line_code": "N", "line_slug": "tokyo-metro-namboku", "name_en": "Namboku Line", "official_name": "南北線", "operator": "東京メトロ", "operator_slug": "tokyo-metro", "railway": "subway", "route_id": "407", "source": "OSM Overpass (ways merged)", "source_url": "https://geodo.earth/lines/tokyo-metro-namboku/", "name_ja": "王子", "id": "node/2329713050", "@id": "node/2329713050", "local_ref": "2", "name": "王子", "name:en": "Oji", "name:es": "Oji", "name:ja": "王子", "name:ja-Hira": "おうじ", "name:ja-Latn": "Ōji", "name:ja_rm": null, "name:ko": "오지 역 (도쿄 도)", "name:ru": null, "name:th": null, "name:zh": "王子站", "network": null, "note": null, "operator:en": "Tokyo Metro", "platforms": null, "public_transport": "stop_position", "ref": "N", "subway": "yes", "train": null, "wheelchair": null, "wikidata": "Q801689", "wikipedia": "ja:王子駅", "line": "nanboku", "colour": "#00AC9B", "station_id": "nanboku_st_10" }, "geometry": { "type": "Point", "coordinates": [ 139.73752425, 35.753961700002812 ] } },
{ "type": "Feature", "properties": { "aliases": "南北", "color": "#00AC9A", "line_code": "N", "line_slug": "tokyo-metro-namboku", "name_en": "Namboku Line", "official_name": "南北線", "operator": "東京メトロ", "operator_slug": "tokyo-metro", "railway": "subway", "route_id": "407", "source": "OSM Overpass (ways merged)", "source_url": "https://geodo.earth/lines/tokyo-metro-namboku/", "name_ja": "王子神谷", "id": "node/5406714310", "@id": "node/5406714310", "local_ref": null, "name": "王子神谷", "name:en": "Oji-kamiya", "name:es": null, "name:ja": "王子神谷", "name:ja-Hira": null, "name:ja-Latn": null, "name:ja_rm": null, "name:ko": null, "name:ru": null, "name:th": null, "name:zh": null, "network": null, "note": null, "operator:en": null, "platforms": null, "public_transport": "stop_position", "ref": "N", "subway": "yes", "train": null, "wheelchair": null, "wikidata": null, "wikipedia": null, "line": "nanboku", "colour": "#00AC9B", "station_id": "nanboku_st_11" }, "geometry": { "type": "Point", "coordinates": [ 139.73572015, 35.765052750000081 ] } },
{ "type": "Feature", "properties": { "aliases": "南北", "color": "#00AC9A", "line_code": "N", "line_slug": "tokyo-metro-namboku", "name_en": "Namboku Line", "official_name": "南北線", "operator": "東京メトロ", "operator_slug": "tokyo-metro", "railway": "subway", "route_id": "407", "source": "OSM Overpass (ways merged)", "source_url": "https://geodo.earth/lines/tokyo-metro-namboku/", "name_ja": "白金台", "id": "node/4111329876", "@id": "node/4111329876", "local_ref": null, "name": "白金台", "name:en": "Shirokanedai", "name:es": "Shirokanedai", "name:ja": "白金台", "name:ja-Hira": "しろかねだい", "name:ja-Latn": null, "name:ja_rm": "Shirokanedai", "name:ko": null, "name:ru": null, "name:th": null, "name:zh": null, "network": "都営地下鉄", "note": null, "operator:en": null, "platforms": null, "public_transport": "stop_position", "ref": "N", "subway": "yes", "train": null, "wheelchair": null, "wikidata": "Q112357", "wikipedia": "ja:白金台駅", "line": "nanboku", "colour": "#00AC9B", "station_id": "nanboku_st_12" }, "geometry": { "type": "Point", "coordinates": [ 139.726561950000018, 35.63810470000093 ] } },
{ "type": "Feature", "properties": { "aliases": "南北", "color": "#00AC9A", "line_code": "N", "line_slug": "tokyo-metro-namboku", "name_en": "Namboku Line", "official_name": "南北線", "operator": "東京メトロ", "operator_slug": "tokyo-metro", "railway": "subway", "route_id": "407", "source": "OSM Overpass (ways merged)", "source_url": "https://geodo.earth/lines/tokyo-metro-namboku/", "name_ja": "白金高輪", "id": "node/4111329879", "@id": "node/4111329879", "local_ref": null, "name": "白金高輪", "name:en": "Shirokane-takanawa", "name:es": "Shirokane-takanawa", "name:ja": null, "name:ja-Hira": null, "name:ja-Latn": null, "name:ja_rm": null, "name:ko": null, "name:ru": null, "name:th": null, "name:zh": null, "network": "東京メトロ", "note": null, "operator:en": null, "platforms": null, "public_transport": "stop_position", "ref": "N", "subway": "yes", "train": null, "wheelchair": null, "wikidata": null, "wikipedia": null, "line": "nanboku", "colour": "#00AC9B", "station_id": "nanboku_st_13" }, "geometry": { "type": "Point", "coordinates": [ 139.734142249999962, 35.642937100000559 ] } },
{ "type": "Feature", "properties": { "aliases": "南北", "color": "#00AC9A", "line_code": "N", "line_slug": "tokyo-metro-namboku", "name_en": "Namboku Line", "official_name": "南北線", "operator": "東京メトロ", "operator_slug": "tokyo-metro", "railway": "subway", "route_id": "407", "source": "OSM Overpass (ways merged)", "source_url": "https://geodo.earth/lines/tokyo-metro-namboku/", "name_ja": "目黒", "id": "node/4111329882", "@id": "node/4111329882", "local_ref": null, "name": "目黒", "name:en": "Meguro", "name:es": "Meguro", "name:ja": null, "name:ja-Hira": null, "name:ja-Latn": null, "name:ja_rm": null, "name:ko": null, "name:ru": null, "name:th": "เมกุโระ", "name:zh": null, "network": null, "note": null, "operator:en": null, "platforms": null, "public_transport": "stop_position", "ref": "N", "subway": "yes", "train": "yes", "wheelchair": null, "wikidata": null, "wikipedia": null, "line": "nanboku", "colour": "#00AC9B", "station_id": "nanboku_st_14" }, "geometry": { "type": "Point", "coordinates": [ 139.7157636, 35.632505700001701 ] } },
{ "type": "Feature", "properties": { "aliases": "南北", "color": "#00AC9A", "line_code": "N", "line_slug": "tokyo-metro-namboku", "name_en": "Namboku Line", "official_name": "南北線", "operator": "東京メトロ", "operator_slug": "tokyo-metro", "railway": "subway", "route_id": "407", "source": "OSM Overpass (ways merged)", "source_url": "https://geodo.earth/lines/tokyo-metro-namboku/", "name_ja": "西ヶ原駅", "id": "node/5406704874", "@id": "node/5406704874", "local_ref": null, "name": "西ヶ原駅", "name:en": "Nishigahara", "name:es": null, "name:ja": "西ヶ原駅", "name:ja-Hira": null, "name:ja-Latn": null, "name:ja_rm": null, "name:ko": null, "name:ru": null, "name:th": null, "name:zh": null, "network": null, "note": null, "operator:en": null, "platforms": null, "public_transport": "stop_position", "ref": "N", "subway": "yes", "train": null, "wheelchair": null, "wikidata": null, "wikipedia": null, "line": "nanboku", "colour": "#00AC9B", "station_id": "nanboku_st_15" }, "geometry": { "type": "Point", "coordinates": [ 139.7421722, 35.746049600006558 ] } },
{ "type": "Feature", "properties": { "aliases": "南北", "color": "#00AC9A", "line_code": "N", "line_slug": "tokyo-metro-namboku", "name_en": "Namboku Line", "official_name": "南北線", "operator": "東京メトロ", "operator_slug": "tokyo-metro", "railway": "subway", "route_id": "407", "source": "OSM Overpass (ways merged)", "source_url": "https://geodo.earth/lines/tokyo-metro-namboku/", "name_ja": "赤羽岩淵", "id": "node/361024853", "@id": "node/361024853", "local_ref": null, "name": "赤羽岩淵", "name:en": "Akabane-iwabuchi", "name:es": "Akabane-iwabuchi", "name:ja": "赤羽岩淵", "name:ja-Hira": "あかばねいわぶち", "name:ja-Latn": null, "name:ja_rm": "Akabane Iwabuchi", "name:ko": null, "name:ru": null, "name:th": null, "name:zh": null, "network": null, "note": null, "operator:en": null, "platforms": null, "public_transport": "stop_position", "ref": "N", "subway": "yes", "train": "yes", "wheelchair": null, "wikidata": "Q151409", "wikipedia": "ja:赤羽岩淵駅", "line": "nanboku", "colour": "#00AC9B", "station_id": "nanboku_st_16" }, "geometry": { "type": "Point", "coordinates": [ 139.72191655, 35.783440800015974 ] } },
{ "type": "Feature", "properties": { "aliases": "南北", "color": "#00AC9A", "line_code": "N", "line_slug": "tokyo-metro-namboku", "name_en": "Namboku Line", "official_name": "南北線", "operator": "東京メトロ", "operator_slug": "tokyo-metro", "railway": "subway", "route_id": "407", "source": "OSM Overpass (ways merged)", "source_url": "https://geodo.earth/lines/tokyo-metro-namboku/", "name_ja": "飯田橋", "id": "node/2329712908", "@id": "node/2329712908", "local_ref": null, "name": "飯田橋", "name:en": "Iidabashi", "name:es": "Iidabashi", "name:ja": "飯田橋", "name:ja-Hira": null, "name:ja-Latn": null, "name:ja_rm": null, "name:ko": null, "name:ru": null, "name:th": null, "name:zh": null, "network": "東京メトロ南北線", "note": null, "operator:en": null, "platforms": null, "public_transport": "stop_position", "ref": "N", "subway": "yes", "train": null, "wheelchair": null, "wikidata": null, "wikipedia": null, "line": "nanboku", "colour": "#00AC9B", "station_id": "nanboku_st_17" }, "geometry": { "type": "Point", "coordinates": [ 139.743714099999977, 35.701492750005073 ] } },
{ "type": "Feature", "properties": { "aliases": "南北", "color": "#00AC9A", "line_code": "N", "line_slug": "tokyo-metro-namboku", "name_en": "Namboku Line", "official_name": "南北線", "operator": "東京メトロ", "operator_slug": "tokyo-metro", "railway": "subway", "route_id": "407", "source": "OSM Overpass (ways merged)", "source_url": "https://geodo.earth/lines/tokyo-metro-namboku/", "name_ja": "駒込", "id": "node/2329712992", "@id": "node/2329712992", "local_ref": null, "name": "駒込", "name:en": "Komagome", "name:es": "Komagome", "name:ja": "駒込", "name:ja-Hira": "こまごめ", "name:ja-Latn": null, "name:ja_rm": "Komagome", "name:ko": null, "name:ru": null, "name:th": null, "name:zh": null, "network": null, "note": null, "operator:en": null, "platforms": null, "public_transport": "stop_position", "ref": "N", "subway": "yes", "train": null, "wheelchair": null, "wikidata": "Q801032", "wikipedia": "ja:駒込駅", "line": "nanboku", "colour": "#00AC9B", "station_id": "nanboku_st_18" }, "geometry": { "type": "Point", "coordinates": [ 139.7467609, 35.735987250002424 ] } },
{ "type": "Feature", "properties": { "aliases": "南北", "color": "#00AC9A", "line_code": "N", "line_slug": "tokyo-metro-namboku", "name_en": "Namboku Line", "official_name": "南北線", "operator": "東京メトロ", "operator_slug": "tokyo-metro", "railway": "subway", "route_id": "407", "source": "OSM Overpass (ways merged)", "source_url": "https://geodo.earth/lines/tokyo-metro-namboku/", "name_ja": "麻布十番", "id": "node/2329712566", "@id": "node/2329712566", "local_ref": null, "name": "麻布十番", "name:en": "Azabu-juban", "name:es": "Azabu-juban", "name:ja": "麻布十番", "name:ja-Hira": "あざぶじゅうばん", "name:ja-Latn": null, "name:ja_rm": "Azabu jūban", "name:ko": "아자부주반", "name:ru": null, "name:th": null, "name:zh": null, "network": null, "note": "南北線", "operator:en": null, "platforms": null, "public_transport": "stop_position", "ref": "N", "subway": "yes", "train": "yes", "wheelchair": "limited", "wikidata": "Q112382", "wikipedia": "ja:麻布十番駅", "line": "nanboku", "colour": "#00AC9B", "station_id": "nanboku_st_19" }, "geometry": { "type": "Point", "coordinates": [ 139.73713605, 35.65517290000011 ] } }
]
}
