{
"type": "FeatureCollection",
"name": "tokyo-metro-tozai_stations",
"crs": { "type": "name", "properties": { "name": "urn:ogc:def:crs:OGC:1.3:CRS84" } },
"features": [
{ "type": "Feature", "properties": { "public_transport": "station", "maxspeed": null, "wikipedia": "ja:西船橋駅", "addr:block_number": null, "name:ja-Latn": "Nishi-Funabashi", "network": "東京メトロ;東葉高速線", "@id": "node/8043717177", "addr:neighbourhood": null, "wheelchair": "yes", "station": "subway", "name:de": "Nishi-Funabashi", "ref": "T23;TR01", "internet_access": null, "wikidata": "Q128803", "addr:housenumber": null, "name:fr": null, "name:ja": "西船橋", "internet_access:ssid": null, "name:ru": "Ниси-Фунабаси", "name:ko": "니시후나바시", "name:en": "Nishi-Funabashi", "name:zh-Hans": null, "name:zh": null, "internet_access:fee": null, "toilets:wheelchair": null, "name": "西船橋", "name:ja_rm": null, "platforms": null, "operator": "東京メトロ", "name:it": "Nishi-Funabashi", "transport": null, "website": null, "name:ja-Hira": "にしふなばし", "railway": "subway", "name:es": "Nishi-Funabashi", "phone": null, "source": "OSM Overpass", "station_order": 1, "route_id": "403", "line_slug": "tokyo-metro-tozai", "operator_slug": "tokyo-metro", "station_id": "tokyo-metro-tozai_01", "subway": null, "train": null, "aliases": "東西", "color": "#009BBF", "line_code": "T", "name_en": "Tozai Line", "official_name": "東西線", "source_url": "https://geodo.earth/lines/tokyo-metro-tozai/" }, "geometry": { "type": "Point", "coordinates": [ 139.9588761, 35.7072922 ] } },
{ "type": "Feature", "properties": { "public_transport": "station", "maxspeed": null, "wikipedia": "ja:原木中山駅", "addr:block_number": null, "name:ja-Latn": null, "network": null, "@id": "node/1923720146", "addr:neighbourhood": null, "wheelchair": null, "station": "subway", "name:de": null, "ref": "T22", "internet_access": null, "wikidata": "Q128808", "addr:housenumber": null, "name:fr": null, "name:ja": "原木中山", "internet_access:ssid": null, "name:ru": "Бараки-Накаяма", "name:ko": "바라키나카야마", "name:en": "Baraki-nakayama", "name:zh-Hans": null, "name:zh": null, "internet_access:fee": null, "toilets:wheelchair": null, "name": "原木中山", "name:ja_rm": null, "platforms": "2", "operator": "東京メトロ", "name:it": null, "transport": null, "website": null, "name:ja-Hira": "ばらきなかやま", "railway": "subway", "name:es": "Baraki-nakayama", "phone": null, "source": "OSM Overpass", "station_order": 2, "route_id": "403", "line_slug": "tokyo-metro-tozai", "operator_slug": "tokyo-metro", "station_id": "tokyo-metro-tozai_02", "subway": "yes", "train": null, "aliases": "東西", "color": "#009BBF", "line_code": "T", "name_en": "Tozai Line", "official_name": "東西線", "source_url": "https://geodo.earth/lines/tokyo-metro-tozai/" }, "geometry": { "type": "Point", "coordinates": [ 139.941659499999986, 35.7031484 ] } },
{ "type": "Feature", "properties": { "public_transport": "station", "maxspeed": null, "wikipedia": "ja:妙典駅", "addr:block_number": null, "name:ja-Latn": "Myōden", "network": null, "@id": "node/1923723997", "addr:neighbourhood": null, "wheelchair": null, "station": "subway", "name:de": null, "ref": "T21", "internet_access": null, "wikidata": "Q128795", "addr:housenumber": null, "name:fr": null, "name:ja": "妙典", "internet_access:ssid": null, "name:ru": "Мёден", "name:ko": "묘덴", "name:en": "Myoden", "name:zh-Hans": null, "name:zh": null, "internet_access:fee": null, "toilets:wheelchair": null, "name": "妙典", "name:ja_rm": null, "platforms": "4", "operator": "東京メトロ", "name:it": null, "transport": null, "website": null, "name:ja-Hira": "みょうでん", "railway": "subway", "name:es": "Myoden", "phone": null, "source": "OSM Overpass", "station_order": 3, "route_id": "403", "line_slug": "tokyo-metro-tozai", "operator_slug": "tokyo-metro", "station_id": "tokyo-metro-tozai_03", "subway": "yes", "train": null, "aliases": "東西", "color": "#009BBF", "line_code": "T", "name_en": "Tozai Line", "official_name": "東西線", "source_url": "https://geodo.earth/lines/tokyo-metro-tozai/" }, "geometry": { "type": "Point", "coordinates": [ 139.9244066, 35.6910897 ] } },
{ "type": "Feature", "properties": { "public_transport": "station", "maxspeed": null, "wikipedia": "ja:行徳駅", "addr:block_number": "4", "name:ja-Latn": null, "network": null, "@id": "node/1923746849", "addr:neighbourhood": "行徳駅前二丁目", "wheelchair": null, "station": "subway", "name:de": null, "ref": "T20", "internet_access": null, "wikidata": "Q128806", "addr:housenumber": "1", "name:fr": null, "name:ja": "行徳", "internet_access:ssid": null, "name:ru": "Гётоку", "name:ko": "교토쿠", "name:en": "Gyotoku", "name:zh-Hans": null, "name:zh": null, "internet_access:fee": null, "toilets:wheelchair": null, "name": "行徳", "name:ja_rm": null, "platforms": "2", "operator": "東京メトロ", "name:it": null, "transport": null, "website": null, "name:ja-Hira": "ぎょうとく", "railway": "subway", "name:es": "Gyotoku", "phone": "+81-47-357-5821", "source": "OSM Overpass", "station_order": 4, "route_id": "403", "line_slug": "tokyo-metro-tozai", "operator_slug": "tokyo-metro", "station_id": "tokyo-metro-tozai_04", "subway": "yes", "train": null, "aliases": "東西", "color": "#009BBF", "line_code": "T", "name_en": "Tozai Line", "official_name": "東西線", "source_url": "https://geodo.earth/lines/tokyo-metro-tozai/" }, "geometry": { "type": "Point", "coordinates": [ 139.9145062, 35.6828816 ] } },
{ "type": "Feature", "properties": { "public_transport": "station", "maxspeed": null, "wikipedia": "ja:南行徳駅", "addr:block_number": null, "name:ja-Latn": "Minami Gyōtoku", "network": null, "@id": "node/1923746852", "addr:neighbourhood": null, "wheelchair": null, "station": "subway", "name:de": null, "ref": "T19", "internet_access": null, "wikidata": "Q128797", "addr:housenumber": null, "name:fr": null, "name:ja": "南行徳", "internet_access:ssid": null, "name:ru": "Минами-Гётоку", "name:ko": "미나미교토쿠", "name:en": "Minami-gyotoku", "name:zh-Hans": null, "name:zh": null, "internet_access:fee": null, "toilets:wheelchair": null, "name": "南行徳", "name:ja_rm": null, "platforms": "2", "operator": "東京メトロ", "name:it": null, "transport": null, "website": null, "name:ja-Hira": "みなみぎょうとく", "railway": "subway", "name:es": null, "phone": null, "source": "OSM Overpass", "station_order": 5, "route_id": "403", "line_slug": "tokyo-metro-tozai", "operator_slug": "tokyo-metro", "station_id": "tokyo-metro-tozai_05", "subway": "yes", "train": null, "aliases": "東西", "color": "#009BBF", "line_code": "T", "name_en": "Tozai Line", "official_name": "東西線", "source_url": "https://geodo.earth/lines/tokyo-metro-tozai/" }, "geometry": { "type": "Point", "coordinates": [ 139.902279, 35.6727318 ] } },
{ "type": "Feature", "properties": { "public_transport": "station", "maxspeed": null, "wikipedia": "ja:浦安駅 (千葉県)", "addr:block_number": null, "name:ja-Latn": null, "network": null, "@id": "node/1923746886", "addr:neighbourhood": null, "wheelchair": null, "station": "subway", "name:de": null, "ref": "T18", "internet_access": null, "wikidata": "Q1077988", "addr:housenumber": null, "name:fr": null, "name:ja": "浦安", "internet_access:ssid": null, "name:ru": "Ураясу", "name:ko": "우라야스", "name:en": "Urayasu", "name:zh-Hans": null, "name:zh": null, "internet_access:fee": null, "toilets:wheelchair": null, "name": "浦安", "name:ja_rm": "Urayasu", "platforms": "2", "operator": "東京メトロ", "name:it": null, "transport": null, "website": null, "name:ja-Hira": "うらやす", "railway": "subway", "name:es": "Urayasu", "phone": null, "source": "OSM Overpass", "station_order": 6, "route_id": "403", "line_slug": "tokyo-metro-tozai", "operator_slug": "tokyo-metro", "station_id": "tokyo-metro-tozai_06", "subway": "yes", "train": null, "aliases": "東西", "color": "#009BBF", "line_code": "T", "name_en": "Tozai Line", "official_name": "東西線", "source_url": "https://geodo.earth/lines/tokyo-metro-tozai/" }, "geometry": { "type": "Point", "coordinates": [ 139.8930133, 35.6658445 ] } },
{ "type": "Feature", "properties": { "public_transport": "station", "maxspeed": null, "wikipedia": "ja:葛西駅", "addr:block_number": null, "name:ja-Latn": null, "network": null, "@id": "node/1923746881", "addr:neighbourhood": null, "wheelchair": null, "station": "subway", "name:de": null, "ref": "T17", "internet_access": null, "wikidata": "Q126762", "addr:housenumber": null, "name:fr": null, "name:ja": "葛西", "internet_access:ssid": null, "name:ru": "Касай", "name:ko": "가사이", "name:en": "Kasai", "name:zh-Hans": null, "name:zh": null, "internet_access:fee": null, "toilets:wheelchair": null, "name": "葛西", "name:ja_rm": "Kasai", "platforms": "2", "operator": "東京メトロ", "name:it": null, "transport": null, "website": null, "name:ja-Hira": "かさい", "railway": "subway", "name:es": "Kasai", "phone": null, "source": "OSM Overpass", "station_order": 7, "route_id": "403", "line_slug": "tokyo-metro-tozai", "operator_slug": "tokyo-metro", "station_id": "tokyo-metro-tozai_07", "subway": "yes", "train": null, "aliases": "東西", "color": "#009BBF", "line_code": "T", "name_en": "Tozai Line", "official_name": "東西線", "source_url": "https://geodo.earth/lines/tokyo-metro-tozai/" }, "geometry": { "type": "Point", "coordinates": [ 139.8726921, 35.6636282 ] } },
{ "type": "Feature", "properties": { "public_transport": "station", "maxspeed": null, "wikipedia": "ja:西葛西駅", "addr:block_number": null, "name:ja-Latn": null, "network": null, "@id": "node/1923746848", "addr:neighbourhood": null, "wheelchair": "yes", "station": "subway", "name:de": null, "ref": "T16", "internet_access": null, "wikidata": "Q126768", "addr:housenumber": null, "name:fr": null, "name:ja": "西葛西", "internet_access:ssid": null, "name:ru": "Ниси-Касай", "name:ko": "니시카사이", "name:en": "Nishi-kasai", "name:zh-Hans": null, "name:zh": null, "internet_access:fee": null, "toilets:wheelchair": "yes", "name": "西葛西", "name:ja_rm": "Nishi Kasai", "platforms": "2", "operator": "東京メトロ", "name:it": null, "transport": null, "website": null, "name:ja-Hira": "にしかさい", "railway": "subway", "name:es": "Nishi-kasai", "phone": null, "source": "OSM Overpass", "station_order": 8, "route_id": "403", "line_slug": "tokyo-metro-tozai", "operator_slug": "tokyo-metro", "station_id": "tokyo-metro-tozai_08", "subway": "yes", "train": null, "aliases": "東西", "color": "#009BBF", "line_code": "T", "name_en": "Tozai Line", "official_name": "東西線", "source_url": "https://geodo.earth/lines/tokyo-metro-tozai/" }, "geometry": { "type": "Point", "coordinates": [ 139.859317299999987, 35.6645795 ] } },
{ "type": "Feature", "properties": { "public_transport": "station", "maxspeed": null, "wikipedia": "ja:南砂町駅", "addr:block_number": null, "name:ja-Latn": null, "network": null, "@id": "node/1923746850", "addr:neighbourhood": null, "wheelchair": null, "station": "subway", "name:de": null, "ref": "T15", "internet_access": null, "wikidata": "Q126760", "addr:housenumber": null, "name:fr": null, "name:ja": "南砂町", "internet_access:ssid": null, "name:ru": "Минами-Сунамати", "name:ko": "미나미스나마치", "name:en": "Minami-sunamachi", "name:zh-Hans": null, "name:zh": null, "internet_access:fee": null, "toilets:wheelchair": null, "name": "南砂町", "name:ja_rm": "Minami Sunamachi", "platforms": "2", "operator": "東京メトロ", "name:it": null, "transport": null, "website": null, "name:ja-Hira": "みなみすなまち", "railway": "subway", "name:es": "Minami-sunamachi", "phone": null, "source": "OSM Overpass", "station_order": 9, "route_id": "403", "line_slug": "tokyo-metro-tozai", "operator_slug": "tokyo-metro", "station_id": "tokyo-metro-tozai_09", "subway": "yes", "train": null, "aliases": "東西", "color": "#009BBF", "line_code": "T", "name_en": "Tozai Line", "official_name": "東西線", "source_url": "https://geodo.earth/lines/tokyo-metro-tozai/" }, "geometry": { "type": "Point", "coordinates": [ 139.831864200000012, 35.6683446 ] } },
{ "type": "Feature", "properties": { "public_transport": "station", "maxspeed": null, "wikipedia": "ja:東陽町駅", "addr:block_number": null, "name:ja-Latn": "Tōyōchō", "network": null, "@id": "node/1923746858", "addr:neighbourhood": null, "wheelchair": null, "station": "subway", "name:de": null, "ref": "T14", "internet_access": null, "wikidata": "Q126765", "addr:housenumber": null, "name:fr": null, "name:ja": "東陽町", "internet_access:ssid": null, "name:ru": "Тоётё", "name:ko": "도요초", "name:en": "Toyocho", "name:zh-Hans": null, "name:zh": null, "internet_access:fee": null, "toilets:wheelchair": null, "name": "東陽町", "name:ja_rm": null, "platforms": "2", "operator": "東京メトロ", "name:it": null, "transport": null, "website": null, "name:ja-Hira": "とうようちょう", "railway": "subway", "name:es": null, "phone": null, "source": "OSM Overpass", "station_order": 10, "route_id": "403", "line_slug": "tokyo-metro-tozai", "operator_slug": "tokyo-metro", "station_id": "tokyo-metro-tozai_10", "subway": "yes", "train": null, "aliases": "東西", "color": "#009BBF", "line_code": "T", "name_en": "Tozai Line", "official_name": "東西線", "source_url": "https://geodo.earth/lines/tokyo-metro-tozai/" }, "geometry": { "type": "Point", "coordinates": [ 139.8174761, 35.6695961 ] } },
{ "type": "Feature", "properties": { "public_transport": "station", "maxspeed": null, "wikipedia": "ja:木場駅", "addr:block_number": null, "name:ja-Latn": null, "network": null, "@id": "node/1923761823", "addr:neighbourhood": null, "wheelchair": null, "station": "subway", "name:de": null, "ref": "T13", "internet_access": null, "wikidata": "Q126770", "addr:housenumber": null, "name:fr": null, "name:ja": "木場", "internet_access:ssid": null, "name:ru": "Киба", "name:ko": "기바", "name:en": "Kiba", "name:zh-Hans": null, "name:zh": null, "internet_access:fee": null, "toilets:wheelchair": null, "name": "木場", "name:ja_rm": "Kiba", "platforms": "2", "operator": "東京メトロ", "name:it": null, "transport": null, "website": null, "name:ja-Hira": "きば", "railway": "subway", "name:es": null, "phone": null, "source": "OSM Overpass", "station_order": 11, "route_id": "403", "line_slug": "tokyo-metro-tozai", "operator_slug": "tokyo-metro", "station_id": "tokyo-metro-tozai_11", "subway": "yes", "train": null, "aliases": "東西", "color": "#009BBF", "line_code": "T", "name_en": "Tozai Line", "official_name": "東西線", "source_url": "https://geodo.earth/lines/tokyo-metro-tozai/" }, "geometry": { "type": "Point", "coordinates": [ 139.8065455, 35.669416 ] } },
{ "type": "Feature", "properties": { "public_transport": "station", "maxspeed": null, "wikipedia": "ja:門前仲町駅", "addr:block_number": null, "name:ja-Latn": null, "network": null, "@id": "node/251465504", "addr:neighbourhood": null, "wheelchair": null, "station": "subway", "name:de": null, "ref": "T12", "internet_access": null, "wikidata": "Q80576", "addr:housenumber": null, "name:fr": null, "name:ja": "門前仲町", "internet_access:ssid": null, "name:ru": "Мондзен-Накатё", "name:ko": "몬젠나카초 역", "name:en": "Monzen-nakacho", "name:zh-Hans": null, "name:zh": "門前仲町站", "internet_access:fee": null, "toilets:wheelchair": null, "name": "門前仲町", "name:ja_rm": "Monzen Nakachō", "platforms": "2", "operator": "東京メトロ", "name:it": null, "transport": null, "website": null, "name:ja-Hira": "もんぜんなかちょう", "railway": "subway", "name:es": "Monzen-nakacho", "phone": null, "source": "OSM Overpass", "station_order": 12, "route_id": "403", "line_slug": "tokyo-metro-tozai", "operator_slug": "tokyo-metro", "station_id": "tokyo-metro-tozai_12", "subway": "yes", "train": null, "aliases": "東西", "color": "#009BBF", "line_code": "T", "name_en": "Tozai Line", "official_name": "東西線", "source_url": "https://geodo.earth/lines/tokyo-metro-tozai/" }, "geometry": { "type": "Point", "coordinates": [ 139.7950674, 35.6722878 ] } },
{ "type": "Feature", "properties": { "public_transport": "station", "maxspeed": null, "wikipedia": "ja:茅場町駅", "addr:block_number": null, "name:ja-Latn": null, "network": null, "@id": "node/2730655241", "addr:neighbourhood": null, "wheelchair": "limited", "station": "subway", "name:de": null, "ref": "T11", "internet_access": null, "wikidata": "Q80566", "addr:housenumber": null, "name:fr": null, "name:ja": "茅場町", "internet_access:ssid": null, "name:ru": "Кайабатё", "name:ko": "가야바초", "name:en": "Kayabacho", "name:zh-Hans": null, "name:zh": null, "internet_access:fee": null, "toilets:wheelchair": null, "name": "茅場町", "name:ja_rm": "Kayabachō", "platforms": null, "operator": "東京メトロ", "name:it": null, "transport": "subway", "website": null, "name:ja-Hira": "かやばちょう", "railway": "subway", "name:es": "Kayabacho", "phone": null, "source": "OSM Overpass", "station_order": 13, "route_id": "403", "line_slug": "tokyo-metro-tozai", "operator_slug": "tokyo-metro", "station_id": "tokyo-metro-tozai_13", "subway": "yes", "train": null, "aliases": "東西", "color": "#009BBF", "line_code": "T", "name_en": "Tozai Line", "official_name": "東西線", "source_url": "https://geodo.earth/lines/tokyo-metro-tozai/" }, "geometry": { "type": "Point", "coordinates": [ 139.7794236, 35.6802291 ] } },
{ "type": "Feature", "properties": { "public_transport": "station", "maxspeed": null, "wikipedia": null, "addr:block_number": null, "name:ja-Latn": null, "network": null, "@id": "node/5408257692", "addr:neighbourhood": null, "wheelchair": "yes", "station": "subway", "name:de": null, "ref": null, "internet_access": null, "wikidata": null, "addr:housenumber": null, "name:fr": null, "name:ja": "日本橋", "internet_access:ssid": null, "name:ru": "Нихонбаси", "name:ko": "니혼바시", "name:en": "Nihombashi", "name:zh-Hans": "日本桥", "name:zh": "日本橋", "internet_access:fee": null, "toilets:wheelchair": null, "name": "日本橋", "name:ja_rm": null, "platforms": null, "operator": "東京メトロ", "name:it": null, "transport": null, "website": null, "name:ja-Hira": null, "railway": "subway", "name:es": "Nihombashi", "phone": null, "source": "OSM Overpass", "station_order": 14, "route_id": "403", "line_slug": "tokyo-metro-tozai", "operator_slug": "tokyo-metro", "station_id": "tokyo-metro-tozai_14", "subway": "yes", "train": null, "aliases": "東西", "color": "#009BBF", "line_code": "T", "name_en": "Tozai Line", "official_name": "東西線", "source_url": "https://geodo.earth/lines/tokyo-metro-tozai/" }, "geometry": { "type": "Point", "coordinates": [ 139.774493299999989, 35.6822079 ] } },
{ "type": "Feature", "properties": { "public_transport": "station", "maxspeed": null, "wikipedia": "ja:大手町駅 (東京都)", "addr:block_number": null, "name:ja-Latn": null, "network": null, "@id": "node/1923768928", "addr:neighbourhood": null, "wheelchair": "no", "station": "subway", "name:de": null, "ref": "T09", "internet_access": null, "wikidata": "Q1326767", "addr:housenumber": null, "name:fr": "Ōtemachi", "name:ja": "大手町", "internet_access:ssid": null, "name:ru": "Отэмати", "name:ko": "오테마치", "name:en": "Otemachi", "name:zh-Hans": "大手町", "name:zh": "大手町", "internet_access:fee": null, "toilets:wheelchair": null, "name": "大手町", "name:ja_rm": "Ōtemachi", "platforms": "2", "operator": "東京メトロ", "name:it": null, "transport": null, "website": null, "name:ja-Hira": "おおてまち", "railway": "subway", "name:es": "Otemachi", "phone": null, "source": "OSM Overpass", "station_order": 15, "route_id": "403", "line_slug": "tokyo-metro-tozai", "operator_slug": "tokyo-metro", "station_id": "tokyo-metro-tozai_15", "subway": "yes", "train": null, "aliases": "東西", "color": "#009BBF", "line_code": "T", "name_en": "Tozai Line", "official_name": "東西線", "source_url": "https://geodo.earth/lines/tokyo-metro-tozai/" }, "geometry": { "type": "Point", "coordinates": [ 139.7664613, 35.6846087 ] } },
{ "type": "Feature", "properties": { "public_transport": "station", "maxspeed": null, "wikipedia": "ja:竹橋駅", "addr:block_number": null, "name:ja-Latn": null, "network": "東京メトロ東西線", "@id": "node/5408256884", "addr:neighbourhood": null, "wheelchair": null, "station": "subway", "name:de": null, "ref": "T08", "internet_access": "wlan", "wikidata": "Q80564", "addr:housenumber": null, "name:fr": null, "name:ja": "竹橋", "internet_access:ssid": "Metro_Free_Wi-Fi", "name:ru": "Такебаси", "name:ko": "다케바시 역", "name:en": "Takebashi", "name:zh-Hans": null, "name:zh": "竹橋站", "internet_access:fee": "no", "toilets:wheelchair": null, "name": "竹橋", "name:ja_rm": "Takebashi", "platforms": "2", "operator": "東京メトロ", "name:it": null, "transport": null, "website": "https://www.tokyometro.jp/lang_en/station/takebashi/", "name:ja-Hira": "たけばし", "railway": "subway", "name:es": "Takebashi", "phone": "+81 3 32116094", "source": "OSM Overpass", "station_order": 16, "route_id": "403", "line_slug": "tokyo-metro-tozai", "operator_slug": "tokyo-metro", "station_id": "tokyo-metro-tozai_16", "subway": null, "train": null, "aliases": "東西", "color": "#009BBF", "line_code": "T", "name_en": "Tozai Line", "official_name": "東西線", "source_url": "https://geodo.earth/lines/tokyo-metro-tozai/" }, "geometry": { "type": "Point", "coordinates": [ 139.7587484, 35.6900994 ] } },
{ "type": "Feature", "properties": { "public_transport": "station", "maxspeed": null, "wikipedia": "ja:九段下駅", "addr:block_number": null, "name:ja-Latn": null, "network": null, "@id": "node/4416166080", "addr:neighbourhood": null, "wheelchair": "yes", "station": "subway", "name:de": null, "ref": "T07", "internet_access": null, "wikidata": "Q76899", "addr:housenumber": null, "name:fr": null, "name:ja": "九段下", "internet_access:ssid": null, "name:ru": "Кудансита", "name:ko": "구단시타", "name:en": "Kudanshita", "name:zh-Hans": null, "name:zh": null, "internet_access:fee": null, "toilets:wheelchair": null, "name": "九段下", "name:ja_rm": "Kudanshita", "platforms": null, "operator": "東京メトロ", "name:it": null, "transport": "subway", "website": null, "name:ja-Hira": "くだんした", "railway": "subway", "name:es": "Kudanshita", "phone": null, "source": "OSM Overpass", "station_order": 17, "route_id": "403", "line_slug": "tokyo-metro-tozai", "operator_slug": "tokyo-metro", "station_id": "tokyo-metro-tozai_17", "subway": "yes", "train": null, "aliases": "東西", "color": "#009BBF", "line_code": "T", "name_en": "Tozai Line", "official_name": "東西線", "source_url": "https://geodo.earth/lines/tokyo-metro-tozai/" }, "geometry": { "type": "Point", "coordinates": [ 139.7512822, 35.6959079 ] } },
{ "type": "Feature", "properties": { "public_transport": "station", "maxspeed": null, "wikipedia": null, "addr:block_number": null, "name:ja-Latn": null, "network": "東京メトロ東西線", "@id": "node/5408242400", "addr:neighbourhood": null, "wheelchair": null, "station": "subway", "name:de": null, "ref": null, "internet_access": null, "wikidata": null, "addr:housenumber": null, "name:fr": null, "name:ja": "飯田橋", "internet_access:ssid": null, "name:ru": null, "name:ko": "이다바시", "name:en": "Iidabashi", "name:zh-Hans": null, "name:zh": null, "internet_access:fee": null, "toilets:wheelchair": null, "name": "飯田橋", "name:ja_rm": null, "platforms": null, "operator": "東京メトロ", "name:it": null, "transport": null, "website": null, "name:ja-Hira": null, "railway": "subway", "name:es": "Iidabashi", "phone": null, "source": "OSM Overpass", "station_order": 18, "route_id": "403", "line_slug": "tokyo-metro-tozai", "operator_slug": "tokyo-metro", "station_id": "tokyo-metro-tozai_18", "subway": "yes", "train": null, "aliases": "東西", "color": "#009BBF", "line_code": "T", "name_en": "Tozai Line", "official_name": "東西線", "source_url": "https://geodo.earth/lines/tokyo-metro-tozai/" }, "geometry": { "type": "Point", "coordinates": [ 139.745993700000014, 35.7017139 ] } },
{ "type": "Feature", "properties": { "public_transport": "station", "maxspeed": null, "wikipedia": null, "addr:block_number": null, "name:ja-Latn": null, "network": null, "@id": "node/5408235029", "addr:neighbourhood": null, "wheelchair": null, "station": "subway", "name:de": null, "ref": null, "internet_access": null, "wikidata": "Q80573", "addr:housenumber": null, "name:fr": null, "name:ja": "神楽坂", "internet_access:ssid": null, "name:ru": null, "name:ko": "가구라자카", "name:en": "Kagurazaka", "name:zh-Hans": null, "name:zh": null, "internet_access:fee": null, "toilets:wheelchair": null, "name": "神楽坂", "name:ja_rm": null, "platforms": null, "operator": "東京メトロ", "name:it": null, "transport": null, "website": null, "name:ja-Hira": null, "railway": "subway", "name:es": "Kagurazaka", "phone": null, "source": "OSM Overpass", "station_order": 19, "route_id": "403", "line_slug": "tokyo-metro-tozai", "operator_slug": "tokyo-metro", "station_id": "tokyo-metro-tozai_19", "subway": "yes", "train": null, "aliases": "東西", "color": "#009BBF", "line_code": "T", "name_en": "Tozai Line", "official_name": "東西線", "source_url": "https://geodo.earth/lines/tokyo-metro-tozai/" }, "geometry": { "type": "Point", "coordinates": [ 139.7341347, 35.7039298 ] } },
{ "type": "Feature", "properties": { "public_transport": "station", "maxspeed": null, "wikipedia": "en:Waseda Station", "addr:block_number": null, "name:ja-Latn": null, "network": "東京メトロ東西線", "@id": "node/5408225235", "addr:neighbourhood": null, "wheelchair": null, "station": "subway", "name:de": null, "ref": "T04", "internet_access": null, "wikidata": "Q1078459", "addr:housenumber": null, "name:fr": null, "name:ja": "早稲田", "internet_access:ssid": null, "name:ru": null, "name:ko": "와세다", "name:en": "Waseda", "name:zh-Hans": null, "name:zh": null, "internet_access:fee": null, "toilets:wheelchair": null, "name": "早稲田", "name:ja_rm": null, "platforms": null, "operator": "東京メトロ", "name:it": null, "transport": null, "website": null, "name:ja-Hira": null, "railway": "subway", "name:es": "Waseda", "phone": null, "source": "OSM Overpass", "station_order": 20, "route_id": "403", "line_slug": "tokyo-metro-tozai", "operator_slug": "tokyo-metro", "station_id": "tokyo-metro-tozai_20", "subway": "yes", "train": null, "aliases": "東西", "color": "#009BBF", "line_code": "T", "name_en": "Tozai Line", "official_name": "東西線", "source_url": "https://geodo.earth/lines/tokyo-metro-tozai/" }, "geometry": { "type": "Point", "coordinates": [ 139.721191, 35.7058028 ] } },
{ "type": "Feature", "properties": { "public_transport": "station", "maxspeed": null, "wikipedia": null, "addr:block_number": null, "name:ja-Latn": null, "network": null, "@id": "node/5408217482", "addr:neighbourhood": null, "wheelchair": null, "station": "subway", "name:de": null, "ref": null, "internet_access": null, "wikidata": null, "addr:housenumber": null, "name:fr": null, "name:ja": "高田馬場", "internet_access:ssid": null, "name:ru": null, "name:ko": "다카다노바바", "name:en": "Takadanobaba", "name:zh-Hans": null, "name:zh": null, "internet_access:fee": null, "toilets:wheelchair": null, "name": "高田馬場", "name:ja_rm": null, "platforms": null, "operator": "東京メトロ", "name:it": null, "transport": null, "website": null, "name:ja-Hira": null, "railway": "subway", "name:es": null, "phone": null, "source": "OSM Overpass", "station_order": 21, "route_id": "403", "line_slug": "tokyo-metro-tozai", "operator_slug": "tokyo-metro", "station_id": "tokyo-metro-tozai_21", "subway": "yes", "train": null, "aliases": "東西", "color": "#009BBF", "line_code": "T", "name_en": "Tozai Line", "official_name": "東西線", "source_url": "https://geodo.earth/lines/tokyo-metro-tozai/" }, "geometry": { "type": "Point", "coordinates": [ 139.7050188, 35.7133806 ] } },
{ "type": "Feature", "properties": { "public_transport": "station", "maxspeed": null, "wikipedia": "ja:落合駅 (東京都)", "addr:block_number": null, "name:ja-Latn": "Ochiai", "network": null, "@id": "node/1950328487", "addr:neighbourhood": null, "wheelchair": null, "station": "subway", "name:de": null, "ref": "T02", "internet_access": null, "wikidata": "Q80579", "addr:housenumber": null, "name:fr": null, "name:ja": "落合", "internet_access:ssid": null, "name:ru": "Отиай", "name:ko": "오치아이", "name:en": "Ochiai", "name:zh-Hans": null, "name:zh": null, "internet_access:fee": null, "toilets:wheelchair": null, "name": "落合", "name:ja_rm": null, "platforms": "2", "operator": "東京メトロ", "name:it": null, "transport": null, "website": null, "name:ja-Hira": "おちあい", "railway": "subway", "name:es": "Ochiai", "phone": null, "source": "OSM Overpass", "station_order": 22, "route_id": "403", "line_slug": "tokyo-metro-tozai", "operator_slug": "tokyo-metro", "station_id": "tokyo-metro-tozai_22", "subway": "yes", "train": null, "aliases": "東西", "color": "#009BBF", "line_code": "T", "name_en": "Tozai Line", "official_name": "東西線", "source_url": "https://geodo.earth/lines/tokyo-metro-tozai/" }, "geometry": { "type": "Point", "coordinates": [ 139.68591330000001, 35.7106637 ] } },
{ "type": "Feature", "properties": { "public_transport": "station", "maxspeed": "95", "wikipedia": "ja:中野駅 (東京都)", "addr:block_number": null, "name:ja-Latn": "Nakano", "network": null, "@id": "node/2559434134", "addr:neighbourhood": null, "wheelchair": "no", "station": "subway", "name:de": "Nakano", "ref": "T01", "internet_access": null, "wikidata": "Q801234", "addr:housenumber": null, "name:fr": "Nakano", "name:ja": "中野", "internet_access:ssid": null, "name:ru": "Накано", "name:ko": "나카노", "name:en": "Nakano", "name:zh-Hans": null, "name:zh": null, "internet_access:fee": null, "toilets:wheelchair": null, "name": "中野", "name:ja_rm": null, "platforms": "4", "operator": "東京メトロ", "name:it": "Nakano", "transport": null, "website": null, "name:ja-Hira": "なかの", "railway": "subway", "name:es": "Nakano", "phone": null, "source": "OSM Overpass", "station_order": 23, "route_id": "403", "line_slug": "tokyo-metro-tozai", "operator_slug": "tokyo-metro", "station_id": "tokyo-metro-tozai_23", "subway": "yes", "train": "yes", "aliases": "東西", "color": "#009BBF", "line_code": "T", "name_en": "Tozai Line", "official_name": "東西線", "source_url": "https://geodo.earth/lines/tokyo-metro-tozai/" }, "geometry": { "type": "Point", "coordinates": [ 139.665633, 35.7058302 ] } }
]
}
