{
  "type": "FeatureCollection",
  "features": [
    {
      "type": "Feature",
      "properties": {
        "@id": "node/6423969022",
        "name": "荻窪",
        "name:en": "Ogikubo",
        "name:es": "Ogikubo",
        "name:ja": "荻窪",
        "name:ja-Hira": "おぎくぼ",
        "name:ja_rm": "Ogikubo",
        "name:ko": "오기쿠보",
        "name:ru": "Огикубо",
        "operator": "東京地下鉄",
        "platforms": "2",
        "public_transport": "station",
        "railway": "station",
        "ref": "M01",
        "station": "subway",
        "subway": "yes",
        "wheelchair": "yes",
        "wikidata": "Q801294",
        "wikipedia": "ja:荻窪駅",
        "station_order": 1,
        "route_id": "401",
        "line_slug": "tokyo-metro-marunouchi",
        "operator_slug": "tokyo-metro",
        "station_id": "401-01"
      },
      "geometry": {
        "type": "Point",
        "coordinates": [
          139.6200267,
          35.7042744
        ]
      }
    },
    {
      "type": "Feature",
      "properties": {
        "@id": "node/7786715972",
        "name": "南阿佐ケ谷",
        "name:en": "Minami-asagaya",
        "name:es": "Minami-asagaya",
        "name:ja": "南阿佐ケ谷",
        "name:ja-Hira": "みなみあさがや",
        "name:ja_rm": "Minami Asagaya",
        "name:ko": "미나미아사가야",
        "name:ru": "Минами Асагая",
        "operator": "東京地下鉄",
        "platforms": "2",
        "public_transport": "station",
        "railway": "station",
        "ref": "M02",
        "source": "Bing 2010",
        "station": "subway",
        "subway": "yes",
        "wheelchair": "yes",
        "wikidata": "Q1073001",
        "wikipedia": "ja:南阿佐ケ谷駅",
        "station_order": 2,
        "route_id": "401",
        "line_slug": "tokyo-metro-marunouchi",
        "operator_slug": "tokyo-metro",
        "station_id": "401-02"
      },
      "geometry": {
        "type": "Point",
        "coordinates": [
          139.6357088,
          35.6993987
        ]
      }
    },
    {
      "type": "Feature",
      "properties": {
        "@id": "node/7786715971",
        "name": "新高円寺",
        "name:en": "Shin-koenji",
        "name:es": "Shin-koenji",
        "name:ja": "新高円寺",
        "name:ja-Hira": "しんこうえんじ",
        "name:ja_rm": "Shin Kōenji",
        "name:ko": "신코엔지",
        "name:ru": "Син-Коэндзи",
        "operator": "東京地下鉄",
        "platforms": "2",
        "public_transport": "station",
        "railway": "station",
        "ref": "M03",
        "station": "subway",
        "subway": "yes",
        "wheelchair": "yes",
        "wikidata": "Q1078400",
        "wikipedia": "ja:新高円寺駅",
        "station_order": 3,
        "route_id": "401",
        "line_slug": "tokyo-metro-marunouchi",
        "operator_slug": "tokyo-metro",
        "station_id": "401-03"
      },
      "geometry": {
        "type": "Point",
        "coordinates": [
          139.648688,
          35.6978735
        ]
      }
    },
    {
      "type": "Feature",
      "properties": {
        "@id": "node/7786715970",
        "name": "東高円寺",
        "name:en": "Higashi-koenji",
        "name:es": "Higashi-koenji",
        "name:ja": "東高円寺",
        "name:ja-Hira": "ひがしこうえんじ",
        "name:ja_rm": "Higashi Kōenji",
        "name:ko": "히가시코엔지",
        "name:ru": "Хигаси Коэндзи",
        "operator": "東京地下鉄",
        "platforms": "2",
        "public_transport": "station",
        "railway": "station",
        "ref": "M04",
        "station": "subway",
        "subway": "yes",
        "train": "yes",
        "wheelchair": "yes",
        "wikidata": "Q1078443",
        "wikipedia": "ja:東高円寺駅",
        "station_order": 4,
        "route_id": "401",
        "line_slug": "tokyo-metro-marunouchi",
        "operator_slug": "tokyo-metro",
        "station_id": "401-04"
      },
      "geometry": {
        "type": "Point",
        "coordinates": [
          139.6581601,
          35.6979717
        ]
      }
    },
    {
      "type": "Feature",
      "properties": {
        "@id": "node/7786715963",
        "name": "新中野",
        "name:en": "Shin-nakano",
        "name:es": "Shin-nakano",
        "name:ja": "新中野",
        "name:ja-Hira": "しんなかの",
        "name:ja_rm": "Shin Nakano",
        "name:ko": "신나카노",
        "name:ru": "Син-Накано",
        "operator": "東京地下鉄",
        "platforms": "2",
        "public_transport": "station",
        "railway": "station",
        "ref": "M05",
        "station": "subway",
        "subway": "yes",
        "wheelchair": "yes",
        "wikidata": "Q1073232",
        "wikipedia": "ja:新中野駅",
        "station_order": 5,
        "route_id": "401",
        "line_slug": "tokyo-metro-marunouchi",
        "operator_slug": "tokyo-metro",
        "station_id": "401-05"
      },
      "geometry": {
        "type": "Point",
        "coordinates": [
          139.6686428,
          35.6974599
        ]
      }
    },
    {
      "type": "Feature",
      "properties": {
        "@id": "node/6217547168",
        "name": "中野坂上",
        "name:en": "Nakano-sakaue",
        "name:es": "Nakano-sakaue",
        "name:ja": "中野坂上",
        "name:ja-Hira": "なかのさかうえ",
        "name:ja_rm": "Nakano sakaue",
        "name:ko": "나카노사카우에",
        "name:ru": "Накано Сакауэ",
        "operator": "東京地下鉄",
        "platforms": "4",
        "public_transport": "station",
        "railway": "station",
        "ref": "M06",
        "station": "subway",
        "subway": "yes",
        "wheelchair": "yes",
        "wikidata": "Q275436",
        "wikipedia": "ja:中野坂上駅",
        "station_order": 6,
        "route_id": "401",
        "line_slug": "tokyo-metro-marunouchi",
        "operator_slug": "tokyo-metro",
        "station_id": "401-06"
      },
      "geometry": {
        "type": "Point",
        "coordinates": [
          139.6817498,
          35.6971173
        ]
      }
    },
    {
      "type": "Feature",
      "properties": {
        "@id": "node/7786715968",
        "addr:city": "新宿区",
        "addr:neighbourhood": "7丁目",
        "addr:postcode": "160-0023",
        "addr:province": "東京都",
        "addr:quarter": "西新宿",
        "internet_access": "wlan",
        "name": "西新宿",
        "name:en": "Nishi-shinjuku",
        "name:es": "Nishi-shinjuku",
        "name:ja": "西新宿",
        "name:ja-Hira": "にししんじゅく",
        "name:ja_rm": "Nishi Shinjuku",
        "name:ko": "니시신주쿠",
        "name:ru": "Ниси Синдзюку",
        "operator": "東京地下鉄",
        "platforms": "2",
        "public_transport": "station",
        "railway": "station",
        "ref": "M07",
        "station": "subway",
        "subway": "yes",
        "wheelchair": "yes",
        "wikidata": "Q138555",
        "wikipedia": "ja:西新宿駅",
        "station_order": 7,
        "route_id": "401",
        "line_slug": "tokyo-metro-marunouchi",
        "operator_slug": "tokyo-metro",
        "station_id": "401-07"
      },
      "geometry": {
        "type": "Point",
        "coordinates": [
          139.6927667,
          35.6944315
        ]
      }
    },
    {
      "type": "Feature",
      "properties": {
        "@id": "node/1926277346",
        "colour": "red",
        "name": "新宿",
        "name:en": "Shinjuku",
        "name:es": "Shinjuku",
        "name:fr": "Shinjuku",
        "name:ja": "新宿",
        "name:ja-Hira": "しんじゅく",
        "name:ja_rm": "Shinjuku",
        "name:ko": "신주쿠",
        "name:ru": "Синдзюку",
        "network": "東京メトロ",
        "operator": "東京地下鉄",
        "platforms": "2",
        "public_transport": "station",
        "railway": "station",
        "ref": "M08",
        "station": "subway",
        "subway": "yes",
        "wheelchair": "yes",
        "wikidata": "Q801447",
        "wikipedia": "ja:新宿駅",
        "station_order": 8,
        "route_id": "401",
        "line_slug": "tokyo-metro-marunouchi",
        "operator_slug": "tokyo-metro",
        "station_id": "401-08"
      },
      "geometry": {
        "type": "Point",
        "coordinates": [
          139.7006009,
          35.6922273
        ]
      }
    },
    {
      "type": "Feature",
      "properties": {
        "@id": "node/5408169522",
        "name": "新宿三丁目",
        "name:en": "Shinjuku-sanchome",
        "name:es": "Shinjuku-sanchome",
        "name:ja": "新宿三丁目",
        "name:ja-Hira": "しんじゅくさんちょうめ",
        "name:ko": "신주쿠산초메",
        "network": "副都心線",
        "operator": "東京地下鉄",
        "platforms": "2",
        "public_transport": "station",
        "railway": "station",
        "ref": "F13",
        "station": "subway",
        "subway": "yes",
        "wheelchair": "yes",
        "station_order": 9,
        "route_id": "401",
        "line_slug": "tokyo-metro-marunouchi",
        "operator_slug": "tokyo-metro",
        "station_id": "401-09"
      },
      "geometry": {
        "type": "Point",
        "coordinates": [
          139.7047597,
          35.6907365
        ]
      }
    },
    {
      "type": "Feature",
      "properties": {
        "@id": "node/7786715962",
        "alt_name:ko": "신주쿠교엔마에",
        "name": "新宿御苑前",
        "name:en": "Shinjuku-gyoemmae",
        "name:es": "Shinjuku-gyoemmae",
        "name:ja": "新宿御苑前",
        "name:ja-Hira": "しんじゅくぎょえんまえ",
        "name:ja_rm": "Shinjuku gyoen mae",
        "name:ko": "신주쿠교엔앞",
        "name:ru": "Синдзюку Гёэнмаэ",
        "operator": "東京地下鉄",
        "platforms": "2",
        "public_transport": "station",
        "railway": "station",
        "ref": "M10",
        "station": "subway",
        "subway": "yes",
        "wikidata": "Q1132610",
        "wikipedia": "ja:新宿御苑前駅",
        "station_order": 10,
        "route_id": "401",
        "line_slug": "tokyo-metro-marunouchi",
        "operator_slug": "tokyo-metro",
        "station_id": "401-10"
      },
      "geometry": {
        "type": "Point",
        "coordinates": [
          139.7107396,
          35.6885735
        ]
      }
    },
    {
      "type": "Feature",
      "properties": {
        "@id": "node/7786715967",
        "name": "四谷三丁目",
        "name:en": "Yotsuya-sanchome",
        "name:es": "Yotsuya-sanchome",
        "name:ja": "四谷三丁目",
        "name:ja-Hira": "よつやさんちょうめ",
        "name:ja_rm": "Yotsuya sanchōme",
        "name:ko": "요츠야 3초메",
        "name:ru": "Ёцуя Сантёмэ",
        "operator": "東京地下鉄",
        "platforms": "2",
        "public_transport": "station",
        "railway": "station",
        "ref": "M11",
        "station": "subway",
        "subway": "yes",
        "wikidata": "Q1073207",
        "wikipedia": "ja:四谷三丁目駅",
        "station_order": 11,
        "route_id": "401",
        "line_slug": "tokyo-metro-marunouchi",
        "operator_slug": "tokyo-metro",
        "station_id": "401-11"
      },
      "geometry": {
        "type": "Point",
        "coordinates": [
          139.7205752,
          35.687988
        ]
      }
    },
    {
      "type": "Feature",
      "properties": {
        "@id": "node/2822191201",
        "name": "四ツ谷",
        "name:en": "Yotsuya",
        "name:es": "Yotsuya",
        "name:ja": "四ツ谷",
        "name:ja_rm": "Yotsuya",
        "name:ko": "요츠야",
        "name:ru": "Ёцуя",
        "network": "ロ丸ノ内線",
        "operator": "東京地下鉄",
        "platforms": "2",
        "public_transport": "station",
        "railway": "station",
        "ref": "M12",
        "station": "subway",
        "subway": "yes",
        "station_order": 12,
        "route_id": "401",
        "line_slug": "tokyo-metro-marunouchi",
        "operator_slug": "tokyo-metro",
        "station_id": "401-12"
      },
      "geometry": {
        "type": "Point",
        "coordinates": [
          139.7299237,
          35.6849915
        ]
      }
    },
    {
      "type": "Feature",
      "properties": {
        "@id": "node/6179550652",
        "internet_access": "wlan",
        "internet_access:fee": "no",
        "internet_access:ssid": "Metro_Free_Wi-Fi",
        "name": "赤坂見附",
        "name:en": "Akasaka-mitsuke",
        "name:es": "Akasaka-mitsuke",
        "name:ja": "赤坂見附",
        "name:ja-Hira": "あかさかみつけ",
        "name:ja_rm": "Akasaka Mitsuke",
        "name:ko": "아카사카미츠케",
        "name:ru": "Акасака Мицукэ",
        "network": "東京メトロ丸ノ内線;銀座線",
        "note": "See diagram: https://commons.wikimedia.org/wiki/File:Rail_Tracks_map_Tokyo_Metro_Akasaka-mitsuke_Station.svg",
        "operator": "東京地下鉄",
        "platforms": "4",
        "public_transport": "station",
        "railway": "station",
        "ref": "M13;G05",
        "station": "subway",
        "subway": "yes",
        "toilets": "yes",
        "transport": "subway",
        "wheelchair": "yes",
        "wikidata": "Q602384",
        "wikipedia": "ja:赤坂見附駅",
        "station_order": 13,
        "route_id": "401",
        "line_slug": "tokyo-metro-marunouchi",
        "operator_slug": "tokyo-metro",
        "station_id": "401-13"
      },
      "geometry": {
        "type": "Point",
        "coordinates": [
          139.7375253,
          35.6763213
        ]
      }
    },
    {
      "type": "Feature",
      "properties": {
        "@id": "node/6202341257",
        "alt_name:ko": "곳카이기지도마에",
        "colour": "green",
        "internet_access": "wlan",
        "internet_access:fee": "no",
        "internet_access:ssid": "Metro_Free_Wi-Fi",
        "name": "国会議事堂前",
        "name:en": "Kokkai-gijidomae",
        "name:es": "Kokkai-gijidomae",
        "name:ja": "国会議事堂前",
        "name:ja-Hira": "こっかいぎじどうまえ",
        "name:ja_rm": "Kokkai gijidō mae",
        "name:ko": "국회의사당앞",
        "name:ru": "Коккай Гидзидомаэ",
        "network": "千代田線, 丸ノ内線, 銀座線, 南北線",
        "operator": "東京地下鉄",
        "public_transport": "station",
        "railway": "station",
        "ref": "C07",
        "source": "Survey",
        "station": "subway",
        "subway": "yes",
        "wheelchair": "yes",
        "wikidata": "Q1192508",
        "wikipedia": "ja:国会議事堂前駅",
        "station_order": 14,
        "route_id": "401",
        "line_slug": "tokyo-metro-marunouchi",
        "operator_slug": "tokyo-metro",
        "station_id": "401-14"
      },
      "geometry": {
        "type": "Point",
        "coordinates": [
          139.7434262,
          35.6736889
        ]
      }
    },
    {
      "type": "Feature",
      "properties": {
        "@id": "node/6195254304",
        "colour": "green",
        "name": "霞ケ関",
        "name:en": "Kasumigaseki",
        "name:es": "Kasumigaseki",
        "name:fr": "Kasumigaseki",
        "name:ja": "霞ケ関",
        "name:ja-Hira": "かすみがせき",
        "name:ja_rm": "Kasumigaseki",
        "name:ko": "가스미가세키",
        "name:ru": "Касумигасэки",
        "network": "千代田線",
        "operator": "東京地下鉄",
        "public_transport": "station",
        "railway": "station",
        "ref": "C08",
        "source": "Survey",
        "station": "subway",
        "subway": "yes",
        "wheelchair": "yes",
        "wikidata": "Q741614",
        "wikipedia": "ja:霞ケ関駅 (東京都)",
        "station_order": 15,
        "route_id": "401",
        "line_slug": "tokyo-metro-marunouchi",
        "operator_slug": "tokyo-metro",
        "station_id": "401-15"
      },
      "geometry": {
        "type": "Point",
        "coordinates": [
          139.7516221,
          35.6725014
        ]
      }
    },
    {
      "type": "Feature",
      "properties": {
        "@id": "node/6271990033",
        "name": "銀座",
        "name:en": "Ginza",
        "name:es": "Ginza",
        "name:fr": "Ginza",
        "name:ja": "銀座",
        "name:ja-Hira": "ぎんざ",
        "name:ja_rm": "Ginza",
        "name:ko": "긴자",
        "name:ru": "Гиндза",
        "operator": "東京地下鉄",
        "public_transport": "station",
        "railway": "station",
        "ref": "M16",
        "station": "subway",
        "subway": "yes",
        "wheelchair": "yes",
        "wikidata": "Q602372",
        "wikipedia": "ja:銀座駅",
        "station_order": 16,
        "route_id": "401",
        "line_slug": "tokyo-metro-marunouchi",
        "operator_slug": "tokyo-metro",
        "station_id": "401-16"
      },
      "geometry": {
        "type": "Point",
        "coordinates": [
          139.7631029,
          35.6728411
        ]
      }
    },
    {
      "type": "Feature",
      "properties": {
        "@id": "node/6193732167",
        "internet_access": "wlan",
        "name": "東京",
        "name:ar": "طوكيو",
        "name:ast": "Tokio",
        "name:ca": "Tòquio",
        "name:ckb": "تۆکیۆ",
        "name:cs": "Tokio",
        "name:cy": "Tokyo",
        "name:da": "Tokyo",
        "name:de": "Tokio",
        "name:el": "Τόκιο",
        "name:en": "Tokyo",
        "name:eo": "Tokio",
        "name:es": "Tokio",
        "name:et": "Tōkyō",
        "name:fa": "توکیو",
        "name:fi": "Tokio",
        "name:fr": "Tokyo",
        "name:he": "טוקיו",
        "name:hr": "Tokio",
        "name:hu": "Tokió",
        "name:ia": "Tokyo",
        "name:io": "Tokyo",
        "name:is": "Tókýó",
        "name:it": "Tokyo",
        "name:ja": "東京",
        "name:ja-Hira": "とうきょう",
        "name:ja_rm": "Tōkyō",
        "name:jbo": ".tokios.",
        "name:kn": "ಟೋಕ್ಯೊ",
        "name:ko": "도쿄도",
        "name:ku": "Tokyo",
        "name:lb": "Tokio",
        "name:lt": "Tokijas",
        "name:lv": "Tokija",
        "name:nan": "Tang-kiaⁿ",
        "name:nl": "Tokio",
        "name:oc": "Tòquio",
        "name:pap": "Tokyo",
        "name:pl": "Tokio",
        "name:pt": "Tóquio",
        "name:ru": "Токио",
        "name:sk": "Tokio",
        "name:sl": "Tokio",
        "name:sr": "Токио",
        "name:sv": "Tokyo",
        "name:szl": "Tokjo",
        "name:ta": "டோக்கியோ",
        "name:tg": "Токио",
        "name:th": "โตเกียว",
        "name:tr": "Tokyo",
        "name:uk": "Токіо",
        "name:vi": "Tokyo",
        "name:wuu": "东京",
        "name:yue": "東京",
        "name:zh": "东京",
        "name:zh-Hans": "东京",
        "name:zh-Hant": "東京",
        "network": "東京メトロ丸ノ内線",
        "operator": "東京地下鉄",
        "phone": "+81 3 32515652",
        "public_transport": "station",
        "railway": "station",
        "ref": "M17",
        "station": "subway",
        "subway": "yes",
        "website": "https://www.tokyometro.jp/lang_en/station/tokyo/",
        "wheelchair": "yes",
        "station_order": 17,
        "route_id": "401",
        "line_slug": "tokyo-metro-marunouchi",
        "operator_slug": "tokyo-metro",
        "station_id": "401-17"
      },
      "geometry": {
        "type": "Point",
        "coordinates": [
          139.7649584,
          35.6820173
        ]
      }
    },
    {
      "type": "Feature",
      "properties": {
        "@id": "node/1923768928",
        "name": "大手町",
        "name:en": "Otemachi",
        "name:es": "Otemachi",
        "name:fr": "Ōtemachi",
        "name:ja": "大手町",
        "name:ja-Hira": "おおてまち",
        "name:ja_rm": "Ōtemachi",
        "name:ko": "오테마치",
        "name:ru": "Отэмати",
        "name:zh": "大手町",
        "name:zh-Hans": "大手町",
        "operator": "東京地下鉄",
        "platforms": "2",
        "public_transport": "station",
        "railway": "station",
        "ref": "T09",
        "station": "subway",
        "subway": "yes",
        "wheelchair": "no",
        "wikidata": "Q1326767",
        "wikipedia": "ja:大手町駅 (東京都)",
        "station_order": 18,
        "route_id": "401",
        "line_slug": "tokyo-metro-marunouchi",
        "operator_slug": "tokyo-metro",
        "station_id": "401-18"
      },
      "geometry": {
        "type": "Point",
        "coordinates": [
          139.7664613,
          35.6846087
        ]
      }
    },
    {
      "type": "Feature",
      "properties": {
        "@id": "node/7786715965",
        "name": "淡路町",
        "name:en": "Awajicho",
        "name:es": "Awajicho",
        "name:ja": "淡路町",
        "name:ja-Hira": "あわじちょう",
        "name:ja_rm": "Awajichō",
        "name:ko": "아와지초",
        "name:ru": "Авадзитё",
        "name:zh": "淡路町",
        "name:zh-Hans": "淡路町",
        "operator": "東京地下鉄",
        "public_transport": "station",
        "railway": "station",
        "ref": "M19",
        "station": "subway",
        "subway": "yes",
        "wikidata": "Q1078432",
        "wikipedia": "ja:淡路町駅",
        "station_order": 19,
        "route_id": "401",
        "line_slug": "tokyo-metro-marunouchi",
        "operator_slug": "tokyo-metro",
        "station_id": "401-19"
      },
      "geometry": {
        "type": "Point",
        "coordinates": [
          139.767473,
          35.6950614
        ]
      }
    },
    {
      "type": "Feature",
      "properties": {
        "@id": "node/7786715961",
        "colour": "red",
        "name": "御茶ノ水",
        "name:en": "Ochanomizu",
        "name:es": "Ochanomizu",
        "name:fr": "Ochanomizu",
        "name:ja": "御茶ノ水",
        "name:ja-Hira": "おちゃのみず",
        "name:ja_rm": "Ochanomizu",
        "name:ko": "오차노미즈",
        "name:ru": "Отяномидзу",
        "name:zh": "御茶之水",
        "name:zh-Hans": "御茶之水",
        "operator": "東京地下鉄",
        "platforms": "2",
        "public_transport": "station",
        "railway": "station",
        "ref": "M20",
        "station": "subway",
        "subway": "yes",
        "toilets:wheelchair": "yes",
        "wheelchair": "yes",
        "wikidata": "Q801289",
        "wikipedia": "ja:御茶ノ水駅",
        "station_order": 20,
        "route_id": "401",
        "line_slug": "tokyo-metro-marunouchi",
        "operator_slug": "tokyo-metro",
        "station_id": "401-20"
      },
      "geometry": {
        "type": "Point",
        "coordinates": [
          139.764082,
          35.7005755
        ]
      }
    },
    {
      "type": "Feature",
      "properties": {
        "@id": "node/789405355",
        "colour": "red",
        "name": "本郷三丁目",
        "name:en": "Hongo-sanchome",
        "name:es": "Hongo-sanchome",
        "name:ja": "本郷三丁目",
        "name:ja-Hira": "ほんごうさんちょうめ",
        "name:ja_rm": "Hongō Sanchōme",
        "name:ko": "혼고3초메",
        "name:ru": "Хонго Сантёмэ",
        "name:zh": "本乡三町目",
        "name:zh-Hans": "本乡三町目",
        "operator": "東京地下鉄",
        "platforms": "2",
        "public_transport": "station",
        "railway": "station",
        "ref": "M21",
        "station": "subway",
        "subway": "yes",
        "wheelchair": "yes",
        "wikidata": "Q80774",
        "wikipedia": "ja:本郷三丁目駅",
        "station_order": 21,
        "route_id": "401",
        "line_slug": "tokyo-metro-marunouchi",
        "operator_slug": "tokyo-metro",
        "station_id": "401-21"
      },
      "geometry": {
        "type": "Point",
        "coordinates": [
          139.7599627,
          35.7066386
        ]
      }
    },
    {
      "type": "Feature",
      "properties": {
        "@id": "node/4406993248",
        "name": "後楽園",
        "name:en": "Korakuen",
        "name:es": "Korakuen",
        "name:ja": "後楽園",
        "name:ja-Hira": "こうらくえん",
        "name:ja_rm": "Kōrakuen",
        "name:ko": "고라쿠엔",
        "name:ru": "Коракуэн",
        "network": "東京メトロ丸ノ内線",
        "operator": "東京地下鉄",
        "platforms": "2",
        "public_transport": "station",
        "railway": "station",
        "ref": "M22",
        "station": "subway",
        "subway": "yes",
        "wheelchair": "yes",
        "wikidata": "Q1156432",
        "wikipedia": "ja:後楽園駅",
        "station_order": 22,
        "route_id": "401",
        "line_slug": "tokyo-metro-marunouchi",
        "operator_slug": "tokyo-metro",
        "station_id": "401-22"
      },
      "geometry": {
        "type": "Point",
        "coordinates": [
          139.7512155,
          35.7073372
        ]
      }
    },
    {
      "type": "Feature",
      "properties": {
        "@id": "node/1926700041",
        "name": "茗荷谷",
        "name:en": "Myogadani",
        "name:es": "Myogadani",
        "name:ja": "茗荷谷",
        "name:ja-Hira": "みょうがだに",
        "name:ja-Latn": "Myōgatani",
        "name:ko": "묘가다니",
        "name:ru": "Мёгадани",
        "operator": "東京地下鉄",
        "platforms": "2",
        "public_transport": "station",
        "railway": "station",
        "ref": "M23",
        "station": "subway",
        "subway": "yes",
        "wheelchair": "yes",
        "wikidata": "Q1078367",
        "wikipedia": "ja:茗荷谷駅",
        "station_order": 23,
        "route_id": "401",
        "line_slug": "tokyo-metro-marunouchi",
        "operator_slug": "tokyo-metro",
        "station_id": "401-23"
      },
      "geometry": {
        "type": "Point",
        "coordinates": [
          139.7369396,
          35.7171896
        ]
      }
    },
    {
      "type": "Feature",
      "properties": {
        "@id": "node/7786715960",
        "name": "新大塚",
        "name:en": "Shin-otsuka",
        "name:es": "Shin-otsuka",
        "name:ja": "新大塚",
        "name:ja_rm": "Shin-ōtsuka",
        "name:ko": "신오쓰카",
        "name:ru": "Син-Оцука",
        "operator": "東京地下鉄",
        "public_transport": "station",
        "railway": "station",
        "ref": "M24",
        "station": "subway",
        "subway": "yes",
        "wheelchair": "yes",
        "wikidata": "Q1078382",
        "wikipedia": "ja:新大塚駅",
        "station_order": 24,
        "route_id": "401",
        "line_slug": "tokyo-metro-marunouchi",
        "operator_slug": "tokyo-metro",
        "station_id": "401-24"
      },
      "geometry": {
        "type": "Point",
        "coordinates": [
          139.7299234,
          35.7257823
        ]
      }
    },
    {
      "type": "Feature",
      "properties": {
        "@id": "node/1926700040",
        "name": "池袋",
        "name:en": "Ikebukuro",
        "name:es": "Ikebukuro",
        "name:fr": "Ikebukuro",
        "name:ja": "池袋",
        "name:ja-Hira": "いけぶくろ",
        "name:ja-Latn": "Ikebukuro",
        "name:ko": "이케부쿠로",
        "name:ru": "Икебукуро",
        "name:th": "อิเคะบุคุโระ",
        "operator": "東京地下鉄",
        "public_transport": "station",
        "railway": "station",
        "ref": "M25",
        "station": "subway",
        "subway": "yes",
        "wheelchair": "yes",
        "wikidata": "Q173919",
        "wikipedia": "ja:池袋駅",
        "station_order": 25,
        "route_id": "401",
        "line_slug": "tokyo-metro-marunouchi",
        "operator_slug": "tokyo-metro",
        "station_id": "401-25"
      },
      "geometry": {
        "type": "Point",
        "coordinates": [
          139.7114846,
          35.7302282
        ]
      }
    }
  ]
}